{
"type": "FeatureCollection",
"name": "14",
"crs": { "type": "name", "properties": { "name": "urn:ogc:def:crs:OGC:1.3:CRS84" } },
"features": [
{ "type": "Feature", "properties": { "kemendagri_kab_code": 1401, "kemendagri_kab_name": "Kabupaten Kampar", "kemendagri_prov_code": 14, "kemendagri_prov_name": "Riau" }, "geometry": { "type": "Polygon", "coordinates": [ [ [ 100.99323, 0.968265556000063 ], [ 101.062057937000077, 0.924509017000048 ], [ 101.05587513200004, 0.888092666000034 ], [ 101.066072212000051, 0.897272316000056 ], [ 101.065626454000039, 0.91515984800003 ], [ 101.069603956000037, 0.909482594000053 ], [ 101.07586609100008, 0.919108197000071 ], [ 101.087432251000052, 0.920093477000023 ], [ 101.105774973000052, 0.904105043000072 ], [ 101.119699094000055, 0.90442796800005 ], [ 101.119486816000062, 0.89686531600006 ], [ 101.134306438000067, 0.900733007000042 ], [ 101.161884179000083, 0.878389412000047 ], [ 101.244012391000069, 0.835010700000055 ], [ 101.261234966000075, 0.833194023000033 ], [ 101.26624014500004, 0.822601274000021 ], [ 101.285249400000055, 0.824246640000069 ], [ 101.300440680000065, 0.813735090000023 ], [ 101.300435280000045, 0.804164220000075 ], [ 101.329790868000032, 0.800311631000056 ], [ 101.342592993000039, 0.785788797000066 ], [ 101.379290862000062, 0.768817188000071 ], [ 101.378987599000084, 0.752687432000073 ], [ 101.387521457000048, 0.748469137000029 ], [ 101.379725664000034, 0.73370396200005 ], [ 101.367054835000033, 0.733540252000068 ], [ 101.344554173000063, 0.714191012000072 ], [ 101.32024178000006, 0.713864842000021 ], [ 101.32469728500007, 0.691769051000051 ], [ 101.375219582000057, 0.710586376000037 ], [ 101.397083333000069, 0.689416667000046 ], [ 101.384625847000052, 0.680481610000072 ], [ 101.375801958000068, 0.645641031000025 ], [ 101.323293905000071, 0.596739975000048 ], [ 101.331808115000058, 0.586860075000061 ], [ 101.323234266000043, 0.579963841000051 ], [ 101.33797472200007, 0.575429799000062 ], [ 101.341222446000074, 0.581822425000041 ], [ 101.342817690000061, 0.568107902000065 ], [ 101.353518983000072, 0.565381463000051 ], [ 101.349707548000083, 0.560717451000073 ], [ 101.368402397000068, 0.557683818000044 ], [ 101.369746101000032, 0.565812658000027 ], [ 101.374496071000067, 0.554379914000037 ], [ 101.353450574000078, 0.501824847000023 ], [ 101.33224875500008, 0.47661234100002 ], [ 101.350693098000079, 0.46714006000002 ], [ 101.364267212000073, 0.441542850000076 ], [ 101.44734102700005, 0.420394509000062 ], [ 101.454509564000034, 0.443925418000049 ], [ 101.480497214000081, 0.449662089000071 ], [ 101.478695218000041, 0.461927397000068 ], [ 101.489914123000062, 0.461805865000031 ], [ 101.496060515000067, 0.44479168700002 ], [ 101.543599756000049, 0.432303981000075 ], [ 101.563464826000086, 0.46106269400002 ], [ 101.583058862000087, 0.457487056000048 ], [ 101.58939233600006, 0.464080655000032 ], [ 101.599956044000066, 0.445735377000062 ], [ 101.590420106000067, 0.435726294000062 ], [ 101.592141773000037, 0.414204926000025 ], [ 101.61356640200006, 0.397607328000049 ], [ 101.61105239300008, 0.382656104000034 ], [ 101.636725, 0.383335 ], [ 101.634318506000056, 0.357313751000049 ], [ 101.614270357000066, 0.340399353000066 ], [ 101.622006970000086, 0.340819474000057 ], [ 101.637042677000068, 0.318579887000055 ], [ 101.666805606000082, 0.316252461000033 ], [ 101.665060848000053, 0.278251392000072 ], [ 101.661619562000055, 0.283628547000035 ], [ 101.653188894000039, 0.271651483000028 ], [ 101.638833, 0.268978 ], [ 101.585033964000047, 0.268114001000072 ], [ 101.589368691000061, 0.24181588700003 ], [ 101.578193756000076, 0.234529245000033 ], [ 101.58474422200004, 0.195743508000021 ], [ 101.569577302000084, 0.192258073000062 ], [ 101.567816400000083, 0.202374750000047 ], [ 101.567568300000062, 0.130883611000058 ], [ 101.558482800000036, 0.13255091700006 ], [ 101.539776247000077, 0.111888300000032 ], [ 101.514793290000057, 0.109969875000047 ], [ 101.503796182000087, 0.101214645000027 ], [ 101.507965635000062, 0.094751730000041 ], [ 101.495611773000064, 0.07655644700003 ], [ 101.497111865000079, 0.065104295000026 ], [ 101.517197175000035, 0.05295916700004 ], [ 101.522272617000056, -0.004992220999952 ], [ 101.534001185000079, -0.002530415999956 ], [ 101.54669199600005, -0.043654517999926 ], [ 101.515135389000079, -0.064031582999974 ], [ 101.518599992000077, -0.100122028999976 ], [ 101.497640054000044, -0.1029 ], [ 101.479507621000039, -0.073007649999965 ], [ 101.457662145000086, -0.067192882999962 ], [ 101.405368543000066, -0.086738887999957 ], [ 101.392379621000032, -0.099397576999934 ], [ 101.34973804200007, -0.104601997999964 ], [ 101.337844693000079, -0.079743140999938 ], [ 101.296389473000033, -0.049742823999964 ], [ 101.28152366900008, -0.009023978999949 ], [ 101.264723187000072, 0.009374682000043 ], [ 101.250458679000076, -0.016767910999931 ], [ 101.242752462000055, -0.056505493999964 ], [ 101.232523127000036, -0.060023552999951 ], [ 101.220182169000054, -0.090590017999943 ], [ 101.20867131600005, -0.093935745999943 ], [ 101.210091500000033, -0.10724879199995 ], [ 101.198024228000065, -0.113415605999933 ], [ 101.203852356000084, -0.146235199999978 ], [ 101.194049431000053, -0.167502898999942 ], [ 101.200683281000067, -0.178373440999962 ], [ 101.173707199000035, -0.204162525999948 ], [ 101.152715446000059, -0.238502874999938 ], [ 101.135683940000035, -0.28769372499994 ], [ 101.140413796000075, -0.333205663999934 ], [ 101.100938664000068, -0.379084642999942 ], [ 101.041388889000075, -0.376111110999943 ], [ 101.037417953000045, -0.350741227999947 ], [ 100.992222222000066, -0.315833332999944 ], [ 100.948500927000055, -0.312122037999927 ], [ 100.901307699000085, -0.32520752399995 ], [ 100.88976204800008, -0.341559706999931 ], [ 100.8725, -0.345 ], [ 100.860833333000073, -0.332222221999928 ], [ 100.845, -0.34277777799997 ], [ 100.844158333000053, -0.330272221999962 ], [ 100.835337896000055, -0.324393966999935 ], [ 100.845437223000033, -0.316202290999968 ], [ 100.842912391000084, -0.290042227999947 ], [ 100.81303521500007, -0.275734847999956 ], [ 100.801883333000035, -0.242552777999947 ], [ 100.774723230000063, -0.214393123999969 ], [ 100.783909254000037, -0.185951880999937 ], [ 100.772612969000079, -0.179518234999932 ], [ 100.765618250000045, -0.14783627199995 ], [ 100.752985779000085, -0.131753196999966 ], [ 100.759438127000067, -0.122551587999965 ], [ 100.756881544000066, -0.097004602999959 ], [ 100.748004691000062, -0.053545751999934 ], [ 100.736446572000034, -0.049225484999965 ], [ 100.73801757800004, -0.040865485999973 ], [ 100.758397222000042, -0.043641666999974 ], [ 100.766968983000083, -0.02083515399994 ], [ 100.780902314000059, -0.030064816999925 ], [ 100.805907500000046, -0.019713005999961 ], [ 100.80500978200007, -0.037835687999973 ], [ 100.8165, -0.048833332999948 ], [ 100.816511794000064, -0.033627634999959 ], [ 100.82884987500006, -0.028350424999928 ], [ 100.823916667000049, -0.019666666999967 ], [ 100.842559469000037, -0.005606850999925 ], [ 100.844560632000082, 0.033914560000028 ], [ 100.864590964000058, 0.045248249000053 ], [ 100.833120962000066, 0.068482936000066 ], [ 100.827061365000077, 0.055466025000044 ], [ 100.800222222000059, 0.050222222000059 ], [ 100.77421445400006, 0.102243990000034 ], [ 100.786258896000049, 0.106742840000038 ], [ 100.787767502000065, 0.127498542000069 ], [ 100.813502084000049, 0.133932187000028 ], [ 100.820872222000048, 0.145422222000036 ], [ 100.835421364000069, 0.14088950200005 ], [ 100.849191667000071, 0.162302778000026 ], [ 100.846875, 0.206186111000022 ], [ 100.838659430000064, 0.215184491000059 ], [ 100.843033649000063, 0.223348074000057 ], [ 100.817261662000078, 0.259674019000045 ], [ 100.811052446000076, 0.251631962000033 ], [ 100.799188203000085, 0.25811451900006 ], [ 100.773485443000084, 0.251301552000029 ], [ 100.766805556000065, 0.233611111000073 ], [ 100.739319, 0.242999 ], [ 100.737777778000066, 0.236944444000073 ], [ 100.713318, 0.240309 ], [ 100.699555, 0.248497 ], [ 100.686850117000063, 0.190278761000059 ], [ 100.672701707000044, 0.18527117800005 ], [ 100.670607032000078, 0.195968984000046 ], [ 100.626416677000066, 0.219444471000031 ], [ 100.625694456000076, 0.234166702000039 ], [ 100.587786867000034, 0.251505705000056 ], [ 100.581853512000066, 0.279152613000065 ], [ 100.559017811000047, 0.304660428000034 ], [ 100.53405003000006, 0.304379891000053 ], [ 100.531637413000055, 0.317396802000076 ], [ 100.523614058000078, 0.319157171000029 ], [ 100.49596715000007, 0.305018113000074 ], [ 100.470845073000078, 0.311330192000071 ], [ 100.45304500900005, 0.342890590000025 ], [ 100.429311590000054, 0.360438171000055 ], [ 100.437012327000048, 0.384297831000026 ], [ 100.460666643000081, 0.401388913000062 ], [ 100.461077195000087, 0.41157406700006 ], [ 100.445833309000079, 0.417777776000037 ], [ 100.465322527000069, 0.433470916000033 ], [ 100.461749526000062, 0.445834368000021 ], [ 100.480577381000046, 0.440940943000044 ], [ 100.493833392000056, 0.453892726000049 ], [ 100.504595196000082, 0.441994823000073 ], [ 100.531186247000051, 0.446226616000047 ], [ 100.555618145000039, 0.472114323000028 ], [ 100.542420545000084, 0.501925481000058 ], [ 100.571185867000054, 0.52806550400004 ], [ 100.581237262000059, 0.51523497900007 ], [ 100.602989816000047, 0.50826389100007 ], [ 100.666222079000079, 0.435572493000052 ], [ 100.719496873000082, 0.389917871000023 ], [ 100.740034803000071, 0.397364620000076 ], [ 100.758507180000038, 0.391471793000051 ], [ 100.769929760000082, 0.402131690000033 ], [ 100.786720593000041, 0.404170893000071 ], [ 100.794174893000047, 0.388035682000066 ], [ 100.814271688000076, 0.380519052000068 ], [ 100.83241898700004, 0.385853267000073 ], [ 100.841005132000078, 0.374321179000049 ], [ 100.850719089000052, 0.374164106000023 ], [ 100.856987915000047, 0.409747282000069 ], [ 100.85191502400005, 0.433319126000072 ], [ 100.865903139000068, 0.473122032000049 ], [ 100.854457647000061, 0.502426876000072 ], [ 100.863197530000036, 0.513677697000048 ], [ 100.861730827000088, 0.533942452000019 ], [ 100.841711079000049, 0.538607368000044 ], [ 100.82994259600008, 0.533142016000056 ], [ 100.823236961000077, 0.539377990000048 ], [ 100.812009604000082, 0.53431097400005 ], [ 100.803083117000085, 0.541135418000067 ], [ 100.796963660000074, 0.533314976000042 ], [ 100.767283736000081, 0.564531230000057 ], [ 100.759785496000063, 0.589700815000072 ], [ 100.748032844000079, 0.585899690000076 ], [ 100.737500275000059, 0.595375989000047 ], [ 100.707428257000061, 0.599805674000038 ], [ 100.69369542700008, 0.592503006000072 ], [ 100.684567218000041, 0.59963896000005 ], [ 100.674336134000043, 0.595563908000031 ], [ 100.643286559000046, 0.621861979000073 ], [ 100.638535408000052, 0.65484456400003 ], [ 100.587256744000058, 0.700094962000037 ], [ 100.647966042000064, 0.733158902000071 ], [ 100.674355324000032, 0.766502052000021 ], [ 100.704279711000083, 0.758418777000031 ], [ 100.749161392000076, 0.778382201000056 ], [ 100.726496351000037, 0.80103400400003 ], [ 100.740188730000057, 0.804179999000041 ], [ 100.739551498000083, 0.839515225000071 ], [ 100.733796607000045, 0.842297772000052 ], [ 100.773456926000051, 0.864197432000026 ], [ 100.83493049100008, 0.940970918000062 ], [ 100.913868507000075, 0.959404620000043 ], [ 100.994095618000074, 0.956433325000035 ], [ 100.99323, 0.968265556000063 ] ] ] } },
{ "type": "Feature", "properties": { "kemendagri_kab_code": 1402, "kemendagri_kab_name": "Kabupaten Indragiri Hulu", "kemendagri_prov_code": 14, "kemendagri_prov_name": "Riau" }, "geometry": { "type": "Polygon", "coordinates": [ [ [ 102.695444611000084, 0.085931250000044 ], [ 102.69328678100004, -0.338995514999965 ], [ 102.718580489000033, -0.41201697799994 ], [ 102.714593137000065, -0.437283394999952 ], [ 102.690697244000035, -0.473357754999938 ], [ 102.68637003300006, -0.512558215999945 ], [ 102.705698663000078, -0.527702524999938 ], [ 102.71856611000004, -0.558418608999943 ], [ 102.686085582000032, -0.563988875999939 ], [ 102.690644463000069, -0.652939929999945 ], [ 102.650863391000087, -0.681093259999955 ], [ 102.640874527000051, -0.70781319699995 ], [ 102.637370026000042, -0.744594808999977 ], [ 102.667861934000086, -0.763369226999941 ], [ 102.676612338000041, -0.777666969999927 ], [ 102.628822393000064, -0.817844218999937 ], [ 102.580495533000033, -0.873183701999949 ], [ 102.565879876000054, -0.905367385999966 ], [ 102.574641694000036, -1.006809221999958 ], [ 102.601365685000076, -1.042518434999977 ], [ 102.608027049000043, -1.10133553999998 ], [ 102.586111138000035, -1.095555554999976 ], [ 102.552191755000081, -1.104702169999939 ], [ 102.541944399000045, -1.086944456999959 ], [ 102.537010508000037, -1.100177735999978 ], [ 102.508611148000057, -1.083611142999928 ], [ 102.479980375000082, -1.089051345999962 ], [ 102.46795446200008, -1.080901332999929 ], [ 102.474183675000063, -1.070624324999926 ], [ 102.440677611000069, -1.030870767999943 ], [ 102.429595178000056, -1.037037530999953 ], [ 102.408789364000086, -1.033216464999953 ], [ 102.404370363000055, -1.039884127999926 ], [ 102.387585203000071, -1.028406637999979 ], [ 102.384444441000085, -1.038055547999932 ], [ 102.374627341000064, -1.034205784999926 ], [ 102.373246296000048, -1.011791207999977 ], [ 102.383055556000045, -0.993611137999949 ], [ 102.357505997000032, -0.967781262999949 ], [ 102.323475831000053, -0.961865457999977 ], [ 102.303765405000036, -0.918575215999965 ], [ 102.257176433000041, -0.919821525999964 ], [ 102.24641021900004, -0.933569248999959 ], [ 102.236167929000032, -0.93036865199997 ], [ 102.221388882000042, -0.946111106999979 ], [ 102.202902551000079, -0.947092677999933 ], [ 102.190277810000055, -0.944999971999948 ], [ 102.188996595000049, -0.916328376999957 ], [ 102.174746436000078, -0.91724123399996 ], [ 102.166453128000057, -0.899762102999944 ], [ 102.159174374000088, -0.904969155999936 ], [ 102.144183205000047, -0.899050845999966 ], [ 102.138942524000072, -0.912211937999928 ], [ 102.117222220000087, -0.921111085999939 ], [ 102.065615309000066, -0.889481294999939 ], [ 102.048333336000042, -0.900295876999962 ], [ 102.011944478000032, -0.877777754999954 ], [ 101.986111116000075, -0.881111130999955 ], [ 101.962380335000034, -0.917321442999935 ], [ 101.948812179000072, -0.907694208999942 ], [ 101.926774351000063, -0.91517641799993 ], [ 101.930332832000033, -0.908769389999975 ], [ 101.915962719000049, -0.883061827999938 ], [ 101.853746674000035, -0.87723207199997 ], [ 101.861952416000065, -0.859663111999964 ], [ 101.874286926000082, -0.871001903999968 ], [ 101.881040610000071, -0.853100423999933 ], [ 101.896513605000052, -0.844498832999932 ], [ 101.893540262000045, -0.825860183999964 ], [ 101.861268735000067, -0.834673930999941 ], [ 101.860825669000064, -0.816478728999925 ], [ 101.840277317000073, -0.814074314999971 ], [ 101.827623630000062, -0.845821484999931 ], [ 101.816702466000038, -0.850159785999949 ], [ 101.790678135000064, -0.823779607999938 ], [ 101.786579071000062, -0.804129302999968 ], [ 101.777054114000066, -0.797224058999973 ], [ 101.794704874000047, -0.739779193999937 ], [ 101.797383, -0.675939 ], [ 101.782803085000069, -0.650887707999971 ], [ 101.827592, -0.619298 ], [ 101.830646, -0.571768 ], [ 101.865791, -0.564714 ], [ 101.8876, -0.543736 ], [ 101.912277778000032, -0.533555555999953 ], [ 101.913888889000077, -0.39972222199998 ], [ 101.898709722000035, -0.386765277999928 ], [ 101.957814, -0.401780519999932 ], [ 101.985324840000033, -0.394491689999938 ], [ 102.01651959700007, -0.35358991499993 ], [ 102.047149957000045, -0.341840245999947 ], [ 102.048030458000085, -0.313969437999958 ], [ 102.087187408000034, -0.298003519999952 ], [ 102.08723976400006, -0.288311651999948 ], [ 102.143395195000039, -0.287547182999958 ], [ 102.149437968000086, -0.269148807999954 ], [ 102.1623, -0.264961110999934 ], [ 102.175089120000052, -0.247707989999924 ], [ 102.214398656000071, -0.165304496999966 ], [ 102.414666600000032, -0.165527819999966 ], [ 102.448416600000087, -0.143361089999928 ], [ 102.467416680000042, -0.117027809999968 ], [ 102.533472360000076, 0.06819444000007 ], [ 102.583000080000033, 0.088194420000036 ], [ 102.695444611000084, 0.085931250000044 ] ] ] } },
{ "type": "Feature", "properties": { "kemendagri_kab_code": 1403, "kemendagri_kab_name": "Kabupaten Bengkalis", "kemendagri_prov_code": 14, "kemendagri_prov_name": "Riau" }, "geometry": { "type": "MultiPolygon", "coordinates": [ [ [ [ 101.725386750000041, 1.671197858000028 ], [ 101.762783, 1.658935777000067 ], [ 101.84897931200004, 1.580650499000058 ], [ 101.924574043000064, 1.529146713000046 ], [ 102.00428320900005, 1.459214290000034 ], [ 102.089972258000046, 1.401368416000025 ], [ 102.148560561000068, 1.379147853000063 ], [ 102.158565770000052, 1.361964296000053 ], [ 102.150519409000083, 1.271332262000044 ], [ 102.168570659000068, 1.228508617000045 ], [ 102.165188509000075, 1.201749535000033 ], [ 102.148134, 1.204465 ], [ 102.149127633000035, 1.187311547000036 ], [ 102.101853, 1.148484 ], [ 102.09463, 1.120367 ], [ 102.076997, 1.122664 ], [ 102.066799, 1.11384 ], [ 102.065315, 1.093084 ], [ 102.037591, 1.087397 ], [ 102.033289, 1.032217 ], [ 102.020256, 1.032249 ], [ 101.978956290000042, 0.980016163000073 ], [ 101.954078518000074, 1.006165237000062 ], [ 101.948824, 1.031182 ], [ 101.910111111000049, 1.089083333000076 ], [ 101.887236998000049, 1.176158994000048 ], [ 101.856842, 1.201519 ], [ 101.776999965000073, 1.211972281000044 ], [ 101.712750018000065, 1.211777820000066 ], [ 101.598997532000055, 1.034027184000024 ], [ 101.547525513000039, 0.921668479000061 ], [ 101.524505156000032, 0.931502172000023 ], [ 101.515473342000064, 0.953639620000047 ], [ 101.456167908000054, 0.985032384000021 ], [ 101.455134986000076, 1.004422973000032 ], [ 101.433370170000046, 1.016147102000048 ], [ 101.42251617900007, 1.013974970000049 ], [ 101.416778866000072, 1.022878491000029 ], [ 101.391820553000059, 1.020757108000055 ], [ 101.364452165000046, 1.032024515000046 ], [ 101.339717979000056, 1.028183922000039 ], [ 101.282274202000053, 1.059690687000057 ], [ 101.276166328000045, 1.045066563000034 ], [ 101.23132176200005, 1.006782403000045 ], [ 101.192649807000066, 0.999595071000044 ], [ 101.169855592000033, 1.012286251000035 ], [ 101.128129986000033, 1.020135588000073 ], [ 101.078857179000067, 1.00296555500006 ], [ 100.984027778000041, 1.082027778000054 ], [ 100.992371748000039, 1.207011999000031 ], [ 100.978866804000063, 1.263801747000059 ], [ 100.987286139000048, 1.270114485000022 ], [ 100.988321927000072, 1.298087172000066 ], [ 100.967669687000068, 1.330943999000056 ], [ 100.973446667000076, 1.348791111000025 ], [ 101.021165287000088, 1.352655938000055 ], [ 101.066659564000076, 1.377873604000058 ], [ 101.105292366000072, 1.410722013000054 ], [ 101.124159228000053, 1.413896937000061 ], [ 101.177261194000039, 1.451901016000022 ], [ 101.20929269800007, 1.456633134000072 ], [ 101.208957449000081, 1.465373410000041 ], [ 101.242699526000081, 1.480921091000027 ], [ 101.255984372000057, 1.463526768000065 ], [ 101.265755372000058, 1.465228310000043 ], [ 101.264488693000033, 1.490113143000031 ], [ 101.277097553000033, 1.490000323000061 ], [ 101.277369551000049, 1.467448420000039 ], [ 101.317136272000084, 1.474679412000057 ], [ 101.435643341000059, 1.447194944000046 ], [ 101.449325242000043, 1.494308271000023 ], [ 101.506643221000047, 1.493310278000024 ], [ 101.528085401000055, 1.595554337000067 ], [ 101.598044483000081, 1.600172017000034 ], [ 101.611111, 1.579611 ], [ 101.618272721000039, 1.54549432400006 ], [ 101.640680571000075, 1.547858597000072 ], [ 101.642297745000064, 1.562215805000051 ], [ 101.624254324000049, 1.588621605000071 ], [ 101.642167, 1.609861 ], [ 101.718530556000076, 1.622686111000064 ], [ 101.725386750000041, 1.671197858000028 ] ] ], [ [ [ 101.431851015000063, 1.75000000600005 ], [ 101.430128508000053, 1.746372651000058 ], [ 101.43197443300005, 1.754450354000028 ], [ 101.431851015000063, 1.75000000600005 ] ] ], [ [ [ 101.411648543000069, 1.753276825000057 ], [ 101.409026877000088, 1.754311477000044 ], [ 101.411839102000044, 1.756601991000025 ], [ 101.411648543000069, 1.753276825000057 ] ] ], [ [ [ 101.415732628000058, 1.753310240000076 ], [ 101.414547657000071, 1.755680183000038 ], [ 101.415340017000062, 1.756137040000056 ], [ 101.415732628000058, 1.753310240000076 ] ] ], [ [ [ 101.416967569000064, 1.75447379700006 ], [ 101.416332253000064, 1.756508236000059 ], [ 101.416410775000088, 1.756601035000074 ], [ 101.416967569000064, 1.75447379700006 ] ] ], [ [ [ 101.417288305000056, 1.745354673000065 ], [ 101.417675581000083, 1.755494734000024 ], [ 101.415580970000065, 1.767203338000058 ], [ 101.41959606100005, 1.754021830000056 ], [ 101.417288305000056, 1.745354673000065 ] ] ], [ [ [ 101.380354847000035, 1.763552813000047 ], [ 101.371876893000035, 1.786096522000037 ], [ 101.380684476000056, 1.791053952000027 ], [ 101.381499635000068, 1.772842126000057 ], [ 101.380354847000035, 1.763552813000047 ] ] ], [ [ [ 101.401198503000046, 1.828163436000068 ], [ 101.411460056000067, 1.797636735000026 ], [ 101.405487480000033, 1.757538949000036 ], [ 101.393530817000055, 1.793330686000047 ], [ 101.393740514000058, 1.822175764000065 ], [ 101.401198503000046, 1.828163436000068 ] ] ], [ [ [ 101.381593571000053, 1.802582862000065 ], [ 101.380698072000087, 1.791487572000051 ], [ 101.372116840000047, 1.787784506000037 ], [ 101.372956070000043, 1.801863998000044 ], [ 101.381593571000053, 1.802582862000065 ] ] ], [ [ [ 101.406245691000038, 1.836044780000066 ], [ 101.403450195000062, 1.841578753000022 ], [ 101.403380235000043, 1.844165793000059 ], [ 101.406051240000068, 1.84123618700005 ], [ 101.406245691000038, 1.836044780000066 ] ] ], [ [ [ 101.359576480000044, 1.888637882000069 ], [ 101.366976171000033, 1.881756101000065 ], [ 101.367117232000055, 1.870304755000063 ], [ 101.353769251000074, 1.883300822000024 ], [ 101.359576480000044, 1.888637882000069 ] ] ], [ [ [ 101.572667139000032, 2.077089975000035 ], [ 101.576649641000074, 2.076872895000065 ], [ 101.571026008000047, 2.074742770000057 ], [ 101.572667139000032, 2.077089975000035 ] ] ], [ [ [ 101.549380747000043, 2.098736263000035 ], [ 101.553530094000052, 2.089865788000054 ], [ 101.542702919000078, 2.093524072000037 ], [ 101.549380747000043, 2.098736263000035 ] ] ], [ [ [ 102.047012902000063, 1.606435957000031 ], [ 102.185964862000048, 1.569030318000046 ], [ 102.261435080000069, 1.56298679300005 ], [ 102.267633628000056, 1.558531316000028 ], [ 102.281305221000082, 1.552892512000028 ], [ 102.325180877000037, 1.547985769000036 ], [ 102.335401516000047, 1.551533484000061 ], [ 102.355157234000046, 1.547281800000064 ], [ 102.463785123000036, 1.515685700000063 ], [ 102.496160659000054, 1.468941980000068 ], [ 102.486773867000068, 1.44061527100007 ], [ 102.495534269000075, 1.430178768000076 ], [ 102.492271250000044, 1.381014758000049 ], [ 102.506792337000036, 1.288770562000025 ], [ 102.504599944000063, 1.251521726000021 ], [ 102.39883134300004, 1.322733185000061 ], [ 102.293139941000049, 1.429655718000049 ], [ 102.164743961000056, 1.442663180000068 ], [ 102.125390150000044, 1.456186865000063 ], [ 102.080933554000069, 1.484822146000056 ], [ 102.031052368000076, 1.533526416000029 ], [ 101.998837172000037, 1.584328860000028 ], [ 102.010242134000066, 1.602869571000042 ], [ 102.047012902000063, 1.606435957000031 ] ] ], [ [ [ 102.314049957000066, 1.551126274000069 ], [ 102.318444402000068, 1.549897553000051 ], [ 102.313848322000069, 1.550440539000022 ], [ 102.314049957000066, 1.551126274000069 ] ] ], [ [ [ 102.310592845000087, 1.551749425000025 ], [ 102.312778116000061, 1.550571171000058 ], [ 102.31009828200007, 1.551602904000049 ], [ 102.310592845000087, 1.551749425000025 ] ] ], [ [ [ 102.278760506000083, 1.555161703000067 ], [ 102.277723887000036, 1.555431601000066 ], [ 102.277486285000066, 1.555847762000042 ], [ 102.278760506000083, 1.555161703000067 ] ] ], [ [ [ 102.27519568200006, 1.556442589000028 ], [ 102.276816563000068, 1.555727107000052 ], [ 102.274802936000071, 1.556047561000071 ], [ 102.27519568200006, 1.556442589000028 ] ] ], [ [ [ 102.270976737000069, 1.557975859000067 ], [ 102.274232700000084, 1.556843824000055 ], [ 102.274577042000033, 1.556087536000064 ], [ 102.270976737000069, 1.557975859000067 ] ] ], [ [ [ 101.655665612000064, 2.125802364000037 ], [ 101.709656014000075, 2.090778610000029 ], [ 101.721450332000074, 2.044214111000031 ], [ 101.739306752000061, 2.04015995900005 ], [ 101.775667785000053, 1.989549410000052 ], [ 101.781585502000041, 1.967340086000036 ], [ 101.785035354000058, 1.938310265000041 ], [ 101.774328142000059, 1.933447981000029 ], [ 101.773849270000085, 1.918382142000041 ], [ 101.753172283000083, 1.889990296000065 ], [ 101.732066662000079, 1.76410491300004 ], [ 101.614482039000052, 1.688277140000025 ], [ 101.556031398000073, 1.69605548800007 ], [ 101.457537390000084, 1.724501420000024 ], [ 101.428303929000037, 1.780247769000027 ], [ 101.413907160000065, 1.845788535000054 ], [ 101.383042113000045, 1.909730927000055 ], [ 101.398944758000084, 1.949726473000055 ], [ 101.396501177000061, 1.996384916000068 ], [ 101.405505338000069, 2.021033069000055 ], [ 101.438802115000044, 2.052451185000052 ], [ 101.474106044000052, 2.065731430000028 ], [ 101.507908872000087, 2.049590402000035 ], [ 101.516522835000046, 2.027761228000031 ], [ 101.554959598000039, 2.046734338000022 ], [ 101.56360909600005, 2.043199468000068 ], [ 101.573311451000052, 2.069199574000038 ], [ 101.599945238000032, 2.097054783000033 ], [ 101.635151543000063, 2.10890091400006 ], [ 101.655665612000064, 2.125802364000037 ] ] ], [ [ [ 101.573611400000061, 2.073577722000039 ], [ 101.579297256000075, 2.075652117000061 ], [ 101.571016402000055, 2.069887662000042 ], [ 101.573611400000061, 2.073577722000039 ] ] ], [ [ [ 101.574399086000085, 2.10251703800003 ], [ 101.575493261000076, 2.102660770000057 ], [ 101.576156087000072, 2.100456166000072 ], [ 101.574399086000085, 2.10251703800003 ] ] ], [ [ [ 101.634098451000057, 2.10951854700005 ], [ 101.629694802000074, 2.11078958500002 ], [ 101.635476309000069, 2.111995489000037 ], [ 101.634098451000057, 2.10951854700005 ] ] ], [ [ [ 101.634912470000074, 2.115049104000036 ], [ 101.636336131000064, 2.120678616000021 ], [ 101.64121078800008, 2.122007302000043 ], [ 101.640911556000049, 2.117918609000071 ], [ 101.634912470000074, 2.115049104000036 ] ] ], [ [ [ 101.628648806000058, 2.113701022000043 ], [ 101.62885121100004, 2.121309521000057 ], [ 101.640201946000047, 2.123546078000061 ], [ 101.635771909000084, 2.120409116000076 ], [ 101.634457071000043, 2.115038630000072 ], [ 101.628648806000058, 2.113701022000043 ] ] ] ] } },
{ "type": "Feature", "properties": { "kemendagri_kab_code": 1404, "kemendagri_kab_name": "Kabupaten Indragiri Hilir", "kemendagri_prov_code": 14, "kemendagri_prov_name": "Riau" }, "geometry": { "type": "MultiPolygon", "coordinates": [ [ [ [ 103.499811026000032, -0.515852536999944 ], [ 103.501697902000046, -0.516044115999932 ], [ 103.502278138000065, -0.516449559999955 ], [ 103.499811026000032, -0.515852536999944 ] ] ], [ [ [ 103.551697022000042, -0.497595572999955 ], [ 103.551226185000075, -0.497237961999929 ], [ 103.552152852000063, -0.496696044999965 ], [ 103.551697022000042, -0.497595572999955 ] ] ], [ [ [ 103.557406596000078, -0.491380267999943 ], [ 103.554950249000058, -0.494228957999951 ], [ 103.553165848000049, -0.493373137999924 ], [ 103.555083573000047, -0.492988427999933 ], [ 103.557406596000078, -0.491380267999943 ] ] ], [ [ [ 103.347360203000051, 0.538497455000027 ], [ 103.412481275000061, 0.522048609000024 ], [ 103.487944829000071, 0.459978554000031 ], [ 103.534492303000036, 0.438019151000049 ], [ 103.58829348200004, 0.389877885000033 ], [ 103.602871814000082, 0.345793811000021 ], [ 103.656476865000059, 0.334442756000044 ], [ 103.709900609000044, 0.300011496000025 ], [ 103.757779765000066, 0.210974890000045 ], [ 103.780680592000067, 0.075022064000052 ], [ 103.813577353000085, -0.003593513999931 ], [ 103.807727930000055, -0.011676161999958 ], [ 103.762117575000048, -0.009216313999957 ], [ 103.684695511000086, -0.027664600999969 ], [ 103.662785249000081, -0.015312223999956 ], [ 103.638894853000068, -0.013812291999955 ], [ 103.629658154000083, -0.01590119399998 ], [ 103.614095159000044, -0.006117755999981 ], [ 103.569499547000078, -0.035518285999956 ], [ 103.595020068000053, -0.037272324999947 ], [ 103.581099671000061, -0.06209969799994 ], [ 103.514365982000072, -0.091497286999925 ], [ 103.502740356000061, -0.083531162999975 ], [ 103.492121111000074, -0.084935094999935 ], [ 103.473210079000069, -0.10242240499997 ], [ 103.469190124000079, -0.120004837999943 ], [ 103.496127858000079, -0.133520891999979 ], [ 103.501460422000036, -0.145666103999929 ], [ 103.455590590000043, -0.183764194999981 ], [ 103.471287063000034, -0.209642547999977 ], [ 103.511526093000043, -0.20161984899994 ], [ 103.530539893000082, -0.223615741999936 ], [ 103.556719876000045, -0.215992821999976 ], [ 103.639253623000059, -0.225259256999948 ], [ 103.66518736200004, -0.253703263999967 ], [ 103.691044786000077, -0.260845 ], [ 103.70882307800008, -0.256383115999938 ], [ 103.759442153000066, -0.30015964599994 ], [ 103.785689424000054, -0.341953936999971 ], [ 103.715564891000042, -0.350108675999934 ], [ 103.665187991000039, -0.366036941999937 ], [ 103.622563432000049, -0.390084022999929 ], [ 103.601422643000035, -0.396098948999963 ], [ 103.590858162000075, -0.391342832999953 ], [ 103.584108639000078, -0.400894974999972 ], [ 103.606240113000069, -0.420492105999926 ], [ 103.606384067000079, -0.436120266999978 ], [ 103.543712370000037, -0.503540907999934 ], [ 103.510533080000073, -0.516569103999927 ], [ 103.456299870000066, -0.505857705999972 ], [ 103.421373353000035, -0.521889415999965 ], [ 103.421258614000067, -0.529704681999931 ], [ 103.437435594000078, -0.537311513999953 ], [ 103.438053901000046, -0.552694868999936 ], [ 103.423789490000047, -0.599272663999955 ], [ 103.431543820000059, -0.603803705999951 ], [ 103.430955233000077, -0.617869884999948 ], [ 103.417390376000071, -0.63530385599995 ], [ 103.406676675000085, -0.637162112999931 ], [ 103.406619008000064, -0.647484475999931 ], [ 103.422487230000058, -0.656003326999951 ], [ 103.425077766000072, -0.669935376999945 ], [ 103.40452752200008, -0.692184124999926 ], [ 103.406157453000048, -0.706341917999964 ], [ 103.437017437000065, -0.710956806999945 ], [ 103.427942296000083, -0.73424227199996 ], [ 103.441138158000058, -0.731699879999951 ], [ 103.445771606000051, -0.750000000999933 ], [ 103.437221994000083, -0.778055998999946 ], [ 103.408889004000059, -0.76999998499997 ], [ 103.401672642000051, -0.787271186999931 ], [ 103.352777997000032, -0.799166985999932 ], [ 103.346389027000043, -0.779166951999969 ], [ 103.31222223900005, -0.764722207999966 ], [ 103.302544853000086, -0.765531119999935 ], [ 103.301491527000053, -0.781257660999927 ], [ 103.290762789000041, -0.771853279999959 ], [ 103.277596735000088, -0.776335857999925 ], [ 103.208249968000075, -0.757056027999965 ], [ 103.111832952000043, -0.746610969999949 ], [ 103.08083332800004, -0.76194449299993 ], [ 103.00361115000004, -0.754722215999948 ], [ 102.927777771000081, -0.866111087999968 ], [ 102.860000029000048, -0.927777772999946 ], [ 102.785790815000041, -0.97922209099994 ], [ 102.769285169000057, -1.011581741999976 ], [ 102.780865542000072, -1.032240944999955 ], [ 102.753174199000057, -1.023824092999973 ], [ 102.751039421000087, -1.04395507299995 ], [ 102.731666677000078, -1.049722257999974 ], [ 102.729012068000088, -1.080179040999951 ], [ 102.714911004000044, -1.074304199999972 ], [ 102.710199202000069, -1.081781534999948 ], [ 102.704692508000051, -1.075000007999961 ], [ 102.691311566000081, -1.085486595999953 ], [ 102.681577280000056, -1.081396834999964 ], [ 102.683192649000034, -1.095923570999958 ], [ 102.643581379000068, -1.11916664499995 ], [ 102.643888912000079, -1.126944461999926 ], [ 102.634749691000081, -1.125647800999957 ], [ 102.630218452000065, -1.107467229999941 ], [ 102.606666646000065, -1.097777758999939 ], [ 102.601365685000076, -1.042518434999977 ], [ 102.574641694000036, -1.006809221999958 ], [ 102.564570015000072, -0.918165442999964 ], [ 102.580495533000033, -0.873183701999949 ], [ 102.628822393000064, -0.817844218999937 ], [ 102.676612338000041, -0.777666969999927 ], [ 102.667861934000086, -0.763369226999941 ], [ 102.637370026000042, -0.744594808999977 ], [ 102.640874527000051, -0.70781319699995 ], [ 102.650863391000087, -0.681093259999955 ], [ 102.690644463000069, -0.652939929999945 ], [ 102.686085582000032, -0.563988875999939 ], [ 102.71856611000004, -0.558418608999943 ], [ 102.705698663000078, -0.527702524999938 ], [ 102.68637003300006, -0.512558215999945 ], [ 102.690697244000035, -0.473357754999938 ], [ 102.714593137000065, -0.437283394999952 ], [ 102.718580489000033, -0.41201697799994 ], [ 102.69328678100004, -0.338995514999965 ], [ 102.695372024000051, 0.08593856300007 ], [ 102.787365833000081, 0.118334583000035 ], [ 102.846940833000076, 0.15218272200002 ], [ 103.073559333000048, 0.313370417000044 ], [ 103.211369970000078, 0.36876055700003 ], [ 103.26911894400007, 0.437991056000044 ], [ 103.351605611000082, 0.484766556000068 ], [ 103.347360203000051, 0.538497455000027 ] ] ], [ [ [ 103.515982098000052, -0.181493194999973 ], [ 103.566429720000087, -0.18073385799994 ], [ 103.567561997000041, -0.19430814499998 ], [ 103.531454202000077, -0.205446414999926 ], [ 103.512623595000036, -0.197799607999968 ], [ 103.478771038000048, -0.201720482999974 ], [ 103.515982098000052, -0.181493194999973 ] ] ], [ [ [ 103.518339702000048, -0.103946064999946 ], [ 103.503472042000055, -0.106432279999979 ], [ 103.501104351000038, -0.119734241999936 ], [ 103.473157504000085, -0.106921858999954 ], [ 103.500338158000034, -0.086381683999946 ], [ 103.514493338000079, -0.096512754999935 ], [ 103.518339702000048, -0.103946064999946 ] ] ], [ [ [ 103.581087701000058, -0.079110668999931 ], [ 103.592448065000042, -0.092125698999951 ], [ 103.580201075000048, -0.104725126999938 ], [ 103.535323007000045, -0.122454515999948 ], [ 103.504728542000066, -0.118491993999953 ], [ 103.504039448000071, -0.107064199999968 ], [ 103.518948002000059, -0.104647168999975 ], [ 103.514946666000071, -0.09484669699998 ], [ 103.523641616000077, -0.089768340999967 ], [ 103.550635957000054, -0.07866828799996 ], [ 103.581087701000058, -0.079110668999931 ] ] ], [ [ [ 103.488663384000063, 0.460131162000039 ], [ 103.488334684000051, 0.460676680000063 ], [ 103.488740086000064, 0.460657434000041 ], [ 103.488663384000063, 0.460131162000039 ] ] ], [ [ [ 103.488175648000038, 0.461040730000036 ], [ 103.48767106400004, 0.460907446000022 ], [ 103.488088112000071, 0.461308135000024 ], [ 103.488175648000038, 0.461040730000036 ] ] ], [ [ [ 103.599259048000079, -0.396797478999929 ], [ 103.598642487000063, -0.396175626999934 ], [ 103.599437149000039, -0.396739073999925 ], [ 103.599259048000079, -0.396797478999929 ] ] ], [ [ [ 103.59909889100004, -0.11644982599995 ], [ 103.596409320000078, -0.120122658999946 ], [ 103.589611790000049, -0.120993766999959 ], [ 103.59909889100004, -0.11644982599995 ] ] ], [ [ [ 103.667931481000039, -0.051272471999937 ], [ 103.648048117000087, -0.044360937999954 ], [ 103.641030741000066, -0.023957204999931 ], [ 103.635386617000052, -0.016599811999924 ], [ 103.664157826000064, -0.023045306999961 ], [ 103.680633438000086, -0.038642078999942 ], [ 103.667931481000039, -0.051272471999937 ] ] ], [ [ [ 103.61465542600007, -0.008843578999972 ], [ 103.638981806000061, -0.021914509999931 ], [ 103.647523231000037, -0.049511773999939 ], [ 103.626178276000076, -0.045902136999928 ], [ 103.599422550000043, -0.020559072999959 ], [ 103.61465542600007, -0.008843578999972 ] ] ], [ [ [ 103.668351831000052, -0.01995345399996 ], [ 103.667795923000085, -0.020401169999957 ], [ 103.667025763000083, -0.019046804999959 ], [ 103.668351831000052, -0.01995345399996 ] ] ], [ [ [ 103.657589322000035, -0.01631122799995 ], [ 103.666459596000038, -0.020733754999981 ], [ 103.653796335000038, -0.016914245999942 ], [ 103.657589322000035, -0.01631122799995 ] ] ], [ [ [ 103.663008899000033, -0.016051522999931 ], [ 103.662364543000081, -0.01646219099996 ], [ 103.662599039000042, -0.015712176999955 ], [ 103.663008899000033, -0.016051522999931 ] ] ], [ [ [ 103.567484950000051, 0.440037542000027 ], [ 103.585155790000044, 0.423280352000063 ], [ 103.588224761000049, 0.407693700000038 ], [ 103.56087651200005, 0.422416632000022 ], [ 103.538955737000038, 0.446640683000055 ], [ 103.567484950000051, 0.440037542000027 ] ] ] ] } },
{ "type": "Feature", "properties": { "kemendagri_kab_code": 1405, "kemendagri_kab_name": "Kabupaten Pelalawan", "kemendagri_prov_code": 14, "kemendagri_prov_name": "Riau" }, "geometry": { "type": "MultiPolygon", "coordinates": [ [ [ [ 102.900369040000044, 0.72342721900003 ], [ 103.020222301000047, 0.591982613000027 ], [ 103.030994047000036, 0.568509671000072 ], [ 103.095942172000036, 0.494547713000031 ], [ 103.107335595000052, 0.455811570000037 ], [ 103.075704501000075, 0.441409250000049 ], [ 103.110491984000078, 0.384982021000042 ], [ 103.13688600200004, 0.390293349000046 ], [ 103.158349692000058, 0.406462955000052 ], [ 103.176832961000059, 0.429592850000063 ], [ 103.196064913000043, 0.474845258000073 ], [ 103.246964454000079, 0.501623667000047 ], [ 103.294986229000074, 0.510404179000034 ], [ 103.325613607000037, 0.544652358000064 ], [ 103.347360203000051, 0.538497455000027 ], [ 103.351605611000082, 0.484766556000068 ], [ 103.26911894400007, 0.437991056000044 ], [ 103.211369970000078, 0.36876055700003 ], [ 103.073559333000048, 0.313370417000044 ], [ 102.897922197000071, 0.185932181000055 ], [ 102.787365833000081, 0.118334583000035 ], [ 102.695444611000084, 0.085931250000044 ], [ 102.583000080000033, 0.088194420000036 ], [ 102.533472360000076, 0.06819444000007 ], [ 102.467416680000042, -0.117027809999968 ], [ 102.448416600000087, -0.143361089999928 ], [ 102.414666600000032, -0.165527819999966 ], [ 102.214398656000071, -0.165304496999966 ], [ 102.175089120000052, -0.247707989999924 ], [ 102.1623, -0.264961110999934 ], [ 102.149437968000086, -0.269148807999954 ], [ 102.143395195000039, -0.287547182999958 ], [ 102.08723976400006, -0.288311651999948 ], [ 102.087187408000034, -0.298003519999952 ], [ 102.048030458000085, -0.313969437999958 ], [ 102.047149957000045, -0.341840245999947 ], [ 102.01651959700007, -0.35358991499993 ], [ 101.985324840000033, -0.394491689999938 ], [ 101.957814, -0.401780519999932 ], [ 101.898709722000035, -0.386765277999928 ], [ 101.865576307000083, -0.402041993999944 ], [ 101.849861395000062, -0.395276709999962 ], [ 101.841495210000062, -0.377215077999949 ], [ 101.834807973000068, -0.377951758999927 ], [ 101.838726469000051, -0.372048554999935 ], [ 101.827011955000046, -0.368766931999971 ], [ 101.829937692000044, -0.360410134999938 ], [ 101.811218377000046, -0.335961013999963 ], [ 101.804598118000058, -0.33812388299998 ], [ 101.802998196000033, -0.328136775999951 ], [ 101.790344938000032, -0.337529504999964 ], [ 101.761014097000043, -0.33640621099994 ], [ 101.760253661000036, -0.293158844999937 ], [ 101.729977400000053, -0.283909641999969 ], [ 101.714341961000059, -0.26175130799993 ], [ 101.691813588000059, -0.25789995599996 ], [ 101.680322618000048, -0.241503232999946 ], [ 101.665770260000045, -0.236474527999974 ], [ 101.640103701000044, -0.242856048999954 ], [ 101.62407359000008, -0.228860217999966 ], [ 101.614429008000059, -0.23382192899993 ], [ 101.595642920000046, -0.195399127999963 ], [ 101.562730461000058, -0.169765740999935 ], [ 101.549045593000073, -0.127793444999952 ], [ 101.512806997000041, -0.106564557999945 ], [ 101.518901414000084, -0.099576028999934 ], [ 101.515135389000079, -0.064031582999974 ], [ 101.54669199600005, -0.043654517999926 ], [ 101.534001185000079, -0.002530415999956 ], [ 101.522272617000056, -0.004992220999952 ], [ 101.517197175000035, 0.05295916700004 ], [ 101.497111865000079, 0.065104295000026 ], [ 101.495611773000064, 0.07655644700003 ], [ 101.507965635000062, 0.094751730000041 ], [ 101.503796182000087, 0.101214645000027 ], [ 101.514793290000057, 0.109969875000047 ], [ 101.539776247000077, 0.111888300000032 ], [ 101.558482800000036, 0.13255091700006 ], [ 101.567568300000062, 0.130883611000058 ], [ 101.567816400000083, 0.202374750000047 ], [ 101.569577302000084, 0.192258073000062 ], [ 101.58474422200004, 0.195743508000021 ], [ 101.578193756000076, 0.234529245000033 ], [ 101.589368691000061, 0.24181588700003 ], [ 101.585033964000047, 0.268114001000072 ], [ 101.638833, 0.268978 ], [ 101.653188894000039, 0.271651483000028 ], [ 101.661619562000055, 0.283628547000035 ], [ 101.665060848000053, 0.278251392000072 ], [ 101.666805606000082, 0.316252461000033 ], [ 101.637042677000068, 0.318579887000055 ], [ 101.622006970000086, 0.340819474000057 ], [ 101.614270357000066, 0.340399353000066 ], [ 101.634318506000056, 0.357313751000049 ], [ 101.636725, 0.383335 ], [ 101.61105239300008, 0.382656104000034 ], [ 101.61356640200006, 0.397607328000049 ], [ 101.592118930000083, 0.414244901000075 ], [ 101.590420106000067, 0.435726294000062 ], [ 101.599956044000066, 0.445735377000062 ], [ 101.578753192000079, 0.484762704000048 ], [ 101.587046794000059, 0.506397416000027 ], [ 101.609038276000035, 0.49972294600002 ], [ 101.610395309000069, 0.513510395000026 ], [ 101.674754992000032, 0.509906198000067 ], [ 101.673603107000076, 0.491428504000055 ], [ 101.64389994000004, 0.485229835000041 ], [ 101.64880435300006, 0.471419953000066 ], [ 101.658168, 0.469536 ], [ 101.650779964000037, 0.448199001000035 ], [ 101.675305566000077, 0.451805519000061 ], [ 101.676889394000057, 0.438263991000042 ], [ 101.687654093000049, 0.430659710000043 ], [ 101.701038101000051, 0.434570363000034 ], [ 101.694662982000068, 0.450334996000038 ], [ 101.733173039000064, 0.454340862000038 ], [ 101.752011, 0.431988 ], [ 101.773958292000032, 0.420392400000026 ], [ 101.770953, 0.412992 ], [ 101.788521093000043, 0.405741608000028 ], [ 101.850313120000067, 0.461316192000027 ], [ 101.841488256000048, 0.487537733000067 ], [ 101.821860967000077, 0.487527956000065 ], [ 101.82186099900008, 0.499832990000073 ], [ 101.834610963000046, 0.499861020000026 ], [ 101.832500001000085, 0.507083004000037 ], [ 101.873334773000067, 0.525098592000063 ], [ 101.874448647000065, 0.510369031000039 ], [ 101.88468808600004, 0.509776987000066 ], [ 101.885929760000067, 0.449512193000032 ], [ 101.912567499000033, 0.453950960000043 ], [ 101.910397467000053, 0.476592652000022 ], [ 101.919385628000043, 0.477104981000025 ], [ 101.917190764000054, 0.515441242000065 ], [ 101.934454127000038, 0.524564571000042 ], [ 101.932267, 0.551989 ], [ 102.809674, 0.652952 ], [ 102.801732384000047, 0.675979186000063 ], [ 102.814213021000057, 0.694108588000063 ], [ 102.862653, 0.709554 ], [ 102.886365999000077, 0.709472 ], [ 102.900369040000044, 0.72342721900003 ] ] ], [ [ [ 103.038537975000054, 0.660087698000041 ], [ 103.05443624600008, 0.652280974000064 ], [ 103.08381980300004, 0.590698734000057 ], [ 103.069371485000033, 0.564105865000045 ], [ 103.028461157000038, 0.636906836000037 ], [ 103.038537975000054, 0.660087698000041 ] ] ], [ [ [ 103.108973247000051, 0.666445269000064 ], [ 103.114088170000059, 0.64868797400004 ], [ 103.104036315000087, 0.630320490000031 ], [ 103.093680001000052, 0.65110377000002 ], [ 103.108973247000051, 0.666445269000064 ] ] ], [ [ [ 102.968687743000032, 0.657957950000025 ], [ 102.966151782000054, 0.658078406000072 ], [ 102.964698078000083, 0.661045982000076 ], [ 102.968687743000032, 0.657957950000025 ] ] ], [ [ [ 102.966415219000055, 0.67275551900002 ], [ 102.97315300200006, 0.672477205000064 ], [ 102.974521916000072, 0.667582591000041 ], [ 102.966415219000055, 0.67275551900002 ] ] ], [ [ [ 102.965662261000034, 0.681271224000056 ], [ 102.963272726000071, 0.680244557000037 ], [ 102.962209205000079, 0.68300036200003 ], [ 102.965662261000034, 0.681271224000056 ] ] ], [ [ [ 103.171731424000086, 0.428262111000038 ], [ 103.156046017000051, 0.408084281000072 ], [ 103.149607972000069, 0.402662393000071 ], [ 103.171731424000086, 0.428262111000038 ] ] ], [ [ [ 103.206785769000078, 0.702240213000039 ], [ 103.249018894000073, 0.68677853600002 ], [ 103.279356506000056, 0.65496882900004 ], [ 103.29907985400007, 0.613330328000075 ], [ 103.299995669000054, 0.552793892000068 ], [ 103.284764291000045, 0.529638147000071 ], [ 103.204573383000081, 0.519863473000044 ], [ 103.168972615000087, 0.498485054000071 ], [ 103.147114872000088, 0.527507415000059 ], [ 103.138538577000077, 0.557743522000067 ], [ 103.149478807000037, 0.664713006000056 ], [ 103.162381905000075, 0.68502944200003 ], [ 103.206785769000078, 0.702240213000039 ] ] ], [ [ [ 103.302900182000087, 0.68466053700007 ], [ 103.302649862000067, 0.684944168000072 ], [ 103.302745041000037, 0.685068852000029 ], [ 103.302900182000087, 0.68466053700007 ] ] ], [ [ [ 103.288361426000051, 0.709261207000054 ], [ 103.28739640100008, 0.71002952300006 ], [ 103.287495517000082, 0.710402593000026 ], [ 103.288361426000051, 0.709261207000054 ] ] ], [ [ [ 103.274794009000061, 0.723894770000072 ], [ 103.276064764000068, 0.72305876300004 ], [ 103.273682435000069, 0.723736089000056 ], [ 103.274794009000061, 0.723894770000072 ] ] ] ] } },
{ "type": "Feature", "properties": { "kemendagri_kab_code": 1406, "kemendagri_kab_name": "Kabupaten Rokan Hulu", "kemendagri_prov_code": 14, "kemendagri_prov_name": "Riau" }, "geometry": { "type": "Polygon", "coordinates": [ [ [ 100.975961627000061, 1.378758093000044 ], [ 100.967669687000068, 1.330943999000056 ], [ 100.988321927000072, 1.298087172000066 ], [ 100.987286139000048, 1.270114485000022 ], [ 100.978866804000063, 1.263801747000059 ], [ 100.992371748000039, 1.207011999000031 ], [ 100.990881701000035, 1.117036626000072 ], [ 100.980765182000084, 1.069165291000047 ], [ 100.989920874000063, 1.066268605000062 ], [ 100.997297808000042, 1.019515677000072 ], [ 100.989765072000068, 0.982667079000066 ], [ 100.999739387000034, 0.979305846000045 ], [ 100.994134366000083, 0.978326842000058 ], [ 100.994095618000074, 0.956433325000035 ], [ 100.913868507000075, 0.959404620000043 ], [ 100.83493049100008, 0.940970918000062 ], [ 100.773456926000051, 0.864197432000026 ], [ 100.733796607000045, 0.842297772000052 ], [ 100.739551498000083, 0.839515225000071 ], [ 100.740188730000057, 0.804179999000041 ], [ 100.726496351000037, 0.80103400400003 ], [ 100.743421742000066, 0.790997054000059 ], [ 100.749467968000033, 0.782274249000068 ], [ 100.749161392000076, 0.778382201000056 ], [ 100.704279711000083, 0.758418777000031 ], [ 100.674355324000032, 0.766502052000021 ], [ 100.647966042000064, 0.733158902000071 ], [ 100.587256744000058, 0.700094962000037 ], [ 100.638535408000052, 0.65484456400003 ], [ 100.643286559000046, 0.621861979000073 ], [ 100.674336134000043, 0.595563908000031 ], [ 100.684567218000041, 0.59963896000005 ], [ 100.69369542700008, 0.592503006000072 ], [ 100.707428257000061, 0.599805674000038 ], [ 100.737500275000059, 0.595375989000047 ], [ 100.748032844000079, 0.585899690000076 ], [ 100.759785496000063, 0.589700815000072 ], [ 100.767283736000081, 0.564531230000057 ], [ 100.796963660000074, 0.533314976000042 ], [ 100.803083117000085, 0.541135418000067 ], [ 100.812009604000082, 0.53431097400005 ], [ 100.823236961000077, 0.539377990000048 ], [ 100.82994259600008, 0.533142016000056 ], [ 100.841711079000049, 0.538607368000044 ], [ 100.861730827000088, 0.533942452000019 ], [ 100.863197530000036, 0.513677697000048 ], [ 100.854457647000061, 0.502426876000072 ], [ 100.865903139000068, 0.473122032000049 ], [ 100.85191502400005, 0.433319126000072 ], [ 100.856031414000086, 0.381131671000048 ], [ 100.843665075000047, 0.372722512000053 ], [ 100.83241898700004, 0.385853267000073 ], [ 100.807899285000076, 0.38232980500004 ], [ 100.786826301000076, 0.394265777000044 ], [ 100.78629514000005, 0.404201558000068 ], [ 100.758507180000038, 0.391471793000051 ], [ 100.740034803000071, 0.397364620000076 ], [ 100.719496873000082, 0.389917871000023 ], [ 100.666222079000079, 0.435572493000052 ], [ 100.602989816000047, 0.50826389100007 ], [ 100.581237262000059, 0.51523497900007 ], [ 100.571185867000054, 0.52806550400004 ], [ 100.542420545000084, 0.501925481000058 ], [ 100.555618145000039, 0.472114323000028 ], [ 100.527987647000032, 0.444190976000073 ], [ 100.504595196000082, 0.441994823000073 ], [ 100.493833392000056, 0.453892726000049 ], [ 100.47708751600004, 0.440275838000048 ], [ 100.468707381000058, 0.448946292000073 ], [ 100.452301416000068, 0.420375384000067 ], [ 100.435192994000033, 0.414005387000032 ], [ 100.420231027000057, 0.424223163000022 ], [ 100.38927222600006, 0.407130675000076 ], [ 100.376398232000042, 0.389691837000044 ], [ 100.365977153000074, 0.394932985000025 ], [ 100.345888878000039, 0.380555603000062 ], [ 100.323266057000069, 0.400440910000043 ], [ 100.288695603000065, 0.399264733000052 ], [ 100.235702996000043, 0.474674659000073 ], [ 100.238583175000088, 0.491768706000073 ], [ 100.22287311000008, 0.50598257300004 ], [ 100.22332196900004, 0.522328522000066 ], [ 100.239981010000065, 0.535729987000025 ], [ 100.209584841000037, 0.582243 ], [ 100.197805600000038, 0.628138945000046 ], [ 100.22144447800008, 0.665288902000043 ], [ 100.228583358000037, 0.661944461000076 ], [ 100.284420128000079, 0.682313358000044 ], [ 100.268690026000058, 0.708030044000054 ], [ 100.273689593000086, 0.72725536400003 ], [ 100.221173092000072, 0.742530596000051 ], [ 100.211704972000064, 0.736092275000033 ], [ 100.181194597000058, 0.762333333000072 ], [ 100.15787343900007, 0.799106818000041 ], [ 100.123730110000054, 0.816090587000076 ], [ 100.120831376000069, 0.837430174000076 ], [ 100.124422954000067, 0.847619845000054 ], [ 100.135587520000058, 0.847186122000039 ], [ 100.132978779000041, 0.865697599000043 ], [ 100.144053190000079, 0.897877767000068 ], [ 100.121834901000057, 0.895537650000051 ], [ 100.097927022000079, 0.909683241000039 ], [ 100.087624620000042, 0.925579589000051 ], [ 100.092406309000069, 0.929304911000031 ], [ 100.10611410000007, 0.912312992000068 ], [ 100.114122377000058, 0.917466479000041 ], [ 100.119610674000057, 0.910183085000028 ], [ 100.133030085000087, 0.920137973000067 ], [ 100.133299125000065, 0.930985432000057 ], [ 100.150702469000066, 0.934736218000069 ], [ 100.147527333000085, 0.974677864000057 ], [ 100.139305677000038, 0.984162595000043 ], [ 100.155761489000042, 0.988885825000068 ], [ 100.165654038000071, 1.001888296000061 ], [ 100.148926118000077, 1.010106459000042 ], [ 100.140192563000085, 1.060804181000037 ], [ 100.129350786000032, 1.05475608200004 ], [ 100.118289831000084, 1.066247714000042 ], [ 100.116388879000056, 1.092965310000068 ], [ 100.149114796000049, 1.119398628000056 ], [ 100.178733090000037, 1.118147343000032 ], [ 100.184416670000076, 1.124914903000047 ], [ 100.162674377000087, 1.139550205000035 ], [ 100.16608324300006, 1.169798336000042 ], [ 100.140475558000048, 1.176037403000066 ], [ 100.114263416000085, 1.211500890000025 ], [ 100.111102178000067, 1.221546577000026 ], [ 100.12577377100007, 1.255938533000062 ], [ 100.085278169000048, 1.340555977000065 ], [ 100.078887381000072, 1.346111040000039 ], [ 100.069700870000077, 1.339244634000067 ], [ 100.050833170000033, 1.349722033000035 ], [ 100.053433142000074, 1.379887705000044 ], [ 100.072500019000074, 1.391666955000062 ], [ 100.098131369000043, 1.389418329000023 ], [ 100.122993806000068, 1.406277569000054 ], [ 100.167252290000079, 1.406527152000024 ], [ 100.180384856000046, 1.416841206000072 ], [ 100.222394192000081, 1.403491568000049 ], [ 100.25371184100004, 1.413207391000071 ], [ 100.266941857000063, 1.425274183000056 ], [ 100.303497370000059, 1.416638139000042 ], [ 100.340935408000064, 1.437626333000026 ], [ 100.346495378000043, 1.418070864000072 ], [ 100.373546634000036, 1.394752377000032 ], [ 100.420564306000074, 1.378307215000063 ], [ 100.430033466000054, 1.382032951000042 ], [ 100.429813347000049, 1.37337143600007 ], [ 100.448423726000044, 1.376862729000038 ], [ 100.457865878000064, 1.368692080000073 ], [ 100.459719693000068, 1.34533828900004 ], [ 100.480345670000077, 1.34232675800007 ], [ 100.452262644000086, 1.33771517200006 ], [ 100.559328214000061, 1.255188580000038 ], [ 100.622223288000043, 1.22983815200007 ], [ 100.643997955000032, 1.251189230000023 ], [ 100.663762731000077, 1.292258992000029 ], [ 100.698404812000035, 1.241092190000074 ], [ 100.786046040000087, 1.240169310000056 ], [ 100.844240760000048, 1.334569500000043 ], [ 100.93468788000007, 1.39641129000006 ], [ 100.953176493000058, 1.399314875000073 ], [ 100.95110541300005, 1.387460042000043 ], [ 100.975961627000061, 1.378758093000044 ] ] ] } },
{ "type": "Feature", "properties": { "kemendagri_kab_code": 1407, "kemendagri_kab_name": "Kabupaten Rokan Hilir", "kemendagri_prov_code": 14, "kemendagri_prov_name": "Riau" }, "geometry": { "type": "MultiPolygon", "coordinates": [ [ [ [ 100.554509843000062, 2.866771956000036 ], [ 100.556894063000072, 2.869077653000033 ], [ 100.55653000600006, 2.867821298000024 ], [ 100.554509843000062, 2.866771956000036 ] ] ], [ [ [ 100.553153550000047, 2.868834948000028 ], [ 100.552275529000042, 2.87078372700006 ], [ 100.553274903000045, 2.872461247000047 ], [ 100.553153550000047, 2.868834948000028 ] ] ], [ [ [ 100.554666888000042, 2.874888297000041 ], [ 100.553574715000082, 2.87253976900007 ], [ 100.554509843000062, 2.875023927000029 ], [ 100.554666888000042, 2.874888297000041 ] ] ], [ [ [ 100.553034280000077, 2.878562482000063 ], [ 100.554105037000056, 2.876411450000035 ], [ 100.552743986000053, 2.877049145000058 ], [ 100.553034280000077, 2.878562482000063 ] ] ], [ [ [ 100.564433782000037, 2.881823633000067 ], [ 100.568550249000054, 2.879741605000049 ], [ 100.567360519000033, 2.875874980000049 ], [ 100.564433782000037, 2.881823633000067 ] ] ], [ [ [ 100.549879115000067, 2.881322657000055 ], [ 100.549170035000031, 2.881817585000022 ], [ 100.549274732000072, 2.882198299000038 ], [ 100.549879115000067, 2.881322657000055 ] ] ], [ [ [ 100.569061834000081, 2.884611171000074 ], [ 100.570352691000039, 2.883582055000034 ], [ 100.570162334000088, 2.88341549200004 ], [ 100.569061834000081, 2.884611171000074 ] ] ], [ [ [ 100.322277951000046, 2.546753902000034 ], [ 100.332777874000044, 2.528050480000047 ], [ 100.338755610000078, 2.463258315000076 ], [ 100.361491174000037, 2.392564341000025 ], [ 100.381421676000059, 2.375569507000023 ], [ 100.393948440000088, 2.318251155000041 ], [ 100.44042614500006, 2.259142257000065 ], [ 100.567708337000056, 2.155726743000059 ], [ 100.652937101000077, 2.123603186000025 ], [ 100.685163860000046, 2.11976338900007 ], [ 100.722858605000056, 2.094642864000036 ], [ 100.763226669000062, 2.086252556000034 ], [ 100.788905446000058, 2.118780500000071 ], [ 100.778794505000064, 2.159884721000026 ], [ 100.781438450000053, 2.183357497000031 ], [ 100.766757175000066, 2.207699383000033 ], [ 100.760451604000082, 2.250910396000052 ], [ 100.775443364000068, 2.283544802000051 ], [ 100.811154314000078, 2.296774605000053 ], [ 100.925264662000075, 2.30468735900007 ], [ 101.047238032000052, 2.290781600000059 ], [ 101.066836093000063, 2.234375656000054 ], [ 101.052739423000048, 2.233076023000024 ], [ 101.039147222000054, 2.220152778000056 ], [ 101.025708245000033, 2.18357650300004 ], [ 101.010158613000044, 2.124806025000055 ], [ 101.016111240000043, 2.080527750000044 ], [ 101.066891760000033, 1.935311130000059 ], [ 101.130555600000037, 1.835583300000053 ], [ 101.239166520000083, 1.694805570000028 ], [ 101.290372200000036, 1.599466680000035 ], [ 101.304042580000043, 1.549275499000032 ], [ 101.335388889000058, 1.496138889000065 ], [ 101.317185833000053, 1.474403333000055 ], [ 101.277369551000049, 1.467448420000039 ], [ 101.277097553000033, 1.490000323000061 ], [ 101.264488693000033, 1.490113143000031 ], [ 101.265755372000058, 1.465228310000043 ], [ 101.255984372000057, 1.463526768000065 ], [ 101.242699526000081, 1.480921091000027 ], [ 101.208957449000081, 1.465373410000041 ], [ 101.20929269800007, 1.456633134000072 ], [ 101.177261194000039, 1.451901016000022 ], [ 101.01412266400007, 1.349525046000053 ], [ 100.973446667000076, 1.348791111000025 ], [ 100.975961627000061, 1.378758093000044 ], [ 100.95110541300005, 1.387460042000043 ], [ 100.953176493000058, 1.399314875000073 ], [ 100.93468788000007, 1.39641129000006 ], [ 100.844240760000048, 1.334569500000043 ], [ 100.786046040000087, 1.240169310000056 ], [ 100.698404812000035, 1.241092190000074 ], [ 100.663762731000077, 1.292258992000029 ], [ 100.645534262000069, 1.253535595000073 ], [ 100.623714791000054, 1.229823737000061 ], [ 100.559328214000061, 1.255188580000038 ], [ 100.456249998000033, 1.33419451900005 ], [ 100.455472483000051, 1.340353116000074 ], [ 100.480345670000077, 1.34232675800007 ], [ 100.459719693000068, 1.34533828900004 ], [ 100.457865878000064, 1.368692080000073 ], [ 100.448423726000044, 1.376862729000038 ], [ 100.429813347000049, 1.37337143600007 ], [ 100.430033466000054, 1.382032951000042 ], [ 100.420564306000074, 1.378307215000063 ], [ 100.373546634000036, 1.394752377000032 ], [ 100.346495378000043, 1.418070864000072 ], [ 100.340895303000082, 1.437674273000027 ], [ 100.32657296800005, 1.437057967000044 ], [ 100.277159960000063, 1.463649018000069 ], [ 100.271844988000055, 1.471781987000043 ], [ 100.277201036000065, 1.474738003000027 ], [ 100.293843464000076, 1.467282670000031 ], [ 100.322151968000071, 1.473840002000031 ], [ 100.31893683800007, 1.447677813000041 ], [ 100.348524650000059, 1.454147396000053 ], [ 100.376575994000063, 1.449790976000031 ], [ 100.42184270000007, 1.485360269000068 ], [ 100.434456036000086, 1.520433482000044 ], [ 100.415768748000062, 1.535383574000036 ], [ 100.404074767000054, 1.578165238000054 ], [ 100.420986809000055, 1.607607039000072 ], [ 100.408241636000071, 1.624700506000067 ], [ 100.417646405000085, 1.665138765000052 ], [ 100.411635617000059, 1.67362489900006 ], [ 100.40110771600007, 1.666352219000032 ], [ 100.366145709000079, 1.685663112000043 ], [ 100.367440835000082, 1.699675455000033 ], [ 100.351889034000067, 1.732472014000052 ], [ 100.368098022000083, 1.735954645000049 ], [ 100.369770918000086, 1.747296548000065 ], [ 100.389764949000039, 1.757683814000075 ], [ 100.387110352000036, 1.777791864000051 ], [ 100.289113572000076, 1.798874683000065 ], [ 100.280412856000055, 1.812457323000046 ], [ 100.288880825000035, 1.875458192000053 ], [ 100.310434015000055, 1.883582445000059 ], [ 100.318097548000082, 1.901756697000053 ], [ 100.323518647000071, 2.060994936000043 ], [ 100.343856406000043, 2.137251703000061 ], [ 100.372918741000035, 2.193067065000037 ], [ 100.372650533000069, 2.224099241000033 ], [ 100.306690036000077, 2.375170014000048 ], [ 100.298969994000061, 2.442579971000043 ], [ 100.322277951000046, 2.546753902000034 ] ] ], [ [ [ 100.649335609000047, 2.217671519000021 ], [ 100.670540155000083, 2.196156901000052 ], [ 100.683633850000035, 2.16290791900002 ], [ 100.634915758000034, 2.194580162000022 ], [ 100.633374437000043, 2.217492396000068 ], [ 100.649335609000047, 2.217671519000021 ] ] ], [ [ [ 100.731002083000078, 2.272832035000022 ], [ 100.751684179000051, 2.254118038000058 ], [ 100.764498795000065, 2.20401670800004 ], [ 100.778254925000056, 2.185156611000025 ], [ 100.776632230000075, 2.159789856000032 ], [ 100.784788542000058, 2.12113561700005 ], [ 100.740876841000045, 2.144088775000057 ], [ 100.719806189000053, 2.178966561000038 ], [ 100.704327952000085, 2.248701777000065 ], [ 100.711460575000046, 2.266232462000062 ], [ 100.731002083000078, 2.272832035000022 ] ] ], [ [ [ 100.737849141000083, 2.277412010000035 ], [ 100.75640893700006, 2.278254359000073 ], [ 100.751595605000034, 2.259058352000068 ], [ 100.737849141000083, 2.277412010000035 ] ] ], [ [ [ 100.98746127000004, 2.30060712300002 ], [ 101.034241474000055, 2.305972808000035 ], [ 101.01411123400004, 2.297585208000044 ], [ 100.98746127000004, 2.30060712300002 ] ] ], [ [ [ 100.57096540200007, 2.883239412000023 ], [ 100.571879115000058, 2.882147240000052 ], [ 100.570622760000049, 2.881661830000041 ], [ 100.57096540200007, 2.883239412000023 ] ] ], [ [ [ 100.596959, 2.921085 ], [ 100.597028, 2.921145 ], [ 100.59703, 2.921095 ], [ 100.596959, 2.921085 ] ] ] ] } },
{ "type": "Feature", "properties": { "kemendagri_kab_code": 1408, "kemendagri_kab_name": "Kabupaten Siak", "kemendagri_prov_code": 14, "kemendagri_prov_name": "Riau" }, "geometry": { "type": "Polygon", "coordinates": [ [ [ 102.182189656000048, 1.22829729800003 ], [ 102.196427707000055, 1.216274494000061 ], [ 102.209087734000036, 1.186831045000019 ], [ 102.191928942000061, 1.087101310000037 ], [ 102.229108088000032, 0.995778234000056 ], [ 102.262594250000063, 0.956036038000036 ], [ 102.29766505200007, 0.937747314000035 ], [ 102.33987853800005, 0.899610644000063 ], [ 102.416944905000037, 0.803995453000027 ], [ 102.514684966000061, 0.748398226000063 ], [ 102.587083249000045, 0.737501481000038 ], [ 102.69024475100008, 0.754988585000035 ], [ 102.772205832000054, 0.732024700000068 ], [ 102.86454832000004, 0.73827493400006 ], [ 102.894801225000037, 0.728123195000023 ], [ 102.896668, 0.718153 ], [ 102.880385795000052, 0.707686401000046 ], [ 102.862653, 0.709554 ], [ 102.814213021000057, 0.694108588000063 ], [ 102.801732384000047, 0.675979186000063 ], [ 102.809674, 0.652952 ], [ 101.932267, 0.551989 ], [ 101.934454127000038, 0.524564571000042 ], [ 101.917190764000054, 0.515441242000065 ], [ 101.919385628000043, 0.477104981000025 ], [ 101.910397467000053, 0.476592652000022 ], [ 101.912567499000033, 0.453950960000043 ], [ 101.885929760000067, 0.449512193000032 ], [ 101.88468808600004, 0.509776987000066 ], [ 101.874448647000065, 0.510369031000039 ], [ 101.873334773000067, 0.525098592000063 ], [ 101.832500001000085, 0.507083004000037 ], [ 101.834610963000046, 0.499861020000026 ], [ 101.82186099900008, 0.499832990000073 ], [ 101.821860967000077, 0.487527956000065 ], [ 101.841488256000048, 0.487537733000067 ], [ 101.850313120000067, 0.461316192000027 ], [ 101.788176759000066, 0.405780241000059 ], [ 101.770953, 0.412992 ], [ 101.773958292000032, 0.420392400000026 ], [ 101.752011, 0.431988 ], [ 101.733173039000064, 0.454340862000038 ], [ 101.694662982000068, 0.450334996000038 ], [ 101.701038101000051, 0.434570363000034 ], [ 101.687654093000049, 0.430659710000043 ], [ 101.676889394000057, 0.438263991000042 ], [ 101.675305566000077, 0.451805519000061 ], [ 101.650779964000037, 0.448199001000035 ], [ 101.658168, 0.469536 ], [ 101.64880435300006, 0.471419953000066 ], [ 101.64389994000004, 0.485229835000041 ], [ 101.673603107000076, 0.491428504000055 ], [ 101.674754992000032, 0.509906198000067 ], [ 101.610395309000069, 0.513510395000026 ], [ 101.609038276000035, 0.49972294600002 ], [ 101.600944444000049, 0.506277778000026 ], [ 101.59197, 0.529718 ], [ 101.605365, 0.543813 ], [ 101.595822, 0.5438 ], [ 101.595059561000085, 0.566255735000027 ], [ 101.582295295000051, 0.590754548000064 ], [ 101.592607488000056, 0.607244662000028 ], [ 101.57378779000004, 0.61952644500002 ], [ 101.570302704000085, 0.63861780600007 ], [ 101.546639300000038, 0.641051187000073 ], [ 101.53814751200008, 0.681239260000041 ], [ 101.514314, 0.690454 ], [ 101.48486, 0.642418 ], [ 101.466039, 0.637955 ], [ 101.455788201000075, 0.652592348000042 ], [ 101.4581, 0.667133333000038 ], [ 101.424864040000045, 0.668603510000025 ], [ 101.375219582000057, 0.710586376000037 ], [ 101.323614069000087, 0.692217328000027 ], [ 101.320336986000086, 0.714199645000065 ], [ 101.344554173000063, 0.714191012000072 ], [ 101.367054835000033, 0.733540252000068 ], [ 101.379894148000062, 0.73392043900003 ], [ 101.387521457000048, 0.748469137000029 ], [ 101.378987599000084, 0.752687432000073 ], [ 101.379290862000062, 0.768817188000071 ], [ 101.342592993000039, 0.785788797000066 ], [ 101.329790868000032, 0.800311631000056 ], [ 101.300435280000045, 0.804164220000075 ], [ 101.300440680000065, 0.813735090000023 ], [ 101.285249400000055, 0.824246640000069 ], [ 101.26624014500004, 0.822601274000021 ], [ 101.261234966000075, 0.833194023000033 ], [ 101.244012391000069, 0.835010700000055 ], [ 101.161884179000083, 0.878389412000047 ], [ 101.134306438000067, 0.900733007000042 ], [ 101.119486816000062, 0.89686531600006 ], [ 101.119699094000055, 0.90442796800005 ], [ 101.105774973000052, 0.904105043000072 ], [ 101.087432251000052, 0.920093477000023 ], [ 101.07586609100008, 0.919108197000071 ], [ 101.069603956000037, 0.909482594000053 ], [ 101.065626454000039, 0.91515984800003 ], [ 101.066072212000051, 0.897272316000056 ], [ 101.05587513200004, 0.888092666000034 ], [ 101.062057937000077, 0.924509017000048 ], [ 101.001014768000061, 0.962043272000074 ], [ 100.99323, 0.968265556000063 ], [ 100.999739387000034, 0.979305846000045 ], [ 100.989809626000067, 0.981647926000051 ], [ 100.997297808000042, 1.019515677000072 ], [ 100.989920874000063, 1.066268605000062 ], [ 100.980792135000058, 1.068947111000057 ], [ 100.984027778000041, 1.082027778000054 ], [ 101.078857179000067, 1.00296555500006 ], [ 101.128129986000033, 1.020135588000073 ], [ 101.169855592000033, 1.012286251000035 ], [ 101.192649807000066, 0.999595071000044 ], [ 101.23132176200005, 1.006782403000045 ], [ 101.276166328000045, 1.045066563000034 ], [ 101.282274202000053, 1.059690687000057 ], [ 101.339628017000052, 1.028209495000056 ], [ 101.364452165000046, 1.032024515000046 ], [ 101.376547765000055, 1.023708052000075 ], [ 101.434203754000066, 1.015775357000052 ], [ 101.456577055000082, 1.002951261000021 ], [ 101.456167908000054, 0.985032384000021 ], [ 101.515473342000064, 0.953639620000047 ], [ 101.524505156000032, 0.931502172000023 ], [ 101.547525513000039, 0.921668479000061 ], [ 101.598997532000055, 1.034027184000024 ], [ 101.712750018000065, 1.211777820000066 ], [ 101.776999965000073, 1.211972281000044 ], [ 101.856842, 1.201519 ], [ 101.887236998000049, 1.176158994000048 ], [ 101.910111111000049, 1.089083333000076 ], [ 101.948824, 1.031182 ], [ 101.954078518000074, 1.006165237000062 ], [ 101.978956290000042, 0.980016163000073 ], [ 102.020256, 1.032249 ], [ 102.033289, 1.032217 ], [ 102.037591, 1.087397 ], [ 102.065315, 1.093084 ], [ 102.066799, 1.11384 ], [ 102.076997, 1.122664 ], [ 102.09463, 1.120367 ], [ 102.101853, 1.148484 ], [ 102.149127633000035, 1.187311547000036 ], [ 102.148134, 1.204465 ], [ 102.165188509000075, 1.201749535000033 ], [ 102.168570659000068, 1.228508617000045 ], [ 102.182189656000048, 1.22829729800003 ] ] ] } },
{ "type": "Feature", "properties": { "kemendagri_kab_code": 1409, "kemendagri_kab_name": "Kabupaten Kuantan Singingi", "kemendagri_prov_code": 14, "kemendagri_prov_name": "Riau" }, "geometry": { "type": "Polygon", "coordinates": [ [ [ 101.296389473000033, -0.049742823999964 ], [ 101.337844693000079, -0.079743140999938 ], [ 101.34973804200007, -0.104601997999964 ], [ 101.392379621000032, -0.099397576999934 ], [ 101.405368543000066, -0.086738887999957 ], [ 101.456961053000043, -0.067331235999973 ], [ 101.479507621000039, -0.073007649999965 ], [ 101.489133327000047, -0.097309651999979 ], [ 101.499861417000034, -0.103439311999978 ], [ 101.518901414000084, -0.099576028999934 ], [ 101.515976439000042, -0.110462115999951 ], [ 101.549045593000073, -0.127793444999952 ], [ 101.562730461000058, -0.169765740999935 ], [ 101.595642920000046, -0.195399127999963 ], [ 101.615357224000036, -0.234525926999936 ], [ 101.62407359000008, -0.228860217999966 ], [ 101.639380345000063, -0.242734220999978 ], [ 101.665291989000082, -0.236398384999973 ], [ 101.680322618000048, -0.241503232999946 ], [ 101.691813588000059, -0.25789995599996 ], [ 101.714341961000059, -0.26175130799993 ], [ 101.729977400000053, -0.283909641999969 ], [ 101.760177222000038, -0.293081110999935 ], [ 101.761014097000043, -0.33640621099994 ], [ 101.790344938000032, -0.337529504999964 ], [ 101.802998196000033, -0.328136775999951 ], [ 101.804598118000058, -0.33812388299998 ], [ 101.811218377000046, -0.335961013999963 ], [ 101.829937692000044, -0.360410134999938 ], [ 101.827011955000046, -0.368766931999971 ], [ 101.838726469000051, -0.372048554999935 ], [ 101.834807973000068, -0.377951758999927 ], [ 101.841495210000062, -0.377215077999949 ], [ 101.859520103000079, -0.401579425999955 ], [ 101.898709722000035, -0.386765277999928 ], [ 101.913888889000077, -0.39972222199998 ], [ 101.912277778000032, -0.533555555999953 ], [ 101.8876, -0.543736 ], [ 101.865791, -0.564714 ], [ 101.830646, -0.571768 ], [ 101.827592, -0.619298 ], [ 101.782803085000069, -0.650887707999971 ], [ 101.797383, -0.675939 ], [ 101.794704874000047, -0.739779193999937 ], [ 101.776880252000069, -0.790710808999961 ], [ 101.790678135000064, -0.823779607999938 ], [ 101.816850300000056, -0.850277934999951 ], [ 101.827623630000062, -0.845821484999931 ], [ 101.840277317000073, -0.814074314999971 ], [ 101.860825669000064, -0.816478728999925 ], [ 101.861268735000067, -0.834673930999941 ], [ 101.888346219000084, -0.82419065299996 ], [ 101.898973460000036, -0.830661024999927 ], [ 101.877230245000078, -0.868771479999964 ], [ 101.861952416000065, -0.859663111999964 ], [ 101.853746674000035, -0.87723207199997 ], [ 101.916299292000076, -0.883505383999932 ], [ 101.930332832000033, -0.908769389999975 ], [ 101.913707080000052, -0.920776807999971 ], [ 101.91582313300006, -0.939387455999963 ], [ 101.907777786000054, -0.952499977999935 ], [ 101.88249998100008, -0.968055575999927 ], [ 101.855000024000049, -0.96777775299995 ], [ 101.845277779000071, -0.983611113999928 ], [ 101.827222241000072, -0.981111071999976 ], [ 101.803375040000049, -0.964093341999956 ], [ 101.753825215000063, -0.975192080999932 ], [ 101.743333137000036, -0.949649199999953 ], [ 101.725434884000038, -0.951444635999962 ], [ 101.697830057000033, -0.936968932999946 ], [ 101.715055020000079, -0.908606655999961 ], [ 101.734542981000061, -0.896487462999971 ], [ 101.731666691000044, -0.870555596999964 ], [ 101.713421672000038, -0.869686840999975 ], [ 101.711111140000071, -0.85861110999997 ], [ 101.67840443700004, -0.846897895999973 ], [ 101.647681024000065, -0.82365154799993 ], [ 101.631570712000041, -0.83686021799997 ], [ 101.587582531000066, -0.847296188999962 ], [ 101.530072473000075, -0.809816463999937 ], [ 101.505806034000045, -0.808547034999947 ], [ 101.491414493000036, -0.788348379999945 ], [ 101.454444469000066, -0.769166645999974 ], [ 101.425062837000041, -0.738697549999927 ], [ 101.394797596000046, -0.743595735999975 ], [ 101.405555532000051, -0.717499975999942 ], [ 101.39833236000004, -0.70639654799993 ], [ 101.374999976000083, -0.704444426999942 ], [ 101.347835724000049, -0.683504738999943 ], [ 101.360039078000057, -0.666083399999934 ], [ 101.357350644000064, -0.657518673999959 ], [ 101.345479215000069, -0.660107964999952 ], [ 101.339419618000079, -0.651523536999946 ], [ 101.322587406000082, -0.649503670999934 ], [ 101.30540364400008, -0.627786248999939 ], [ 101.254890743000033, -0.625184241999932 ], [ 101.223077862000082, -0.586806797999941 ], [ 101.198611096000036, -0.58138889099996 ], [ 101.18133735300006, -0.542553665999947 ], [ 101.14307212500006, -0.529835994999928 ], [ 101.111675683000044, -0.501666691999958 ], [ 101.088602200000082, -0.509224030999974 ], [ 101.064895851000074, -0.501885170999969 ], [ 101.066242428000066, -0.488643830999933 ], [ 101.037623680000081, -0.444898751999972 ], [ 101.041495088000033, -0.424195130999976 ], [ 101.028702607000071, -0.394009363999942 ], [ 101.039980189000062, -0.388230304999979 ], [ 101.044243291000043, -0.374069268999961 ], [ 101.102395761000082, -0.378407642999946 ], [ 101.140413796000075, -0.333205663999934 ], [ 101.135683940000035, -0.28769372499994 ], [ 101.152715446000059, -0.238502874999938 ], [ 101.173707199000035, -0.204162525999948 ], [ 101.200683281000067, -0.178373440999962 ], [ 101.194049431000053, -0.167502898999942 ], [ 101.203852356000084, -0.146235199999978 ], [ 101.198024228000065, -0.113415605999933 ], [ 101.210091500000033, -0.10724879199995 ], [ 101.20867131600005, -0.093935745999943 ], [ 101.220182169000054, -0.090590017999943 ], [ 101.232523127000036, -0.060023552999951 ], [ 101.242752462000055, -0.056505493999964 ], [ 101.250458679000076, -0.016767910999931 ], [ 101.264723187000072, 0.009374682000043 ], [ 101.28152366900008, -0.009023978999949 ], [ 101.296389473000033, -0.049742823999964 ] ] ] } },
{ "type": "Feature", "properties": { "kemendagri_kab_code": 1410, "kemendagri_kab_name": "Kabupaten Kepulauan Meranti", "kemendagri_prov_code": 14, "kemendagri_prov_name": "Riau" }, "geometry": { "type": "MultiPolygon", "coordinates": [ [ [ [ 102.831411138000078, 0.774818221000032 ], [ 102.84501335200008, 0.773780031000058 ], [ 102.823587306000036, 0.774116407000065 ], [ 102.831411138000078, 0.774818221000032 ] ] ], [ [ [ 102.734689211000045, 1.022253320000061 ], [ 102.748718486000087, 1.007500502000028 ], [ 102.778677439000035, 1.003181977000054 ], [ 102.79771745100004, 0.979056714000023 ], [ 102.879609674000051, 0.951668211000026 ], [ 102.942890307000084, 0.887783997000042 ], [ 103.046331561000045, 0.824479501000042 ], [ 103.056132957000045, 0.780777969000042 ], [ 103.048885089000066, 0.720920892000038 ], [ 103.024525964000077, 0.687867187000052 ], [ 102.992304659000069, 0.690708461000042 ], [ 102.926105574000076, 0.770507775000056 ], [ 102.86458949300004, 0.792109281000023 ], [ 102.672775066000042, 0.791037730000028 ], [ 102.592974853000044, 0.767367601000046 ], [ 102.56830079100007, 0.767585399000041 ], [ 102.451417353000068, 0.816072656000074 ], [ 102.412302665000084, 0.854954557000042 ], [ 102.408511758000031, 0.887680303000025 ], [ 102.440115218000074, 0.935471680000035 ], [ 102.488022965000084, 0.930908247000048 ], [ 102.529730378000068, 0.961968755000044 ], [ 102.559782687000052, 0.97143853700004 ], [ 102.591413587000034, 1.002072994000059 ], [ 102.64510380300004, 0.991205236000042 ], [ 102.734689211000045, 1.022253320000061 ] ] ], [ [ [ 102.536167238000075, 1.129821976000073 ], [ 102.613869871000077, 1.04673959500002 ], [ 102.601913564000085, 1.025750320000043 ], [ 102.607692695000082, 1.005490049000059 ], [ 102.587404964000086, 1.00162537500006 ], [ 102.558861465000064, 0.972125186000028 ], [ 102.532995657000072, 0.96458302000002 ], [ 102.500149090000036, 0.945327161000023 ], [ 102.459823013000062, 1.075544512000022 ], [ 102.482144422000033, 1.125713025000039 ], [ 102.536167238000075, 1.129821976000073 ] ] ], [ [ [ 102.46390523000008, 1.053902244000028 ], [ 102.463559759000077, 1.054764184000021 ], [ 102.463606316000039, 1.054875683000034 ], [ 102.46390523000008, 1.053902244000028 ] ] ], [ [ [ 102.272594582000067, 1.418492159000039 ], [ 102.29635010700008, 1.408821698000054 ], [ 102.373823605000041, 1.325821726000072 ], [ 102.484882230000039, 1.238211387000035 ], [ 102.48560033800004, 1.199837184000046 ], [ 102.464152636000051, 1.160079904000042 ], [ 102.438569194000081, 1.071224536000045 ], [ 102.468359768000084, 1.009358204000023 ], [ 102.483353799000042, 0.95246634800003 ], [ 102.479037240000082, 0.941377793000072 ], [ 102.439122887000053, 0.948854877000031 ], [ 102.418122892000042, 0.921281487000044 ], [ 102.386297631000048, 0.91345885800007 ], [ 102.275854145000039, 1.005913415000066 ], [ 102.236493916000086, 1.10145368600007 ], [ 102.249523321000083, 1.166000605000022 ], [ 102.246068326000056, 1.194735263000041 ], [ 102.205835745000059, 1.276775930000042 ], [ 102.229193328000065, 1.347129161000055 ], [ 102.210585249000076, 1.408742847000042 ], [ 102.213782408000043, 1.414406297000028 ], [ 102.272594582000067, 1.418492159000039 ] ] ], [ [ [ 102.375583415000051, 1.328930331000038 ], [ 102.374362706000056, 1.329708192000055 ], [ 102.373656500000038, 1.330829576000042 ], [ 102.375583415000051, 1.328930331000038 ] ] ], [ [ [ 103.097349767000082, 0.798952496000027 ], [ 103.108688054000083, 0.793694450000032 ], [ 103.114221672000042, 0.739108264000038 ], [ 103.108041175000039, 0.725270168000065 ], [ 103.09277673400004, 0.717828269000051 ], [ 103.081055166000056, 0.725273194000067 ], [ 103.076073719000078, 0.741676267000059 ], [ 103.081439876000047, 0.778709072000026 ], [ 103.097349767000082, 0.798952496000027 ] ] ], [ [ [ 102.886887526000066, 0.773804084000062 ], [ 102.90048584200008, 0.769324082000026 ], [ 102.907787695000081, 0.764463965000061 ], [ 102.886887526000066, 0.773804084000062 ] ] ], [ [ [ 103.075337297000033, 0.817995798000027 ], [ 103.105212702000074, 0.817381107000074 ], [ 103.108408712000085, 0.806843784000023 ], [ 103.082429116000071, 0.796261209000022 ], [ 103.075337297000033, 0.817995798000027 ] ] ], [ [ [ 103.231376647000047, 0.85837678300004 ], [ 103.232334467000044, 0.857585407000045 ], [ 103.231143737000082, 0.857999272000029 ], [ 103.231376647000047, 0.85837678300004 ] ] ], [ [ [ 103.234079709000071, 0.878319027000032 ], [ 103.234612419000086, 0.877033232000031 ], [ 103.233631648000085, 0.878371988000026 ], [ 103.234079709000071, 0.878319027000032 ] ] ], [ [ [ 102.771015344000034, 1.158656963000055 ], [ 102.893042511000033, 1.125274642000022 ], [ 102.975376289000053, 1.09359469900005 ], [ 103.000430420000043, 1.075421799000026 ], [ 103.153441838000049, 0.89477991900003 ], [ 103.152146444000039, 0.847802211000044 ], [ 103.121503264000069, 0.831120836000025 ], [ 103.07129455900008, 0.832216119000066 ], [ 103.042972424000084, 0.859784644000058 ], [ 102.950276570000085, 0.908986950000042 ], [ 102.92976068300004, 0.935474001000046 ], [ 102.894570298000076, 0.96084994000006 ], [ 102.808899508000081, 0.990826008000056 ], [ 102.790604377000079, 1.01873355400005 ], [ 102.768481830000042, 1.022207681000054 ], [ 102.742640535000078, 1.039524416000063 ], [ 102.641611737000062, 1.00698591400004 ], [ 102.625642674000062, 1.010281818000067 ], [ 102.622913265000079, 1.018776531000071 ], [ 102.656095856000036, 1.033594322000056 ], [ 102.669387837000045, 1.088803205000033 ], [ 102.68928240200006, 1.120564810000076 ], [ 102.736493599000084, 1.15485751500006 ], [ 102.771015344000034, 1.158656963000055 ] ] ] ] } },
{ "type": "Feature", "properties": { "kemendagri_kab_code": 1471, "kemendagri_kab_name": "Kota Pekanbaru", "kemendagri_prov_code": 14, "kemendagri_prov_name": "Riau" }, "geometry": { "type": "Polygon", "coordinates": [ [ [ 101.600944444000049, 0.506277778000026 ], [ 101.582996764000086, 0.502997953000033 ], [ 101.578753192000079, 0.484762704000048 ], [ 101.588431010000079, 0.461099506000039 ], [ 101.563464826000086, 0.46106269400002 ], [ 101.543943922000039, 0.432364088000043 ], [ 101.496060515000067, 0.44479168700002 ], [ 101.489914123000062, 0.461805865000031 ], [ 101.478695218000041, 0.461927397000068 ], [ 101.474513764000051, 0.443848069000069 ], [ 101.469065830000034, 0.449967233000052 ], [ 101.463486272000068, 0.441584832000046 ], [ 101.454509564000034, 0.443925418000049 ], [ 101.44734102700005, 0.420394509000062 ], [ 101.364267212000073, 0.441542850000076 ], [ 101.350693098000079, 0.46714006000002 ], [ 101.33224875500008, 0.47661234100002 ], [ 101.357201402000044, 0.509593732000042 ], [ 101.372550868000076, 0.563778117000027 ], [ 101.368224323000049, 0.55765175800002 ], [ 101.349707548000083, 0.560717451000073 ], [ 101.353518983000072, 0.565381463000051 ], [ 101.342817690000061, 0.568107902000065 ], [ 101.341222446000074, 0.581822425000041 ], [ 101.33797472200007, 0.575429799000062 ], [ 101.323234266000043, 0.579963841000051 ], [ 101.331808115000058, 0.586860075000061 ], [ 101.323293905000071, 0.596739975000048 ], [ 101.375801958000068, 0.645641031000025 ], [ 101.384625847000052, 0.680481610000072 ], [ 101.39693103500008, 0.689529805000063 ], [ 101.434303994000061, 0.663777899000024 ], [ 101.4581, 0.667133333000038 ], [ 101.455788201000075, 0.652592348000042 ], [ 101.466039, 0.637955 ], [ 101.48486, 0.642418 ], [ 101.517361111000071, 0.691 ], [ 101.540983170000061, 0.677904702000035 ], [ 101.53693562400008, 0.663376167000024 ], [ 101.549046231000034, 0.638110204000043 ], [ 101.570302704000085, 0.63861780600007 ], [ 101.57378779000004, 0.61952644500002 ], [ 101.592607488000056, 0.607244662000028 ], [ 101.582295295000051, 0.590754548000064 ], [ 101.595059561000085, 0.566255735000027 ], [ 101.595822, 0.5438 ], [ 101.605365, 0.543813 ], [ 101.59197, 0.529718 ], [ 101.600944444000049, 0.506277778000026 ] ] ] } },
{ "type": "Feature", "properties": { "kemendagri_kab_code": 1472, "kemendagri_kab_name": "Kota Dumai", "kemendagri_prov_code": 14, "kemendagri_prov_name": "Riau" }, "geometry": { "type": "Polygon", "coordinates": [ [ [ 101.065609300000062, 2.232476044000066 ], [ 101.076243661000035, 2.215090945000043 ], [ 101.178259424000032, 2.126266576000035 ], [ 101.267300402000046, 2.08014903000003 ], [ 101.282460968000066, 2.056071044000021 ], [ 101.303211411000063, 2.042178974000024 ], [ 101.321888112000067, 1.997401467000032 ], [ 101.335887841000044, 1.891148066000028 ], [ 101.363535144000082, 1.831217749000075 ], [ 101.356977411000059, 1.778826684000023 ], [ 101.386792850000063, 1.719242006000059 ], [ 101.401854838000077, 1.704372754000076 ], [ 101.437993280000057, 1.686522596000032 ], [ 101.481604041000082, 1.682496548000074 ], [ 101.516905789000077, 1.653267962000029 ], [ 101.561608285000034, 1.636996449000037 ], [ 101.601573884000061, 1.638069247000033 ], [ 101.666377695000051, 1.665216882000038 ], [ 101.724989394000033, 1.671377905000043 ], [ 101.718530556000076, 1.622686111000064 ], [ 101.642167, 1.609861 ], [ 101.624254324000049, 1.588621605000071 ], [ 101.642297745000064, 1.562215805000051 ], [ 101.640680571000075, 1.547858597000072 ], [ 101.618272721000039, 1.54549432400006 ], [ 101.611111, 1.579611 ], [ 101.598044483000081, 1.600172017000034 ], [ 101.528085401000055, 1.595554337000067 ], [ 101.506643221000047, 1.493310278000024 ], [ 101.449325242000043, 1.494308271000023 ], [ 101.435643341000059, 1.447194944000046 ], [ 101.317185833000053, 1.474403333000055 ], [ 101.335388889000058, 1.496138889000065 ], [ 101.304042580000043, 1.549275499000032 ], [ 101.290372200000036, 1.599466680000035 ], [ 101.239166520000083, 1.694805570000028 ], [ 101.130555600000037, 1.835583300000053 ], [ 101.066891760000033, 1.935311130000059 ], [ 101.016111240000043, 2.080527750000044 ], [ 101.010158613000044, 2.124806025000055 ], [ 101.025708245000033, 2.18357650300004 ], [ 101.039147222000054, 2.220152778000056 ], [ 101.052739423000048, 2.233076023000024 ], [ 101.065609300000062, 2.232476044000066 ] ] ] } }
]
}
