{
"type": "FeatureCollection",
"name": "15",
"crs": { "type": "name", "properties": { "name": "urn:ogc:def:crs:OGC:1.3:CRS84" } },
"features": [
{ "type": "Feature", "properties": { "kemendagri_kab_code": 1501, "kemendagri_kab_name": "Kabupaten Kerinci", "kemendagri_prov_code": 15, "kemendagri_prov_name": "Jambi" }, "geometry": { "type": "Polygon", "coordinates": [ [ [ 101.426630556000077, -1.677536110999938 ], [ 101.445444444000032, -1.71118888899997 ], [ 101.617636111000081, -1.874008332999949 ], [ 101.636305556000082, -1.897877777999952 ], [ 101.641236111000069, -1.924841666999953 ], [ 101.666002778000063, -1.972761110999954 ], [ 101.696313889000066, -1.9884 ], [ 101.69825277800004, -1.996963888999971 ], [ 101.730372222000085, -2.001205555999945 ], [ 101.726527778000047, -2.020841666999956 ], [ 101.750672222000048, -2.037783332999936 ], [ 101.760355556000036, -2.074133332999963 ], [ 101.793366667000043, -2.105369443999962 ], [ 101.783388208000076, -2.139386998999953 ], [ 101.800783436000074, -2.143367945999955 ], [ 101.824742235000087, -2.178062298999976 ], [ 101.836829527000077, -2.181870295999943 ], [ 101.829387003000079, -2.189910348999945 ], [ 101.812264257000038, -2.177521148999972 ], [ 101.799422222000032, -2.191944443999944 ], [ 101.784033333000082, -2.194583332999969 ], [ 101.771805556000061, -2.222430555999949 ], [ 101.778702778000081, -2.22836111099997 ], [ 101.739666667000051, -2.262416666999968 ], [ 101.711444444000051, -2.318083332999947 ], [ 101.677416667000045, -2.328833332999977 ], [ 101.658666667000034, -2.347291666999979 ], [ 101.65197222200004, -2.340222221999966 ], [ 101.637883333000048, -2.350305555999967 ], [ 101.613708333000034, -2.332511110999974 ], [ 101.600308333000044, -2.333444443999952 ], [ 101.586833333000072, -2.348861110999962 ], [ 101.58836111100004, -2.360055555999963 ], [ 101.554555556000082, -2.351944443999969 ], [ 101.553166667000085, -2.404722221999975 ], [ 101.562, -2.428138888999968 ], [ 101.556997871000078, -2.451949464999927 ], [ 101.405638951000071, -2.356726338999977 ], [ 101.378661410000063, -2.355209529999968 ], [ 101.369993928000042, -2.347300451999956 ], [ 101.381288741000049, -2.345214838999937 ], [ 101.384864078000078, -2.333838766999975 ], [ 101.355150863000063, -2.32747358499995 ], [ 101.292869444000075, -2.288666666999973 ], [ 101.281, -2.262683332999927 ], [ 101.279722211000035, -2.251 ], [ 101.369722200000069, -2.191111110999941 ], [ 101.368611100000066, -2.17444444399996 ], [ 101.392222200000049, -2.180555555999945 ], [ 101.41222220700007, -2.165555555999958 ], [ 101.409166700000071, -2.118888888999948 ], [ 101.4175, -2.105 ], [ 101.444561100000044, -2.103313888999935 ], [ 101.453813900000057, -2.093225 ], [ 101.442868100000055, -2.067123888999959 ], [ 101.444939223000063, -2.044836841999938 ], [ 101.429441214000065, -2.027001994999978 ], [ 101.289116900000067, -2.026401110999927 ], [ 101.27158, -2.031951943999957 ], [ 101.239683056000047, -2.066693055999963 ], [ 101.138333333000048, -1.898888888999977 ], [ 101.131666667000047, -1.684719443999938 ], [ 101.169177264000041, -1.710604866999972 ], [ 101.191011118000063, -1.676018617999944 ], [ 101.196771996000052, -1.710155879999945 ], [ 101.215948052000044, -1.725083397999924 ], [ 101.22623410500006, -1.718405940999958 ], [ 101.242270881000081, -1.721059370999967 ], [ 101.266691151000032, -1.695770874999937 ], [ 101.310422803000051, -1.700952732999951 ], [ 101.330562827000051, -1.695215841999925 ], [ 101.336502778000067, -1.680705555999964 ], [ 101.373188889000062, -1.675272221999933 ], [ 101.395380556000077, -1.689975 ], [ 101.411059854000086, -1.672682852999969 ], [ 101.426630556000077, -1.677536110999938 ] ] ] } },
{ "type": "Feature", "properties": { "kemendagri_kab_code": 1502, "kemendagri_kab_name": "Kabupaten Merangin", "kemendagri_prov_code": 15, "kemendagri_prov_name": "Jambi" }, "geometry": { "type": "Polygon", "coordinates": [ [ [ 102.475133861000074, -1.65011635999997 ], [ 102.512358471000084, -1.658982669999943 ], [ 102.530254165000088, -1.652589981999938 ], [ 102.516638889000035, -1.670777777999945 ], [ 102.5235, -1.685916666999958 ], [ 102.493527778000043, -1.696527777999961 ], [ 102.489638889000048, -1.705805555999973 ], [ 102.514291947000061, -1.707558614999925 ], [ 102.51366753800005, -1.717694881999932 ], [ 102.506713889000082, -1.758830555999964 ], [ 102.486683333000087, -1.759705555999972 ], [ 102.496883333000085, -1.79701666699998 ], [ 102.48161697900008, -1.803284374999976 ], [ 102.456852010000034, -1.85032954299993 ], [ 102.472513121000077, -1.856396209999957 ], [ 102.485875, -1.884261110999944 ], [ 102.458247222000068, -1.885286110999971 ], [ 102.458302778000075, -1.94515 ], [ 102.4669, -1.945775 ], [ 102.476597222000066, -1.974908332999973 ], [ 102.508766667000032, -1.972936110999967 ], [ 102.515516667000043, -1.98205 ], [ 102.494475, -2.00864444399997 ], [ 102.508827778000068, -2.018838888999937 ], [ 102.547225, -2.018061110999952 ], [ 102.547444444000064, -2.077916666999954 ], [ 102.579766667000058, -2.090113888999952 ], [ 102.5925, -2.086941666999962 ], [ 102.625777778000042, -2.112241666999978 ], [ 102.62908333300004, -2.185444443999927 ], [ 102.613657666000051, -2.209179267999957 ], [ 102.601583333000065, -2.202638888999957 ], [ 102.546097222000071, -2.213888888999975 ], [ 102.547505556000033, -2.204858332999947 ], [ 102.530444444000068, -2.203361110999936 ], [ 102.51585833300004, -2.21324722199995 ], [ 102.511508333000052, -2.193186110999932 ], [ 102.462525, -2.182019443999934 ], [ 102.458313889000067, -2.204502777999949 ], [ 102.410830556000064, -2.273330555999962 ], [ 102.395513889000085, -2.329102777999935 ], [ 102.337119444000052, -2.361033332999966 ], [ 102.338197222000076, -2.389925 ], [ 102.303141667000034, -2.393472221999957 ], [ 102.303508333000082, -2.361352777999969 ], [ 102.276105556000061, -2.35749444399994 ], [ 102.265530556000044, -2.362436110999965 ], [ 102.266005556000039, -2.380863888999954 ], [ 102.257238889000064, -2.393841666999947 ], [ 102.239825, -2.403527777999955 ], [ 102.169325, -2.41505 ], [ 102.155402778000052, -2.408361110999977 ], [ 102.148325, -2.42170833299997 ], [ 102.133919444000071, -2.410944443999938 ], [ 102.124363889000051, -2.430458332999933 ], [ 102.137680556000078, -2.463313888999949 ], [ 102.157694444000072, -2.485425 ], [ 102.151344981000079, -2.493464980999931 ], [ 102.155780556000082, -2.5229 ], [ 102.135319444000061, -2.52523333299996 ], [ 102.12243055600004, -2.547963888999959 ], [ 102.09428888900004, -2.572602777999975 ], [ 102.104169444000036, -2.601386110999954 ], [ 102.063963889000036, -2.621613888999946 ], [ 102.0819, -2.650341666999964 ], [ 102.087280556000053, -2.68504166699995 ], [ 102.078505556000039, -2.702930555999956 ], [ 102.082138889000078, -2.724208332999979 ], [ 102.07302111100006, -2.764895555999942 ], [ 102.063888894000058, -2.768519443999935 ], [ 102.032650075000049, -2.758003707999933 ], [ 101.994486065000046, -2.723577549999959 ], [ 101.964014445000032, -2.721816966999938 ], [ 101.953775981000035, -2.730701136999926 ], [ 101.906429856000045, -2.740289539999935 ], [ 101.859002474000079, -2.730511535999938 ], [ 101.847355544000038, -2.704888289999928 ], [ 101.812116809000088, -2.692022494999947 ], [ 101.813308588000041, -2.675716792999935 ], [ 101.773113136000063, -2.64911845499995 ], [ 101.748681669000064, -2.616073676999974 ], [ 101.735219985000072, -2.610629413999959 ], [ 101.670024263000073, -2.528315412999973 ], [ 101.655668744000081, -2.526202713999965 ], [ 101.646974175000082, -2.53809341699997 ], [ 101.609676913000044, -2.549875776999954 ], [ 101.604151393000052, -2.535845288999951 ], [ 101.590825138000071, -2.531294859999946 ], [ 101.59052719400006, -2.544214826999962 ], [ 101.568804315000079, -2.547790163999935 ], [ 101.56433514400004, -2.570623563999959 ], [ 101.542016376000049, -2.571381967999969 ], [ 101.540120364000074, -2.549929948999932 ], [ 101.560732721000079, -2.458948464999935 ], [ 101.554555556000082, -2.351944443999969 ], [ 101.58836111100004, -2.360055555999963 ], [ 101.586833333000072, -2.348861110999962 ], [ 101.600308333000044, -2.333444443999952 ], [ 101.613708333000034, -2.332511110999974 ], [ 101.637883333000048, -2.350305555999967 ], [ 101.65197222200004, -2.340222221999966 ], [ 101.658666667000034, -2.347291666999979 ], [ 101.677416667000045, -2.328833332999977 ], [ 101.711444444000051, -2.318083332999947 ], [ 101.739666667000051, -2.262416666999968 ], [ 101.778702778000081, -2.22836111099997 ], [ 101.771805556000061, -2.222430555999949 ], [ 101.784033333000082, -2.194583332999969 ], [ 101.799422222000032, -2.191944443999944 ], [ 101.812264257000038, -2.177521148999972 ], [ 101.829387003000079, -2.189910348999945 ], [ 101.836741516000075, -2.183094549999964 ], [ 101.824742235000087, -2.178062298999976 ], [ 101.800885887000049, -2.143450554999959 ], [ 101.783388208000076, -2.139386998999953 ], [ 101.793366667000043, -2.105369443999962 ], [ 101.760355556000036, -2.074133332999963 ], [ 101.750672222000048, -2.037783332999936 ], [ 101.726527778000047, -2.020841666999956 ], [ 101.730372222000085, -2.001205555999945 ], [ 101.69825277800004, -1.996963888999971 ], [ 101.696313889000066, -1.9884 ], [ 101.666002778000063, -1.972761110999954 ], [ 101.629091667000068, -1.888697221999962 ], [ 101.660694444000058, -1.871777777999966 ], [ 101.675138889000038, -1.880611110999951 ], [ 101.7345, -1.87725 ], [ 101.788194444000055, -1.829111110999975 ], [ 101.828722222000067, -1.820722221999972 ], [ 101.882972222000035, -1.846944443999973 ], [ 101.92130555600005, -1.83944444399998 ], [ 101.947166667000033, -1.85986111099993 ], [ 101.977388889000053, -1.870777777999933 ], [ 101.996183333000033, -1.90925 ], [ 102.010111111000072, -1.900388888999942 ], [ 102.035041667000087, -1.904638888999955 ], [ 102.057952778000072, -1.877361110999971 ], [ 102.086275, -1.868738888999928 ], [ 102.1106, -1.872663888999966 ], [ 102.1305, -1.853944443999978 ], [ 102.143194444000073, -1.81335833299994 ], [ 102.133733333000066, -1.790694443999939 ], [ 102.168138889000033, -1.780611110999928 ], [ 102.184472222000068, -1.786222221999935 ], [ 102.194083333000037, -1.767861110999945 ], [ 102.283127778000051, -1.726497221999978 ], [ 102.292888889000039, -1.712822221999943 ], [ 102.303755556000056, -1.716247221999936 ], [ 102.327083333000076, -1.701888888999974 ], [ 102.344611111000063, -1.675972221999928 ], [ 102.36175, -1.677666666999926 ], [ 102.391519444000039, -1.69984166699993 ], [ 102.430555556000058, -1.696694443999945 ], [ 102.461554620000072, -1.674272051999935 ], [ 102.456416667000042, -1.655583332999925 ], [ 102.475133861000074, -1.65011635999997 ] ] ] } },
{ "type": "Feature", "properties": { "kemendagri_kab_code": 1503, "kemendagri_kab_name": "Kabupaten Sarolangun", "kemendagri_prov_code": 15, "kemendagri_prov_name": "Jambi" }, "geometry": { "type": "Polygon", "coordinates": [ [ [ 102.477111110000067, -1.891444443999944 ], [ 102.54775, -1.917861110999979 ], [ 102.567166667000038, -1.907944443999952 ], [ 102.615611111000078, -1.905388888999937 ], [ 102.627861111000072, -1.92141666699996 ], [ 102.661388889000079, -1.928333332999955 ], [ 102.712638889000061, -1.953416666999942 ], [ 102.801805556000033, -1.932416666999927 ], [ 102.800833333000071, -1.990611110999964 ], [ 102.888027778000037, -1.979944443999955 ], [ 102.907472222000081, -1.96425 ], [ 102.941944444000058, -1.972916666999936 ], [ 102.955388889000062, -1.950888888999941 ], [ 102.965611111000044, -1.957555555999932 ], [ 102.97936111100006, -1.9435 ], [ 103.079583333000073, -1.953555555999969 ], [ 103.079444444000046, -1.98025 ], [ 103.087194444000033, -1.980166666999935 ], [ 103.094166667000081, -1.965694443999951 ], [ 103.132861111000068, -1.970138888999941 ], [ 103.132777778000047, -1.958166666999944 ], [ 103.169027778000043, -1.958388888999934 ], [ 103.176777778000087, -1.923583332999954 ], [ 103.199444444000051, -1.909611110999947 ], [ 103.199555556000064, -1.956083332999981 ], [ 103.180833333000066, -1.975861110999972 ], [ 103.205861111000047, -2.013916666999933 ], [ 103.19158333300004, -2.040916666999976 ], [ 103.210083333000057, -2.059194443999957 ], [ 103.230916667000088, -2.131305555999973 ], [ 103.225825, -2.165433332999953 ], [ 103.186969444000056, -2.184194443999957 ], [ 103.167363889000057, -2.22938333299993 ], [ 103.174986111000067, -2.245561110999972 ], [ 103.198222222000084, -2.260555555999929 ], [ 103.21130555600007, -2.320277777999934 ], [ 103.154041667000058, -2.335583332999931 ], [ 103.118611111000064, -2.354083332999949 ], [ 103.06711666700005, -2.339861110999948 ], [ 103.055180556000039, -2.317341666999937 ], [ 103.039297500000032, -2.322185832999935 ], [ 103.041325, -2.330553610999971 ], [ 103.02932555600006, -2.341625 ], [ 102.989744444000053, -2.339525 ], [ 102.97234166700008, -2.330222221999975 ], [ 102.963533333000044, -2.335697221999965 ], [ 102.940713889000051, -2.336177777999978 ], [ 102.928622222000058, -2.326877777999925 ], [ 102.915001389000054, -2.332477644999926 ], [ 102.892769444000066, -2.317338888999927 ], [ 102.877616667000041, -2.32455555599995 ], [ 102.867541667000069, -2.314516666999964 ], [ 102.870011111000053, -2.327577777999977 ], [ 102.864502778000087, -2.32299444399996 ], [ 102.865208333000055, -2.331894443999943 ], [ 102.855936111000062, -2.333536110999944 ], [ 102.859994444000051, -2.342388888999949 ], [ 102.848430556000039, -2.350094443999978 ], [ 102.8532, -2.370244443999979 ], [ 102.843527778000066, -2.373966666999934 ], [ 102.844916667000064, -2.387783332999959 ], [ 102.852408333000085, -2.3974 ], [ 102.867147222000085, -2.397708332999969 ], [ 102.87924722200006, -2.42435 ], [ 102.849488889000042, -2.443083332999947 ], [ 102.847719444000063, -2.455113888999961 ], [ 102.815711111000041, -2.485411110999962 ], [ 102.80835, -2.513294443999939 ], [ 102.792913889000033, -2.520530555999926 ], [ 102.796974155000044, -2.526444291999951 ], [ 102.786675, -2.546694443999968 ], [ 102.74372777800005, -2.561247221999963 ], [ 102.734808333000046, -2.57943333299994 ], [ 102.725383333000082, -2.57960277799998 ], [ 102.722616667000068, -2.554813888999945 ], [ 102.707625, -2.583775 ], [ 102.680325, -2.5909 ], [ 102.672683333000066, -2.609138888999951 ], [ 102.636480556000038, -2.61175 ], [ 102.631138889000056, -2.620088888999931 ], [ 102.62451388900007, -2.61535 ], [ 102.61415, -2.622188888999972 ], [ 102.615797222000083, -2.652719443999956 ], [ 102.580641667000066, -2.678316666999933 ], [ 102.538841667000042, -2.67518055599993 ], [ 102.51040555600008, -2.689963888999955 ], [ 102.506997222000052, -2.70295833299997 ], [ 102.497144444000071, -2.694444443999942 ], [ 102.469088889000034, -2.7043 ], [ 102.405563889000064, -2.689069443999927 ], [ 102.37305688400005, -2.656167331999939 ], [ 102.349602778000076, -2.646608332999961 ], [ 102.334416667000085, -2.656636110999955 ], [ 102.305222222000054, -2.649336110999968 ], [ 102.298177778000081, -2.632933332999926 ], [ 102.271307851000074, -2.624472787999935 ], [ 102.242837541000085, -2.646989602999952 ], [ 102.236087166000061, -2.691214927999965 ], [ 102.194185490000052, -2.708402795999973 ], [ 102.168444444000045, -2.707194443999924 ], [ 102.109444444000076, -2.738722221999979 ], [ 102.09701184100004, -2.76665782699996 ], [ 102.07302111100006, -2.764895555999942 ], [ 102.082138889000078, -2.724208332999979 ], [ 102.078505556000039, -2.702930555999956 ], [ 102.087280556000053, -2.68504166699995 ], [ 102.0819, -2.650341666999964 ], [ 102.063963889000036, -2.621613888999946 ], [ 102.104169444000036, -2.601386110999954 ], [ 102.09428888900004, -2.572602777999975 ], [ 102.12243055600004, -2.547963888999959 ], [ 102.135319444000061, -2.52523333299996 ], [ 102.155780556000082, -2.5229 ], [ 102.151344981000079, -2.493464980999931 ], [ 102.157694444000072, -2.485425 ], [ 102.137680556000078, -2.463313888999949 ], [ 102.124363889000051, -2.430458332999933 ], [ 102.133919444000071, -2.410944443999938 ], [ 102.148325, -2.42170833299997 ], [ 102.155402778000052, -2.408361110999977 ], [ 102.169325, -2.41505 ], [ 102.239825, -2.403527777999955 ], [ 102.257238889000064, -2.393841666999947 ], [ 102.266005556000039, -2.380863888999954 ], [ 102.265530556000044, -2.362436110999965 ], [ 102.276105556000061, -2.35749444399994 ], [ 102.303508333000082, -2.361352777999969 ], [ 102.303141667000034, -2.393472221999957 ], [ 102.338197222000076, -2.389925 ], [ 102.337119444000052, -2.361033332999966 ], [ 102.395513889000085, -2.329102777999935 ], [ 102.410830556000064, -2.273330555999962 ], [ 102.458313889000067, -2.204502777999949 ], [ 102.462525, -2.182019443999934 ], [ 102.511508333000052, -2.193186110999932 ], [ 102.51585833300004, -2.21324722199995 ], [ 102.530444444000068, -2.203361110999936 ], [ 102.547505556000033, -2.204858332999947 ], [ 102.546097222000071, -2.213888888999975 ], [ 102.601583333000065, -2.202638888999957 ], [ 102.613657666000051, -2.209179267999957 ], [ 102.62908333300004, -2.185444443999927 ], [ 102.625777778000042, -2.112241666999978 ], [ 102.5925, -2.086941666999962 ], [ 102.579766667000058, -2.090113888999952 ], [ 102.547444444000064, -2.077916666999954 ], [ 102.547225, -2.018061110999952 ], [ 102.508827778000068, -2.018838888999937 ], [ 102.494475, -2.00864444399997 ], [ 102.515516667000043, -1.98205 ], [ 102.508766667000032, -1.972936110999967 ], [ 102.476597222000066, -1.974908332999973 ], [ 102.4669, -1.945775 ], [ 102.458302778000075, -1.94515 ], [ 102.458311111000057, -1.899955555999952 ], [ 102.477111110000067, -1.891444443999944 ] ] ] } },
{ "type": "Feature", "properties": { "kemendagri_kab_code": 1504, "kemendagri_kab_name": "Kabupaten Batanghari", "kemendagri_prov_code": 15, "kemendagri_prov_name": "Jambi" }, "geometry": { "type": "Polygon", "coordinates": [ [ [ 103.303704920000087, -1.348860958999978 ], [ 103.319136879000041, -1.368149463999941 ], [ 103.331052542000066, -1.366729260999932 ], [ 103.334112256000083, -1.381081606999942 ], [ 103.345973893000064, -1.38734519999997 ], [ 103.35480033500005, -1.441504770999927 ], [ 103.381579609000084, -1.470537821999926 ], [ 103.384186738000039, -1.483694822999951 ], [ 103.416071269000042, -1.478514890999975 ], [ 103.432202766000046, -1.466375643999925 ], [ 103.443998116000046, -1.47578864299993 ], [ 103.451788367000063, -1.467439506999938 ], [ 103.474196362000043, -1.477935217999971 ], [ 103.462977994000084, -1.51781527299994 ], [ 103.472821198000076, -1.543936608999957 ], [ 103.466857634000064, -1.557115228999976 ], [ 103.447727946000043, -1.568128359999946 ], [ 103.449178656000072, -1.575882732999958 ], [ 103.430858759000046, -1.597255319999931 ], [ 103.427180947000068, -1.624008536999952 ], [ 103.408370427000079, -1.63226973299993 ], [ 103.40057631500008, -1.655938638999942 ], [ 103.416420838000079, -1.658638162999978 ], [ 103.430018644000086, -1.678801540999928 ], [ 103.418468863000044, -1.678676203999942 ], [ 103.425325389000079, -1.70305865399996 ], [ 103.415566145000071, -1.704614858999946 ], [ 103.415666628000054, -1.715586168999948 ], [ 103.400391478000074, -1.727523292999933 ], [ 103.402316111000061, -1.751108724999938 ], [ 103.406853976000036, -1.745032394999953 ], [ 103.420694445000038, -1.753861111999925 ], [ 103.43211111100004, -1.773083331999942 ], [ 103.421833334000041, -1.779166667999959 ], [ 103.416433540000071, -1.817154653999978 ], [ 103.393863006000061, -1.834570108999969 ], [ 103.399416668000072, -1.861083332999954 ], [ 103.410527778000073, -1.868333332999953 ], [ 103.320277778000047, -1.868194443999926 ], [ 103.314416667000046, -1.9135 ], [ 103.318289556000082, -1.95209594399995 ], [ 103.337174081000057, -1.963852558999974 ], [ 103.333348647000037, -1.976509939999971 ], [ 103.340138890000048, -1.975027777999969 ], [ 103.340166667000062, -1.994861110999977 ], [ 103.370222222000052, -1.994194443999959 ], [ 103.369914719000064, -2.046578894999925 ], [ 103.454406351000046, -2.04790830099995 ], [ 103.446444444000065, -2.173611110999957 ], [ 103.460194444000081, -2.17769444399994 ], [ 103.452083333000076, -2.221944443999973 ], [ 103.463138889000049, -2.265527777999978 ], [ 103.455638889000056, -2.277555555999925 ], [ 103.461638889000085, -2.2965 ], [ 103.447611111000072, -2.316166666999948 ], [ 103.461944444000039, -2.339675 ], [ 103.453805556000077, -2.359602777999953 ], [ 103.438388889000066, -2.342391666999958 ], [ 103.405777778000072, -2.33514444399998 ], [ 103.382972222000035, -2.29475 ], [ 103.3595, -2.284972221999965 ], [ 103.349305556000047, -2.265444443999968 ], [ 103.33836111100004, -2.271305555999959 ], [ 103.332666667000069, -2.249 ], [ 103.301088889000084, -2.221813888999975 ], [ 103.303361111000072, -2.199252777999959 ], [ 103.277583333000052, -2.147886110999934 ], [ 103.25895, -2.133061110999961 ], [ 103.23046944400005, -2.135758332999956 ], [ 103.210083333000057, -2.059194443999957 ], [ 103.19158333300004, -2.040916666999976 ], [ 103.205861111000047, -2.013916666999933 ], [ 103.180833333000066, -1.975861110999972 ], [ 103.199555556000064, -1.956083332999981 ], [ 103.199444444000051, -1.909611110999947 ], [ 103.176777778000087, -1.923583332999954 ], [ 103.169027778000043, -1.958388888999934 ], [ 103.132777778000047, -1.958166666999944 ], [ 103.132861111000068, -1.970138888999941 ], [ 103.094166667000081, -1.965694443999951 ], [ 103.087194444000033, -1.980166666999935 ], [ 103.079444444000046, -1.98025 ], [ 103.079583333000073, -1.953555555999969 ], [ 102.97936111100006, -1.9435 ], [ 102.965611111000044, -1.957555555999932 ], [ 102.955388889000062, -1.950888888999941 ], [ 102.941944444000058, -1.972916666999936 ], [ 102.907472222000081, -1.96425 ], [ 102.888027778000037, -1.979944443999955 ], [ 102.800833333000071, -1.990611110999964 ], [ 102.801805556000033, -1.932416666999927 ], [ 102.712638889000061, -1.953416666999942 ], [ 102.661388889000079, -1.928333332999955 ], [ 102.627861111000072, -1.92141666699996 ], [ 102.615611111000078, -1.905388888999937 ], [ 102.567166667000038, -1.907944443999952 ], [ 102.54775, -1.917861110999979 ], [ 102.477111110000067, -1.891444443999944 ], [ 102.495978654000055, -1.879439841999954 ], [ 102.496964077000086, -1.852097134999951 ], [ 102.519625301000076, -1.857086425999967 ], [ 102.56573201100008, -1.886953075999941 ], [ 102.590279680000037, -1.882028610999953 ], [ 102.664323446000083, -1.813351230999956 ], [ 102.667777778000072, -1.756944443999942 ], [ 102.698456225000086, -1.722240415999977 ], [ 102.714158316000066, -1.718418679999957 ], [ 102.706991304000042, -1.70430125799993 ], [ 102.727407824000068, -1.704448119999938 ], [ 102.732904603000065, -1.695211417999928 ], [ 102.726944444000083, -1.683055555999942 ], [ 102.757111111000086, -1.667972221999946 ], [ 102.787118808000059, -1.633504101999961 ], [ 102.804611111000042, -1.57958333299996 ], [ 102.793487436000078, -1.526709013999948 ], [ 102.824096043000054, -1.466813195999976 ], [ 102.82289815300004, -1.442696683999941 ], [ 102.808622222000054, -1.423088888999928 ], [ 102.817104619000077, -1.423341305999941 ], [ 102.822252975000083, -1.396399582999948 ], [ 102.833377714000051, -1.398006265999925 ], [ 102.845135321000043, -1.385703507999949 ], [ 102.857295094000051, -1.389583603999938 ], [ 102.855197277000059, -1.378823202999968 ], [ 102.864991523000072, -1.379387278999957 ], [ 102.86561733700006, -1.37154533599994 ], [ 102.891277778000074, -1.370777777999933 ], [ 102.918333333000078, -1.381833332999975 ], [ 102.960833333000039, -1.42133333299995 ], [ 102.983695302000058, -1.423308276999933 ], [ 103.006243196000071, -1.442802012999948 ], [ 103.019298006000042, -1.438580595999952 ], [ 103.02939387300006, -1.455049200999952 ], [ 103.040638889000036, -1.441611110999929 ], [ 103.042889349000063, -1.413670899999943 ], [ 103.062214587000085, -1.405347657999926 ], [ 103.05517128300005, -1.387298854999926 ], [ 103.109972223000057, -1.400527779999948 ], [ 103.150055553000072, -1.377222225999958 ], [ 103.170194442000081, -1.389111107999952 ], [ 103.207083333000071, -1.369527777999963 ], [ 103.207111111000074, -1.35975 ], [ 103.217833333000044, -1.366083332999949 ], [ 103.222317601000043, -1.391520279999952 ], [ 103.254794512000046, -1.393239710999978 ], [ 103.266749992000086, -1.403647418999981 ], [ 103.289230185000065, -1.393079087999979 ], [ 103.293468483000083, -1.383193981999966 ], [ 103.294611841000062, -1.373762151999927 ], [ 103.281899874000032, -1.364357695999956 ], [ 103.285180582000066, -1.352901293999935 ], [ 103.303704920000087, -1.348860958999978 ] ] ] } },
{ "type": "Feature", "properties": { "kemendagri_kab_code": 1505, "kemendagri_kab_name": "Kabupaten Muaro Jambi", "kemendagri_prov_code": 15, "kemendagri_prov_name": "Jambi" }, "geometry": { "type": "Polygon", "coordinates": [ [ [ 103.338190053000062, -1.237150447999966 ], [ 103.329782909000073, -1.265487641999925 ], [ 103.335399402000064, -1.277374906999967 ], [ 103.391181989000074, -1.279897317999939 ], [ 103.393230624000068, -1.292328626999961 ], [ 103.416498292000085, -1.30644958299996 ], [ 103.417013844000053, -1.328297212999928 ], [ 103.432656699000063, -1.341606852999973 ], [ 103.441413243000056, -1.341514983999957 ], [ 103.441280497000037, -1.329876707999972 ], [ 103.506927638000036, -1.33225286399994 ], [ 103.50711778200008, -1.316285051999955 ], [ 103.559027034000053, -1.315714770999932 ], [ 103.558456603000081, -1.353923298999973 ], [ 103.580893569000068, -1.354873752999936 ], [ 103.580703426000071, -1.390230347999932 ], [ 103.633645109000042, -1.392161305999934 ], [ 103.671366133000049, -1.370448311999951 ], [ 103.789291155000058, -1.34860075399996 ], [ 104.055313030000036, -1.31826833599996 ], [ 104.079438638000056, -1.294162765999943 ], [ 104.091602341000055, -1.294173562999958 ], [ 104.108186399000033, -1.310297886999933 ], [ 104.094810736000056, -1.324969254999928 ], [ 104.085261908000064, -1.321361912999976 ], [ 104.172778439000069, -1.462030098999946 ], [ 104.235466467000037, -1.543407401999957 ], [ 104.286270509000076, -1.573403367999958 ], [ 104.29666899700004, -1.60339890299997 ], [ 104.316277575000072, -1.627751390999947 ], [ 104.338365152000051, -1.645319496999946 ], [ 104.362510661000044, -1.646690551999939 ], [ 104.044894333000059, -1.74692205599996 ], [ 103.873333333000062, -1.788611110999966 ], [ 103.871944444000064, -1.80277777799995 ], [ 103.85, -1.816666666999936 ], [ 103.79527777800007, -1.825277777999929 ], [ 103.766111111000043, -1.816111110999941 ], [ 103.662043345000086, -1.846282776999942 ], [ 103.630333333000067, -1.841194443999939 ], [ 103.58622222200006, -1.86165555599996 ], [ 103.521444444000053, -1.906658332999939 ], [ 103.500288889000046, -1.959861110999952 ], [ 103.499997222000047, -1.982180555999946 ], [ 103.54274444400005, -1.986041666999938 ], [ 103.556641667000065, -2.017669443999978 ], [ 103.563924444000065, -2.016752777999955 ], [ 103.563111667000044, -2.042171943999961 ], [ 103.553566667000041, -2.042236110999966 ], [ 103.524638889000073, -2.072986110999977 ], [ 103.532222222000087, -2.07270833299998 ], [ 103.53225, -2.0915 ], [ 103.516869167000038, -2.092233332999967 ], [ 103.517293611000071, -2.114248888999953 ], [ 103.546, -2.136272221999945 ], [ 103.559325, -2.137122221999959 ], [ 103.507008333000044, -2.173675 ], [ 103.446444444000065, -2.173611110999957 ], [ 103.454406351000046, -2.04790830099995 ], [ 103.369914719000064, -2.046578894999925 ], [ 103.370222222000052, -1.994194443999959 ], [ 103.340166667000062, -1.994861110999977 ], [ 103.340138890000048, -1.975027777999969 ], [ 103.333348647000037, -1.976509939999971 ], [ 103.337174081000057, -1.963852558999974 ], [ 103.318289556000082, -1.95209594399995 ], [ 103.314416667000046, -1.9135 ], [ 103.320277778000047, -1.868194443999926 ], [ 103.410527778000073, -1.868333332999953 ], [ 103.399416668000072, -1.861083332999954 ], [ 103.393863006000061, -1.834570108999969 ], [ 103.416433540000071, -1.817154653999978 ], [ 103.421833334000041, -1.779166667999959 ], [ 103.43211111100004, -1.773083331999942 ], [ 103.420694445000038, -1.753861111999925 ], [ 103.406853976000036, -1.745032394999953 ], [ 103.402316111000061, -1.751108724999938 ], [ 103.400391478000074, -1.727523292999933 ], [ 103.415666628000054, -1.715586168999948 ], [ 103.415566145000071, -1.704614858999946 ], [ 103.425325389000079, -1.70305865399996 ], [ 103.418468863000044, -1.678676203999942 ], [ 103.430018644000086, -1.678801540999928 ], [ 103.416420838000079, -1.658638162999978 ], [ 103.40057631500008, -1.655938638999942 ], [ 103.408370427000079, -1.63226973299993 ], [ 103.427180947000068, -1.624008536999952 ], [ 103.430858759000046, -1.597255319999931 ], [ 103.449178656000072, -1.575882732999958 ], [ 103.447727946000043, -1.568128359999946 ], [ 103.466857634000064, -1.557115228999976 ], [ 103.472821198000076, -1.543936608999957 ], [ 103.462977994000084, -1.51781527299994 ], [ 103.474196362000043, -1.477935217999971 ], [ 103.451788367000063, -1.467439506999938 ], [ 103.443998116000046, -1.47578864299993 ], [ 103.432202766000046, -1.466375643999925 ], [ 103.416071269000042, -1.478514890999975 ], [ 103.384186738000039, -1.483694822999951 ], [ 103.381579609000084, -1.470537821999926 ], [ 103.35480033500005, -1.441504770999927 ], [ 103.345973893000064, -1.38734519999997 ], [ 103.334112256000083, -1.381081606999942 ], [ 103.331052542000066, -1.366729260999932 ], [ 103.311978601000078, -1.362939695999955 ], [ 103.302832650000084, -1.347626074999937 ], [ 103.285180582000066, -1.352901293999935 ], [ 103.281899874000032, -1.364357695999956 ], [ 103.294611841000062, -1.373762151999927 ], [ 103.289230185000065, -1.393079087999979 ], [ 103.266749992000086, -1.403647418999981 ], [ 103.254794512000046, -1.393239710999978 ], [ 103.220031849000065, -1.388020084999937 ], [ 103.220602778000057, -1.374486110999953 ], [ 103.238287709000076, -1.374517366999953 ], [ 103.232858498000041, -1.359166902999959 ], [ 103.224561812000047, -1.359156256999938 ], [ 103.224559259000046, -1.331222639999964 ], [ 103.240115011000057, -1.330636000999959 ], [ 103.241555556000037, -1.361277805999975 ], [ 103.25002777800006, -1.374752777999959 ], [ 103.262733333000085, -1.3747 ], [ 103.258369479000066, -1.336988216999941 ], [ 103.270497319000071, -1.315334481999969 ], [ 103.271079485000087, -1.234589209999967 ], [ 103.338190053000062, -1.237150447999966 ] ], [ [ 103.627274417000081, -1.679126332999942 ], [ 103.607818889000043, -1.660469166999974 ], [ 103.612972222000053, -1.656805555999938 ], [ 103.62325, -1.665722221999943 ], [ 103.630776500000081, -1.652898 ], [ 103.649831833000064, -1.657164416999933 ], [ 103.681055556000047, -1.619277777999969 ], [ 103.66425, -1.605527777999953 ], [ 103.655066250000061, -1.607399332999933 ], [ 103.651527778000059, -1.554138888999944 ], [ 103.610805556000059, -1.546666666999954 ], [ 103.567416667000032, -1.57425 ], [ 103.548964628000078, -1.566558234999945 ], [ 103.546608237000044, -1.587867711999934 ], [ 103.535038889000077, -1.589188888999956 ], [ 103.548286, -1.611513027999933 ], [ 103.537833333000037, -1.645052777999979 ], [ 103.526755556000069, -1.649647221999942 ], [ 103.524219444000039, -1.676127777999966 ], [ 103.568326111000033, -1.680527777999941 ], [ 103.572972222000033, -1.667838888999938 ], [ 103.58143083300007, -1.669436110999925 ], [ 103.621254167000075, -1.696131388999959 ], [ 103.627274417000081, -1.679126332999942 ] ] ] } },
{ "type": "Feature", "properties": { "kemendagri_kab_code": 1506, "kemendagri_kab_name": "Kabupaten Tanjung Jabung Barat", "kemendagri_prov_code": 15, "kemendagri_prov_name": "Jambi" }, "geometry": { "type": "Polygon", "coordinates": [ [ [ 103.751304696000034, -0.987174384999946 ], [ 103.75231457700005, -1.01980819399995 ], [ 103.740263848000041, -1.015527113999951 ], [ 103.72792949400008, -1.028544200999931 ], [ 103.739319956000088, -1.047203975999935 ], [ 103.730763160000038, -1.064226130999941 ], [ 103.675833633000082, -1.07582909499996 ], [ 103.653079658000081, -1.088491100999931 ], [ 103.651267655000083, -1.102191600999959 ], [ 103.616313484000045, -1.101151698999956 ], [ 103.593149681000057, -1.11515886199993 ], [ 103.543131988000084, -1.090013395999961 ], [ 103.535230611000088, -1.092858159999935 ], [ 103.527291228000081, -1.122265067999933 ], [ 103.478300985000033, -1.109717856999964 ], [ 103.470779605000075, -1.125673249999977 ], [ 103.454969186000085, -1.118233892999967 ], [ 103.445129991000044, -1.130229179999958 ], [ 103.447810353000079, -1.195038904999933 ], [ 103.429640071000051, -1.200921278999942 ], [ 103.425705494000056, -1.219675664999954 ], [ 103.38150588700006, -1.221875434999959 ], [ 103.381449899000074, -1.236499546999937 ], [ 103.271079485000087, -1.234589209999967 ], [ 103.270497319000071, -1.315334481999969 ], [ 103.258369479000066, -1.336988216999941 ], [ 103.262733333000085, -1.3747 ], [ 103.25002777800006, -1.374752777999959 ], [ 103.241555556000037, -1.361277805999975 ], [ 103.240115011000057, -1.330636000999959 ], [ 103.224559259000046, -1.331222639999964 ], [ 103.224561812000047, -1.359156256999938 ], [ 103.232858498000041, -1.359166902999959 ], [ 103.238287709000076, -1.374517366999953 ], [ 103.220602778000057, -1.374486110999953 ], [ 103.207111111000074, -1.35975 ], [ 103.207083333000071, -1.369527777999963 ], [ 103.170194442000081, -1.389111107999952 ], [ 103.150055553000072, -1.377222225999958 ], [ 103.109972223000057, -1.400527779999948 ], [ 103.05517128300005, -1.387298854999926 ], [ 103.062214587000085, -1.405347657999926 ], [ 103.042889349000063, -1.413670899999943 ], [ 103.040638889000036, -1.441611110999929 ], [ 103.02939387300006, -1.455049200999952 ], [ 103.019298006000042, -1.438580595999952 ], [ 103.006243196000071, -1.442802012999948 ], [ 102.983695302000058, -1.423308276999933 ], [ 102.960833333000039, -1.42133333299995 ], [ 102.918333333000078, -1.381833332999975 ], [ 102.891277778000074, -1.370777777999933 ], [ 102.86561733700006, -1.37154533599994 ], [ 102.864991523000072, -1.379387278999957 ], [ 102.855197277000059, -1.378823202999968 ], [ 102.857295094000051, -1.389583603999938 ], [ 102.845135321000043, -1.385703507999949 ], [ 102.833377714000051, -1.398006265999925 ], [ 102.822252975000083, -1.396399582999948 ], [ 102.817104619000077, -1.423341305999941 ], [ 102.808618211000066, -1.423095658999955 ], [ 102.794811220000042, -1.396424218999925 ], [ 102.802147393000041, -1.375576055999943 ], [ 102.784972224000057, -1.339944442999979 ], [ 102.780857807000075, -1.310373199999958 ], [ 102.746283331000086, -1.261413127999958 ], [ 102.724346676000039, -1.262285668999937 ], [ 102.717772129000082, -1.249118543999941 ], [ 102.697051055000088, -1.238570029999948 ], [ 102.686768720000032, -1.196900280999955 ], [ 102.643554551000079, -1.124922665999975 ], [ 102.672402502000068, -1.097308435999935 ], [ 102.683192649000034, -1.095923570999958 ], [ 102.681577280000056, -1.081396834999964 ], [ 102.691311566000081, -1.085486595999953 ], [ 102.704692508000051, -1.075000007999961 ], [ 102.710199202000069, -1.081781534999948 ], [ 102.714911004000044, -1.074304199999972 ], [ 102.729012068000088, -1.080179040999951 ], [ 102.731666677000078, -1.049722257999974 ], [ 102.751039421000087, -1.04395507299995 ], [ 102.753174199000057, -1.023824092999973 ], [ 102.780865542000072, -1.032240944999955 ], [ 102.769285169000057, -1.011581741999976 ], [ 102.785790815000041, -0.97922209099994 ], [ 102.860000029000048, -0.927777772999946 ], [ 102.927777771000081, -0.866111087999968 ], [ 103.00361115000004, -0.754722215999948 ], [ 103.08083332800004, -0.76194449299993 ], [ 103.111832952000043, -0.746610969999949 ], [ 103.208249968000075, -0.757056027999965 ], [ 103.277596735000088, -0.776335857999925 ], [ 103.290762789000041, -0.771853279999959 ], [ 103.301491527000053, -0.781257660999927 ], [ 103.302544853000086, -0.765531119999935 ], [ 103.31222223900005, -0.764722207999966 ], [ 103.346389027000043, -0.779166951999969 ], [ 103.352777997000032, -0.799166985999932 ], [ 103.401672642000051, -0.787271186999931 ], [ 103.408889004000059, -0.76999998499997 ], [ 103.437221994000083, -0.778055998999946 ], [ 103.445771606000051, -0.750000000999933 ], [ 103.441138158000058, -0.731699879999951 ], [ 103.45420301300004, -0.733173846999932 ], [ 103.48273869500008, -0.752959353999927 ], [ 103.488679344000047, -0.777108763999934 ], [ 103.479978039000059, -0.793946306999942 ], [ 103.488563808000038, -0.803173579999964 ], [ 103.511844557000074, -0.800783112999966 ], [ 103.547641634000058, -0.810574269999961 ], [ 103.558303118000083, -0.841675879999968 ], [ 103.554372258000058, -0.857943112999976 ], [ 103.573266076000039, -0.875946990999978 ], [ 103.589001027000052, -0.872486557999935 ], [ 103.626655569000036, -0.913255036999942 ], [ 103.668710655000041, -0.936986010999931 ], [ 103.675006221000046, -0.952459295999972 ], [ 103.685865063000051, -0.94685622399993 ], [ 103.727210851000052, -0.957323317999965 ], [ 103.751304696000034, -0.987174384999946 ] ] ] } },
{ "type": "Feature", "properties": { "kemendagri_kab_code": 1507, "kemendagri_kab_name": "Kabupaten Tanjung Jabung Timur", "kemendagri_prov_code": 15, "kemendagri_prov_name": "Jambi" }, "geometry": { "type": "MultiPolygon", "coordinates": [ [ [ [ 104.492677595000032, -1.671358943999962 ], [ 104.497593966000068, -1.683643453999935 ], [ 104.492676862000053, -1.681202951999978 ], [ 104.492677595000032, -1.671358943999962 ] ] ], [ [ [ 103.912158962000035, -0.982783845999961 ], [ 103.954461559000038, -0.996373090999953 ], [ 103.970295825000051, -0.991691484999933 ], [ 104.028442649000056, -1.000855168999976 ], [ 104.083795064000071, -1.027523886999973 ], [ 104.105037056000072, -1.029637862999948 ], [ 104.129745016000072, -1.043900518999976 ], [ 104.125589330000082, -1.049112976999936 ], [ 104.178583789000072, -1.051233855999953 ], [ 104.207081906000042, -1.070714677999945 ], [ 104.224116044000084, -1.058770167999967 ], [ 104.244223901000055, -1.054206237999949 ], [ 104.26569061500004, -1.041649278999955 ], [ 104.329147394000074, -1.042803742999979 ], [ 104.352833454000063, -1.031737376999956 ], [ 104.356866775000071, -1.01862078399995 ], [ 104.367006304000085, -1.024391937999951 ], [ 104.394307801000082, -1.076470591999964 ], [ 104.405101323000054, -1.12737918199997 ], [ 104.407820442000059, -1.163161879999961 ], [ 104.394426003000035, -1.190352786999938 ], [ 104.391966118000084, -1.217031348999967 ], [ 104.456337164000047, -1.336747843999945 ], [ 104.450513298000033, -1.385273964999953 ], [ 104.456442110000069, -1.426053037999964 ], [ 104.442308885000045, -1.464676402999942 ], [ 104.437819860000047, -1.508075730999963 ], [ 104.459282056000063, -1.596452971999952 ], [ 104.490991173000054, -1.66777725299994 ], [ 104.479974496000068, -1.655862446999947 ], [ 104.469553584000039, -1.660434448999979 ], [ 104.474960727000052, -1.653434355999934 ], [ 104.461782964000065, -1.650899230999926 ], [ 104.463977073000081, -1.641706512999974 ], [ 104.458071664000045, -1.647070362999955 ], [ 104.449762182000086, -1.635678681999934 ], [ 104.430701696000085, -1.639550355999972 ], [ 104.429310735000058, -1.62807240099994 ], [ 104.374287913000046, -1.63719569999995 ], [ 104.362510661000044, -1.646690551999939 ], [ 104.338365152000051, -1.645319496999946 ], [ 104.316277575000072, -1.627751390999947 ], [ 104.29666899700004, -1.60339890299997 ], [ 104.286270509000076, -1.573403367999958 ], [ 104.235466467000037, -1.543407401999957 ], [ 104.16386545000006, -1.448961931999975 ], [ 104.085261908000064, -1.321361912999976 ], [ 104.094810736000056, -1.324969254999928 ], [ 104.108186399000033, -1.310297886999933 ], [ 104.091602341000055, -1.294173562999958 ], [ 104.079438638000056, -1.294162765999943 ], [ 104.055313030000036, -1.31826833599996 ], [ 103.749931392000065, -1.354873752999936 ], [ 103.671366133000049, -1.370448311999951 ], [ 103.633645109000042, -1.392161305999934 ], [ 103.618044184000041, -1.391935084999943 ], [ 103.580703426000071, -1.390230347999932 ], [ 103.580893569000068, -1.354873752999936 ], [ 103.558456603000081, -1.353923298999973 ], [ 103.559027034000053, -1.315714770999932 ], [ 103.50711778200008, -1.316285051999955 ], [ 103.506927638000036, -1.33225286399994 ], [ 103.441280497000037, -1.329876707999972 ], [ 103.441413243000056, -1.341514983999957 ], [ 103.432656699000063, -1.341606852999973 ], [ 103.417013844000053, -1.328297212999928 ], [ 103.416498292000085, -1.30644958299996 ], [ 103.393230624000068, -1.292328626999961 ], [ 103.391181989000074, -1.279897317999939 ], [ 103.334445527000071, -1.276136465999969 ], [ 103.329782909000073, -1.265487641999925 ], [ 103.338190053000062, -1.237150447999966 ], [ 103.381449899000074, -1.236499546999937 ], [ 103.38150588700006, -1.221875434999959 ], [ 103.425705494000056, -1.219675664999954 ], [ 103.429640071000051, -1.200921278999942 ], [ 103.447810353000079, -1.195038904999933 ], [ 103.445129991000044, -1.130229179999958 ], [ 103.454969186000085, -1.118233892999967 ], [ 103.470779605000075, -1.125673249999977 ], [ 103.478300985000033, -1.109717856999964 ], [ 103.527291228000081, -1.122265067999933 ], [ 103.535230611000088, -1.092858159999935 ], [ 103.543131988000084, -1.090013395999961 ], [ 103.593149681000057, -1.11515886199993 ], [ 103.616313484000045, -1.101151698999956 ], [ 103.651267655000083, -1.102191600999959 ], [ 103.653079658000081, -1.088491100999931 ], [ 103.675833633000082, -1.07582909499996 ], [ 103.736409379000065, -1.059700276999934 ], [ 103.739247245000058, -1.046819065999955 ], [ 103.727819988000078, -1.029075655999975 ], [ 103.740263848000041, -1.015527113999951 ], [ 103.75231457700005, -1.01980819399995 ], [ 103.751304696000034, -0.987174384999946 ], [ 103.802163, -0.993917 ], [ 103.808309, -1.013723 ], [ 103.830713, -1.015336 ], [ 103.912158962000035, -0.982783845999961 ] ] ], [ [ [ 104.212828900000034, -1.059930563999956 ], [ 104.208524455000088, -1.062350475999949 ], [ 104.207832031000066, -1.061351102999936 ], [ 104.207953384000064, -1.060658678999971 ], [ 104.209538105000036, -1.061308271999962 ], [ 104.212828900000034, -1.059930563999956 ] ] ], [ [ [ 104.22226382000008, -1.058914074999961 ], [ 104.218211646000043, -1.062484413999925 ], [ 104.21402278000005, -1.062815317999934 ], [ 104.217012366000063, -1.060240772999975 ], [ 104.22226382000008, -1.058914074999961 ] ] ], [ [ [ 104.242321955000079, -1.052686737999977 ], [ 104.245557, -1.051838 ], [ 104.242307679000078, -1.053172147999931 ], [ 104.242321955000079, -1.052686737999977 ] ] ], [ [ [ 104.198320658000057, -1.053887306999968 ], [ 104.191161773000033, -1.049507879999965 ], [ 104.187171211000077, -1.04010124399997 ], [ 104.196249140000077, -1.04692691799994 ], [ 104.198320658000057, -1.053887306999968 ] ] ], [ [ [ 104.210606382000037, -1.035234911999964 ], [ 104.254788734000044, -1.035827505999976 ], [ 104.20756317200005, -1.06041803599993 ], [ 104.21326865900005, -1.045790886999953 ], [ 104.206135035000045, -1.040918701999942 ], [ 104.210606382000037, -1.035234911999964 ] ] ], [ [ [ 104.252545389000034, -1.041545291999967 ], [ 104.245561703000078, -1.048351121999929 ], [ 104.242464120000079, -1.048925523999969 ], [ 104.246722975000068, -1.043685014999937 ], [ 104.252545389000034, -1.041545291999967 ] ] ], [ [ [ 104.206107024000062, -1.031846859999973 ], [ 104.204827207000051, -1.041938914999946 ], [ 104.211684853000065, -1.045739302999948 ], [ 104.20324138400008, -1.056377174999966 ], [ 104.190491699000063, -1.036282078999932 ], [ 104.206107024000062, -1.031846859999973 ] ] ], [ [ [ 104.178223327000069, -1.037933919999944 ], [ 104.182077863000075, -1.037722623999969 ], [ 104.181307108000055, -1.04234734399995 ], [ 104.178223327000069, -1.037933919999944 ] ] ] ] } },
{ "type": "Feature", "properties": { "kemendagri_kab_code": 1508, "kemendagri_kab_name": "Kabupaten Bungo", "kemendagri_prov_code": 15, "kemendagri_prov_name": "Jambi" }, "geometry": { "type": "Polygon", "coordinates": [ [ [ 101.888217940000061, -1.123081944999967 ], [ 101.918103224000049, -1.138715522999973 ], [ 101.922910490000049, -1.129301091999935 ], [ 101.94383149500004, -1.13065680099993 ], [ 101.948139239000056, -1.136303568999949 ], [ 101.93808894600005, -1.145063625999967 ], [ 101.966554975000065, -1.139210744999957 ], [ 101.962294651000036, -1.153501062999965 ], [ 101.971558531000085, -1.154753530999926 ], [ 101.963138482000033, -1.170109676999971 ], [ 101.944232088000035, -1.173581368999976 ], [ 101.957032089000052, -1.210981367999977 ], [ 101.964972283000066, -1.213868201999958 ], [ 101.96147471900008, -1.227252494999959 ], [ 101.929362877000074, -1.238702459999956 ], [ 101.919687671000077, -1.250054051999939 ], [ 101.920694497000056, -1.288150530999928 ], [ 101.932111237000072, -1.306733876999942 ], [ 101.936355994000053, -1.347407914999962 ], [ 101.95603690300004, -1.34101746999994 ], [ 101.98787589300008, -1.350425904999952 ], [ 101.991766571000085, -1.357798158999969 ], [ 102.003717289000065, -1.352473412999927 ], [ 102.042583379000064, -1.386233883999978 ], [ 102.04010192800007, -1.39156346599998 ], [ 102.07878153200005, -1.391634499999952 ], [ 102.09300677400006, -1.413618006999968 ], [ 102.138737695000032, -1.42242994999998 ], [ 102.145163982000042, -1.445969420999972 ], [ 102.182114139000078, -1.444251404999932 ], [ 102.183404719000066, -1.460161754999945 ], [ 102.210580210000046, -1.476137378999965 ], [ 102.222013286000049, -1.467957032999948 ], [ 102.251276593000057, -1.478853478999952 ], [ 102.268639265000047, -1.462546574999976 ], [ 102.291166736000037, -1.460261577999972 ], [ 102.290211932000034, -1.443531337999957 ], [ 102.307703159000084, -1.466649243999939 ], [ 102.307672049000075, -1.48801268099993 ], [ 102.329487743000072, -1.510026047999929 ], [ 102.314153453000074, -1.535005415999933 ], [ 102.314416721000043, -1.568928255999936 ], [ 102.476932095000052, -1.57118136899993 ], [ 102.481215257000088, -1.595507278999946 ], [ 102.48899513300006, -1.595328202999951 ], [ 102.489026438000053, -1.645981146999929 ], [ 102.512916422000046, -1.639473754999926 ], [ 102.513126432000035, -1.649413199999969 ], [ 102.456416667000042, -1.655583332999925 ], [ 102.461554620000072, -1.674272051999935 ], [ 102.451944444000048, -1.68533333299996 ], [ 102.443722222000076, -1.681444443999965 ], [ 102.430555556000058, -1.696694443999945 ], [ 102.405483333000063, -1.700736110999969 ], [ 102.344611111000063, -1.675972221999928 ], [ 102.327083333000076, -1.701888888999974 ], [ 102.303755556000056, -1.716247221999936 ], [ 102.292888889000039, -1.712822221999943 ], [ 102.283127778000051, -1.726497221999978 ], [ 102.194083333000037, -1.767861110999945 ], [ 102.184472222000068, -1.786222221999935 ], [ 102.168138889000033, -1.780611110999928 ], [ 102.133733333000066, -1.790694443999939 ], [ 102.143194444000073, -1.81335833299994 ], [ 102.1305, -1.853944443999978 ], [ 102.1106, -1.872663888999966 ], [ 102.086275, -1.868738888999928 ], [ 102.057952778000072, -1.877361110999971 ], [ 102.035041667000087, -1.904638888999955 ], [ 102.010111111000072, -1.900388888999942 ], [ 101.996183333000033, -1.90925 ], [ 101.977388889000053, -1.870777777999933 ], [ 101.947166667000033, -1.85986111099993 ], [ 101.92130555600005, -1.83944444399998 ], [ 101.882972222000035, -1.846944443999973 ], [ 101.828722222000067, -1.820722221999972 ], [ 101.788194444000055, -1.829111110999975 ], [ 101.7345, -1.87725 ], [ 101.675138889000038, -1.880611110999951 ], [ 101.660694444000058, -1.871777777999966 ], [ 101.629091667000068, -1.888697221999962 ], [ 101.445444444000032, -1.71118888899997 ], [ 101.437500325000087, -1.695780920999937 ], [ 101.476546, -1.676726 ], [ 101.489986258000044, -1.645815436999953 ], [ 101.523253333000071, -1.636096110999972 ], [ 101.567581906000044, -1.579257405999954 ], [ 101.586663, -1.578473 ], [ 101.616318884000066, -1.548430986999961 ], [ 101.622762778000038, -1.527015277999965 ], [ 101.641764685000055, -1.52055945799998 ], [ 101.642164469000079, -1.51257794199995 ], [ 101.656311129000073, -1.512290319999977 ], [ 101.656161960000077, -1.498423835999972 ], [ 101.679806389000078, -1.498057221999943 ], [ 101.69108, -1.489932 ], [ 101.700515, -1.454874 ], [ 101.721802, -1.431095 ], [ 101.69371, -1.40843 ], [ 101.694931, -1.394087 ], [ 101.72817225700004, -1.365286481999931 ], [ 101.728132079000034, -1.354902039999956 ], [ 101.724321, -1.342265 ], [ 101.711836, -1.336336 ], [ 101.703781, -1.346849 ], [ 101.679778, -1.350639 ], [ 101.671745, -1.332083 ], [ 101.688757, -1.32401 ], [ 101.694464, -1.307427 ], [ 101.688657894000073, -1.29911108999994 ], [ 101.696384444000046, -1.291818055999954 ], [ 101.691903, -1.280473 ], [ 101.71757, -1.260003 ], [ 101.723833, -1.238186 ], [ 101.81599, -1.217834 ], [ 101.874106, -1.142184 ], [ 101.890996365000035, -1.136964357999943 ], [ 101.888217940000061, -1.123081944999967 ] ] ] } },
{ "type": "Feature", "properties": { "kemendagri_kab_code": 1509, "kemendagri_kab_name": "Kabupaten Tebo", "kemendagri_prov_code": 15, "kemendagri_prov_name": "Jambi" }, "geometry": { "type": "Polygon", "coordinates": [ [ [ 102.01478876300007, -0.878457923999974 ], [ 102.048333336000042, -0.900295876999962 ], [ 102.065615309000066, -0.889481294999939 ], [ 102.117222220000087, -0.921111085999939 ], [ 102.138942524000072, -0.912211937999928 ], [ 102.144183205000047, -0.899050845999966 ], [ 102.159174374000088, -0.904969155999936 ], [ 102.166453128000057, -0.899762102999944 ], [ 102.174746436000078, -0.91724123399996 ], [ 102.188996595000049, -0.916328376999957 ], [ 102.190277810000055, -0.944999971999948 ], [ 102.202902551000079, -0.947092677999933 ], [ 102.221388882000042, -0.946111106999979 ], [ 102.236167929000032, -0.93036865199997 ], [ 102.24641021900004, -0.933569248999959 ], [ 102.257176433000041, -0.919821525999964 ], [ 102.303765405000036, -0.918575215999965 ], [ 102.323475831000053, -0.961865457999977 ], [ 102.357505997000032, -0.967781262999949 ], [ 102.383055556000045, -0.993611137999949 ], [ 102.373246296000048, -1.011791207999977 ], [ 102.374627341000064, -1.034205784999926 ], [ 102.384444441000085, -1.038055547999932 ], [ 102.387585203000071, -1.028406637999979 ], [ 102.404370363000055, -1.039884127999926 ], [ 102.408789364000086, -1.033216464999953 ], [ 102.429595178000056, -1.037037530999953 ], [ 102.440677611000069, -1.030870767999943 ], [ 102.474183675000063, -1.070624324999926 ], [ 102.46795446200008, -1.080901332999929 ], [ 102.479980375000082, -1.089051345999962 ], [ 102.508611148000057, -1.083611142999928 ], [ 102.537010508000037, -1.100177735999978 ], [ 102.541944399000045, -1.086944456999959 ], [ 102.549781375000066, -1.104427946999976 ], [ 102.586111138000035, -1.095555554999976 ], [ 102.607177028000081, -1.10196173099996 ], [ 102.612246541000047, -1.09569575699993 ], [ 102.630218452000065, -1.107467229999941 ], [ 102.632114201000036, -1.124194255999953 ], [ 102.649690550000059, -1.129152233999946 ], [ 102.645700721000082, -1.138024997999935 ], [ 102.686768720000032, -1.196900280999955 ], [ 102.697051055000088, -1.238570029999948 ], [ 102.717772129000082, -1.249118543999941 ], [ 102.724346676000039, -1.262285668999937 ], [ 102.746283331000086, -1.261413127999958 ], [ 102.767130942000051, -1.286903364999944 ], [ 102.76622567000004, -1.298111582999979 ], [ 102.777128787000038, -1.303767007999966 ], [ 102.802147393000041, -1.375576055999943 ], [ 102.794811220000042, -1.396424218999925 ], [ 102.82289815300004, -1.442696683999941 ], [ 102.824096043000054, -1.466813195999976 ], [ 102.793487436000078, -1.526709013999948 ], [ 102.804611111000042, -1.57958333299996 ], [ 102.784334839000053, -1.638465277999956 ], [ 102.757111111000086, -1.667972221999946 ], [ 102.726944444000083, -1.683055555999942 ], [ 102.732904603000065, -1.695211417999928 ], [ 102.727407824000068, -1.704448119999938 ], [ 102.706991304000042, -1.70430125799993 ], [ 102.714158316000066, -1.718418679999957 ], [ 102.698456225000086, -1.722240415999977 ], [ 102.667777778000072, -1.756944443999942 ], [ 102.664323446000083, -1.813351230999956 ], [ 102.590279680000037, -1.882028610999953 ], [ 102.56573201100008, -1.886953075999941 ], [ 102.519625301000076, -1.857086425999967 ], [ 102.496964077000086, -1.852097134999951 ], [ 102.488619761000052, -1.889760216999946 ], [ 102.458311111000057, -1.899955555999952 ], [ 102.458247222000068, -1.885286110999971 ], [ 102.485875, -1.884261110999944 ], [ 102.472513121000077, -1.856396209999957 ], [ 102.456852010000034, -1.85032954299993 ], [ 102.48161697900008, -1.803284374999976 ], [ 102.496883333000085, -1.79701666699998 ], [ 102.486683333000087, -1.759705555999972 ], [ 102.506713889000082, -1.758830555999964 ], [ 102.51366753800005, -1.717694881999932 ], [ 102.514291947000061, -1.707558614999925 ], [ 102.489638889000048, -1.705805555999973 ], [ 102.493527778000043, -1.696527777999961 ], [ 102.5235, -1.685916666999958 ], [ 102.516638889000035, -1.670777777999945 ], [ 102.530254165000088, -1.652589981999938 ], [ 102.512540717000036, -1.658980981999946 ], [ 102.475013091000051, -1.649867253999957 ], [ 102.470250131000057, -1.655178277999937 ], [ 102.470277870000075, -1.649428297999975 ], [ 102.513126432000035, -1.649413199999969 ], [ 102.512916422000046, -1.639473754999926 ], [ 102.489026438000053, -1.645981146999929 ], [ 102.48899513300006, -1.595328202999951 ], [ 102.481215257000088, -1.595507278999946 ], [ 102.476932095000052, -1.57118136899993 ], [ 102.314416721000043, -1.568928255999936 ], [ 102.314153453000074, -1.535005415999933 ], [ 102.329487743000072, -1.510026047999929 ], [ 102.307672049000075, -1.48801268099993 ], [ 102.307703159000084, -1.466649243999939 ], [ 102.290211932000034, -1.443531337999957 ], [ 102.291166736000037, -1.460261577999972 ], [ 102.268639265000047, -1.462546574999976 ], [ 102.251276593000057, -1.478853478999952 ], [ 102.222013286000049, -1.467957032999948 ], [ 102.210580210000046, -1.476137378999965 ], [ 102.183404719000066, -1.460161754999945 ], [ 102.182114139000078, -1.444251404999932 ], [ 102.145163982000042, -1.445969420999972 ], [ 102.138737695000032, -1.42242994999998 ], [ 102.09300677400006, -1.413618006999968 ], [ 102.07878153200005, -1.391634499999952 ], [ 102.04010192800007, -1.39156346599998 ], [ 102.042583379000064, -1.386233883999978 ], [ 102.003717289000065, -1.352473412999927 ], [ 101.991944841000077, -1.357824507999965 ], [ 101.95603690300004, -1.34101746999994 ], [ 101.932984033000082, -1.344307940999954 ], [ 101.919687671000077, -1.250054051999939 ], [ 101.929362877000074, -1.238702459999956 ], [ 101.96147471900008, -1.227252494999959 ], [ 101.964972283000066, -1.213868201999958 ], [ 101.957032089000052, -1.210981367999977 ], [ 101.944232088000035, -1.173581368999976 ], [ 101.969742266000083, -1.162185208999972 ], [ 101.970414718000086, -1.151082882999958 ], [ 101.962294651000036, -1.153501062999965 ], [ 101.96712565200005, -1.139869940999972 ], [ 101.942109348000088, -1.146809383999937 ], [ 101.945941521000066, -1.131630001999952 ], [ 101.922910490000049, -1.129301091999935 ], [ 101.914114273000052, -1.139953162999973 ], [ 101.890553573000034, -1.121530443999973 ], [ 101.887548902000049, -1.138258814999972 ], [ 101.884682629000054, -1.113522770999964 ], [ 101.892632657000036, -1.101849344999948 ], [ 101.877729827000053, -1.093571544999975 ], [ 101.866368161000082, -1.11202183499995 ], [ 101.852958456000067, -1.100230542999952 ], [ 101.844724600000063, -1.102507733999971 ], [ 101.845475985000064, -1.111867019999977 ], [ 101.829566992000082, -1.109620274999941 ], [ 101.828296010000088, -1.067706012999963 ], [ 101.821532024000078, -1.059174033999966 ], [ 101.825638889000061, -1.038361110999972 ], [ 101.819199406000052, -1.030215412999951 ], [ 101.823222222000084, -1.007361110999966 ], [ 101.815194400000053, -1.001555555999971 ], [ 101.823579558000063, -0.977620798999965 ], [ 101.845277779000071, -0.983611113999928 ], [ 101.855000024000049, -0.96777775299995 ], [ 101.88249998100008, -0.968055575999927 ], [ 101.907777786000054, -0.952499977999935 ], [ 101.915388662000055, -0.919252808999943 ], [ 101.946666677000053, -0.907777798999973 ], [ 101.962380335000034, -0.917321442999935 ], [ 101.986111116000075, -0.881111130999955 ], [ 102.01478876300007, -0.878457923999974 ] ] ] } },
{ "type": "Feature", "properties": { "kemendagri_kab_code": 1571, "kemendagri_kab_name": "Kota Jambi", "kemendagri_prov_code": 15, "kemendagri_prov_name": "Jambi" }, "geometry": { "type": "Polygon", "coordinates": [ [ [ 103.60466666700006, -1.54833333299996 ], [ 103.651527778000059, -1.554138888999944 ], [ 103.655066250000061, -1.607399332999933 ], [ 103.679944444000057, -1.612833332999969 ], [ 103.669318806000035, -1.640473443999952 ], [ 103.649831833000064, -1.657164416999933 ], [ 103.630776500000081, -1.652898 ], [ 103.62325, -1.665722221999943 ], [ 103.612972222000053, -1.656805555999938 ], [ 103.607818889000043, -1.660469166999974 ], [ 103.628677222000078, -1.676476666999974 ], [ 103.621254167000075, -1.696131388999959 ], [ 103.58143083300007, -1.669436110999925 ], [ 103.572972222000033, -1.667838888999938 ], [ 103.568326111000033, -1.680527777999941 ], [ 103.524219444000039, -1.676127777999966 ], [ 103.526755556000069, -1.649647221999942 ], [ 103.537833333000037, -1.645052777999979 ], [ 103.548286, -1.611513027999933 ], [ 103.535038889000077, -1.589188888999956 ], [ 103.546608237000044, -1.587867711999934 ], [ 103.547168110000086, -1.568207396999981 ], [ 103.567416667000032, -1.57425 ], [ 103.60466666700006, -1.54833333299996 ] ] ] } },
{ "type": "Feature", "properties": { "kemendagri_kab_code": 1572, "kemendagri_kab_name": "Kota Sungai Penuh", "kemendagri_prov_code": 15, "kemendagri_prov_name": "Jambi" }, "geometry": { "type": "Polygon", "coordinates": [ [ [ 101.279722211000035, -2.251 ], [ 101.26106666700008, -2.1019 ], [ 101.25721666700008, -2.095383332999972 ], [ 101.241055556000049, -2.097638888999938 ], [ 101.239683056000047, -2.066693055999963 ], [ 101.27158, -2.031951943999957 ], [ 101.289116900000067, -2.026401110999927 ], [ 101.429441214000065, -2.027001994999978 ], [ 101.444939223000063, -2.044836841999938 ], [ 101.442868100000055, -2.067123888999959 ], [ 101.453813900000057, -2.093225 ], [ 101.444561100000044, -2.103313888999935 ], [ 101.4175, -2.105 ], [ 101.409166700000071, -2.118888888999948 ], [ 101.41222220700007, -2.165555555999958 ], [ 101.392222200000049, -2.180555555999945 ], [ 101.368611100000066, -2.17444444399996 ], [ 101.369722200000069, -2.191111110999941 ], [ 101.279722211000035, -2.251 ] ] ] } }
]
}
