{
"type": "FeatureCollection",
"name": "17",
"crs": { "type": "name", "properties": { "name": "urn:ogc:def:crs:OGC:1.3:CRS84" } },
"features": [
{ "type": "Feature", "properties": { "kemendagri_kab_code": 1701, "kemendagri_kab_name": "Kabupaten Bengkulu Selatan", "kemendagri_prov_code": 17, "kemendagri_prov_name": "Bengkulu" }, "geometry": { "type": "Polygon", "coordinates": [ [ [ 103.002707500000042, -4.160492221999959 ], [ 103.034671948000039, -4.172538462999967 ], [ 103.060288513000046, -4.195848106999961 ], [ 103.063141043000087, -4.21103267999996 ], [ 103.051222678000045, -4.219049226999971 ], [ 103.069759134000037, -4.24108892199996 ], [ 103.067636041000071, -4.256885666999949 ], [ 103.084755254000072, -4.267905242999973 ], [ 103.097372036000081, -4.253318003999937 ], [ 103.117121066000038, -4.24903741299994 ], [ 103.137799176000044, -4.257591870999931 ], [ 103.159370590000037, -4.236098513999934 ], [ 103.166620768000087, -4.247220153999933 ], [ 103.190693116000034, -4.236112342999945 ], [ 103.203694302000088, -4.24815 ], [ 103.22405542100006, -4.240741665999963 ], [ 103.288861111000074, -4.262033332999977 ], [ 103.279617973000086, -4.290513781999948 ], [ 103.237576872000034, -4.290868506999971 ], [ 103.21862113800006, -4.307407203999958 ], [ 103.200979561000054, -4.307661153999959 ], [ 103.201315161000082, -4.393330444999947 ], [ 103.167649673000085, -4.39930160199998 ], [ 103.12113331900008, -4.482241890999944 ], [ 103.080296353000051, -4.508601393999925 ], [ 103.086421241000039, -4.552001691999976 ], [ 103.080209021000087, -4.559157611999979 ], [ 103.006840049000061, -4.52068466999998 ], [ 102.899475556000084, -4.487902320999979 ], [ 102.901151664000054, -4.469026356999962 ], [ 102.883616161000077, -4.440572897999971 ], [ 102.815968468000051, -4.38329915099996 ], [ 102.796236218000047, -4.354458478999959 ], [ 102.81259048700008, -4.323625823999976 ], [ 102.826594863000082, -4.319789127999968 ], [ 102.842981344000066, -4.344587870999931 ], [ 102.862267522000081, -4.282350469999926 ], [ 102.88560543300008, -4.263024536999978 ], [ 102.901087947000065, -4.262386249999963 ], [ 102.90094679200007, -4.255890321999971 ], [ 102.917844565000053, -4.256805179999958 ], [ 102.907953406000047, -4.241551657999935 ], [ 102.881082886000058, -4.241495032999978 ], [ 102.891222731000084, -4.203428432999942 ], [ 102.901302189000035, -4.19657835199996 ], [ 102.900419225000064, -4.178532064999956 ], [ 102.941502513000046, -4.18252019199997 ], [ 102.960219247000055, -4.164840512999945 ], [ 102.987285375000056, -4.168248150999943 ], [ 103.002707500000042, -4.160492221999959 ] ] ] } },
{ "type": "Feature", "properties": { "kemendagri_kab_code": 1702, "kemendagri_kab_name": "Kabupaten Rejang Lebong", "kemendagri_prov_code": 17, "kemendagri_prov_name": "Bengkulu" }, "geometry": { "type": "Polygon", "coordinates": [ [ [ 102.498181724000062, -3.268765535999933 ], [ 102.539329462000069, -3.276162965999958 ], [ 102.545416759000034, -3.290925509999965 ], [ 102.567655855000055, -3.276592058999938 ], [ 102.592303293000043, -3.317175929999962 ], [ 102.610809588000052, -3.319090566999932 ], [ 102.624198253000088, -3.331865052999945 ], [ 102.632362037000064, -3.325980432999927 ], [ 102.63807816700006, -3.337774456999966 ], [ 102.674687249000044, -3.315696625999976 ], [ 102.739562615000068, -3.305090656999937 ], [ 102.750884147000079, -3.30934693699993 ], [ 102.756594637000035, -3.291644821999967 ], [ 102.776050508000083, -3.281769876999931 ], [ 102.777728077000063, -3.293180710999934 ], [ 102.790905714000075, -3.29976592099996 ], [ 102.798047304000079, -3.331690941999966 ], [ 102.839772264000032, -3.334012668999947 ], [ 102.841883475000088, -3.343500898999935 ], [ 102.86414323200006, -3.345324259999927 ], [ 102.896244447000072, -3.326722002999929 ], [ 102.889572641000086, -3.352029309999978 ], [ 102.89631630100007, -3.376246463999962 ], [ 102.912379436000037, -3.377684822999925 ], [ 102.956551415000035, -3.360682152999971 ], [ 102.981602146000057, -3.363089389999971 ], [ 102.995005741000057, -3.387054359999979 ], [ 103.004370794000067, -3.435364469999968 ], [ 102.996944197000062, -3.445277774999965 ], [ 103.005558910000047, -3.467286659999957 ], [ 102.993610862000082, -3.489444439999943 ], [ 102.994741418000046, -3.524844443999939 ], [ 102.972638626000048, -3.531672216999937 ], [ 102.961749730000065, -3.561499998999977 ], [ 102.907094091000033, -3.616462405999926 ], [ 102.891240699000036, -3.60915147299994 ], [ 102.885852862000036, -3.578777851999973 ], [ 102.868812112000057, -3.556964778999941 ], [ 102.847632591000036, -3.536920303999977 ], [ 102.81867167300004, -3.527621530999966 ], [ 102.774466613000072, -3.547133063999979 ], [ 102.751255038000068, -3.543099091999977 ], [ 102.722202222000078, -3.552649721999956 ], [ 102.654961434000086, -3.540653651999946 ], [ 102.63743930000004, -3.532554955999956 ], [ 102.628205214000047, -3.516432459999976 ], [ 102.594411415000081, -3.525655754999946 ], [ 102.529582900000037, -3.494193204999931 ], [ 102.500656551000077, -3.497175463999952 ], [ 102.49687917600005, -3.513638553999954 ], [ 102.446445003000065, -3.52906954599996 ], [ 102.424527778000083, -3.524055555999951 ], [ 102.427085866000084, -3.49997901699993 ], [ 102.403397222000081, -3.434230555999932 ], [ 102.369673662000082, -3.399734302999946 ], [ 102.38758542000005, -3.369314362999944 ], [ 102.387804202000041, -3.352564461999975 ], [ 102.422946642000056, -3.358548614999961 ], [ 102.442109072000051, -3.347076046999973 ], [ 102.449752725000053, -3.320741857999963 ], [ 102.488124043000084, -3.32668969499997 ], [ 102.496508473000063, -3.321588719999966 ], [ 102.500509670000042, -3.308687024999927 ], [ 102.486395489000074, -3.282566240999927 ], [ 102.498181724000062, -3.268765535999933 ] ] ] } },
{ "type": "Feature", "properties": { "kemendagri_kab_code": 1703, "kemendagri_kab_name": "Kabupaten Bengkulu Utara", "kemendagri_prov_code": 17, "kemendagri_prov_name": "Bengkulu" }, "geometry": { "type": "MultiPolygon", "coordinates": [ [ [ [ 102.387110119000056, -5.471919912999965 ], [ 102.384123895000073, -5.472479085999964 ], [ 102.386699662000069, -5.470974076999937 ], [ 102.387110119000056, -5.471919912999965 ] ] ], [ [ [ 102.217124939000087, -5.463342892999947 ], [ 102.229521931000079, -5.475073635999934 ], [ 102.214412354000046, -5.475097430999938 ], [ 102.217124939000087, -5.463342892999947 ] ] ], [ [ [ 102.372957204000045, -5.465807592999965 ], [ 102.373306984000067, -5.466310848999967 ], [ 102.372807298000055, -5.46604672899997 ], [ 102.372957204000045, -5.465807592999965 ] ] ], [ [ [ 102.387948078000079, -5.440773763999971 ], [ 102.392145448000065, -5.446079961999942 ], [ 102.38640618800008, -5.443024733999948 ], [ 102.387948078000079, -5.440773763999971 ] ] ], [ [ [ 102.147474269000043, -5.28251978399993 ], [ 102.219787874000076, -5.320214610999926 ], [ 102.25, -5.32538945999994 ], [ 102.283888914000045, -5.356373100999974 ], [ 102.326582272000053, -5.361665605999974 ], [ 102.381257876000063, -5.385920430999931 ], [ 102.38729094200005, -5.41537118399998 ], [ 102.374009351000041, -5.426344551999932 ], [ 102.367747998000084, -5.456439920999969 ], [ 102.346117329000037, -5.450534825999966 ], [ 102.339205194000044, -5.456254653999963 ], [ 102.375363856000035, -5.485493351999935 ], [ 102.360157669000046, -5.505188106999981 ], [ 102.34837929300005, -5.496387087999949 ], [ 102.322542708000071, -5.494504933999963 ], [ 102.312461687000052, -5.475607964999938 ], [ 102.302734608000037, -5.487580399999956 ], [ 102.280810809000059, -5.476829270999929 ], [ 102.269701701000088, -5.487807033999957 ], [ 102.27533801800007, -5.514358457999947 ], [ 102.265553674000046, -5.511193774999981 ], [ 102.247940436000079, -5.496407862999945 ], [ 102.252240671000038, -5.480948912999963 ], [ 102.243596403000083, -5.464205432999961 ], [ 102.228731911000068, -5.462911005999956 ], [ 102.202988522000055, -5.416587658999958 ], [ 102.193208937000065, -5.413375386999974 ], [ 102.187712382000086, -5.419630989999973 ], [ 102.167841503000034, -5.409902563999935 ], [ 102.161620105000054, -5.394470568999964 ], [ 102.088418516000047, -5.357395889999964 ], [ 102.086360282000044, -5.340397615999962 ], [ 102.09613644600006, -5.322746475999963 ], [ 102.135473695000087, -5.313152489999936 ], [ 102.135297377000086, -5.295406349999951 ], [ 102.147474269000043, -5.28251978399993 ] ] ], [ [ [ 101.054485175000082, -3.996673086999976 ], [ 101.036524838000048, -4.015957508999975 ], [ 101.032770214000038, -4.015060370999947 ], [ 101.049616798000045, -3.991783293999958 ], [ 101.054485175000082, -3.996673086999976 ] ] ], [ [ [ 102.112961590000054, -3.582576100999972 ], [ 102.112996859000077, -3.581973943999969 ], [ 102.113489617000084, -3.582115779999981 ], [ 102.112961590000054, -3.582576100999972 ] ] ], [ [ [ 101.926005276000069, -3.477303076999931 ], [ 101.925854834000063, -3.477017979999971 ], [ 101.926072866000084, -3.476791644999935 ], [ 101.926005276000069, -3.477303076999931 ] ] ], [ [ [ 101.860168411000075, -2.730572416999962 ], [ 101.906429856000045, -2.740289539999935 ], [ 101.919105702000081, -2.73559385599998 ], [ 101.926307674000043, -2.770331142999964 ], [ 101.941322331000038, -2.781665808999946 ], [ 101.966751099000078, -2.824541804999967 ], [ 102.019294742000056, -2.855935337999938 ], [ 102.04216004500006, -2.984064093999962 ], [ 102.066986092000036, -2.992073542999947 ], [ 102.096557627000038, -3.016859060999934 ], [ 102.106613164000066, -3.041911130999949 ], [ 102.141876211000067, -3.077397115999929 ], [ 102.142822260000059, -3.118509051999979 ], [ 102.133026114000074, -3.128030538999951 ], [ 102.136680613000067, -3.14419221199995 ], [ 102.127105723000057, -3.170422801999962 ], [ 102.145973206000065, -3.205790042999979 ], [ 102.166404733000036, -3.223880760999975 ], [ 102.191200245000061, -3.221105573999978 ], [ 102.236282352000046, -3.241073617999973 ], [ 102.250823984000078, -3.263490444999945 ], [ 102.291038507000053, -3.283766515999957 ], [ 102.296607970000082, -3.322799686999929 ], [ 102.275802617000068, -3.34278534799995 ], [ 102.27021026500006, -3.36493110899994 ], [ 102.374130247000039, -3.38129782599998 ], [ 102.369161111000039, -3.404022221999981 ], [ 102.389854946000071, -3.414274086999967 ], [ 102.403397222000081, -3.434230555999932 ], [ 102.416777778000039, -3.476166666999973 ], [ 102.390365189000079, -3.495600347999925 ], [ 102.369257968000056, -3.494707625999979 ], [ 102.330901764000032, -3.530019297999957 ], [ 102.260440813000059, -3.551522294999927 ], [ 102.258530514000086, -3.604917087999979 ], [ 102.242699566000056, -3.608001609999974 ], [ 102.244223712000064, -3.581784531999972 ], [ 102.233187638000061, -3.561827966999942 ], [ 102.210350513000037, -3.575679262999927 ], [ 102.199027088000037, -3.593018883999946 ], [ 102.212121852000053, -3.608251398999926 ], [ 102.206739930000083, -3.625566234999951 ], [ 102.215616619000059, -3.633088942999962 ], [ 102.199662660000058, -3.647428440999931 ], [ 102.08817437600004, -3.558453750999945 ], [ 101.927549943000088, -3.47907679399998 ], [ 101.92613171000005, -3.460069913999973 ], [ 101.911500614000033, -3.449080475999949 ], [ 101.906999829000085, -3.434459122999954 ], [ 101.792181996000068, -3.368903696999951 ], [ 101.622348102000046, -3.244798914999933 ], [ 101.531875323000065, -3.128626578999956 ], [ 101.574145826000063, -3.11069858299993 ], [ 101.579876144000082, -3.119378942999958 ], [ 101.58821438700005, -3.102484767999954 ], [ 101.609816657000067, -3.106032752999965 ], [ 101.620973911000078, -3.083343440999954 ], [ 101.634956360000047, -3.073849915999972 ], [ 101.676123569000083, -3.070734193999954 ], [ 101.693064932000084, -3.061853178999968 ], [ 101.700268728000083, -3.045134582999935 ], [ 101.724403392000056, -3.038259257999925 ], [ 101.761417900000083, -2.981999996999946 ], [ 101.78970337700008, -2.984381677999977 ], [ 101.784530645000075, -2.93760109599998 ], [ 101.80097354600008, -2.935249996999971 ], [ 101.810798645000034, -2.92002034199993 ], [ 101.806669980000038, -2.884215681999933 ], [ 101.861648560000049, -2.800903438999967 ], [ 101.866134641000087, -2.78668761299997 ], [ 101.857856751000043, -2.744857309999929 ], [ 101.860168411000075, -2.730572416999962 ] ] ] ] } },
{ "type": "Feature", "properties": { "kemendagri_kab_code": 1704, "kemendagri_kab_name": "Kabupaten Kaur", "kemendagri_prov_code": 17, "kemendagri_prov_name": "Bengkulu" }, "geometry": { "type": "Polygon", "coordinates": [ [ [ 103.29696636400007, -4.257008932999952 ], [ 103.311658057000045, -4.260757742999942 ], [ 103.322689947000072, -4.283598990999963 ], [ 103.345728153000039, -4.290338457999951 ], [ 103.371135688000038, -4.315687756999978 ], [ 103.409320772000058, -4.313586875999931 ], [ 103.442214987000057, -4.33013430699998 ], [ 103.448614491000058, -4.348410787999967 ], [ 103.467631617000052, -4.354756552999959 ], [ 103.435920947000056, -4.386491876999969 ], [ 103.439168664000078, -4.39547582199998 ], [ 103.424903724000046, -4.401350947999958 ], [ 103.430571519000068, -4.413592809999955 ], [ 103.426248600000065, -4.455771414999958 ], [ 103.420398177000038, -4.467383843999926 ], [ 103.412969862000068, -4.466508053999974 ], [ 103.408399802000076, -4.50401472599998 ], [ 103.420898343000033, -4.505951091999975 ], [ 103.422701753000069, -4.516791800999954 ], [ 103.487425246000043, -4.577946994999934 ], [ 103.527490901000078, -4.572205040999961 ], [ 103.571562360000087, -4.525150335999967 ], [ 103.593117670000083, -4.522880492999946 ], [ 103.619484442000044, -4.531332456999962 ], [ 103.63006265100006, -4.557530859999929 ], [ 103.598697385000037, -4.593418014999941 ], [ 103.62743327000004, -4.594610541999941 ], [ 103.661138945000062, -4.610391945999936 ], [ 103.66802014600006, -4.626462343999947 ], [ 103.686363281000069, -4.634697353999968 ], [ 103.685591509000062, -4.645735266999964 ], [ 103.702352377000068, -4.664360851999959 ], [ 103.704673243000059, -4.704077737999967 ], [ 103.668477053000061, -4.729010167999945 ], [ 103.701283102000048, -4.722998711999935 ], [ 103.735261194000088, -4.743930653999939 ], [ 103.763265524000076, -4.742340941999942 ], [ 103.790488045000075, -4.779014734999976 ], [ 103.766731637000078, -4.795003920999932 ], [ 103.73114115900006, -4.799254530999974 ], [ 103.69853388100006, -4.837024434999933 ], [ 103.668125743000076, -4.849310834999926 ], [ 103.649834284000065, -4.86969107699997 ], [ 103.637523022000039, -4.867525200999978 ], [ 103.626035866000052, -4.889813524999965 ], [ 103.612520260000053, -4.894321742999978 ], [ 103.603823822000038, -4.888838179999937 ], [ 103.598667602000035, -4.907265189999976 ], [ 103.590706375000082, -4.91037731199998 ], [ 103.595990404000077, -4.922387834999938 ], [ 103.532580831000075, -4.916669071999934 ], [ 103.522168523000062, -4.887406146999979 ], [ 103.469756533000066, -4.865280924999979 ], [ 103.443342262000044, -4.862092979999943 ], [ 103.423577391000038, -4.870738367999934 ], [ 103.406023444000084, -4.85638866499994 ], [ 103.414964018000035, -4.840431766999927 ], [ 103.40379474000008, -4.81840131499996 ], [ 103.373569728000064, -4.79800103599996 ], [ 103.351908945000048, -4.798465781999937 ], [ 103.344470905000037, -4.812230831999955 ], [ 103.327850069000078, -4.808176198999945 ], [ 103.309815021000077, -4.781874934999962 ], [ 103.320601527000065, -4.770601634999935 ], [ 103.319915070000036, -4.759412034999968 ], [ 103.295340698000075, -4.740721432999976 ], [ 103.283645983000042, -4.709387070999981 ], [ 103.257947905000037, -4.697162137999953 ], [ 103.24500983300004, -4.674657132999926 ], [ 103.154072382000038, -4.601871195999934 ], [ 103.070294664000073, -4.558923462999928 ], [ 103.086402744000054, -4.552110468999956 ], [ 103.080296353000051, -4.508601393999925 ], [ 103.12113331900008, -4.482241890999944 ], [ 103.167649673000085, -4.39930160199998 ], [ 103.201315161000082, -4.393330444999947 ], [ 103.200979561000054, -4.307661153999959 ], [ 103.21862113800006, -4.307407203999958 ], [ 103.237576872000034, -4.290868506999971 ], [ 103.279617973000086, -4.290513781999948 ], [ 103.284689941000067, -4.267977113999962 ], [ 103.29696636400007, -4.257008932999952 ] ] ] } },
{ "type": "Feature", "properties": { "kemendagri_kab_code": 1705, "kemendagri_kab_name": "Kabupaten Seluma", "kemendagri_prov_code": 17, "kemendagri_prov_name": "Bengkulu" }, "geometry": { "type": "Polygon", "coordinates": [ [ [ 102.620333333000076, -3.8022 ], [ 102.669746269000086, -3.825961477999954 ], [ 102.685179929000071, -3.847325468999941 ], [ 102.683607105000078, -3.861209623999969 ], [ 102.701221529000065, -3.85473576399994 ], [ 102.733264571000063, -3.88722983599996 ], [ 102.749013561000083, -3.891231625999978 ], [ 102.752942438000048, -3.906411187999936 ], [ 102.770051767000041, -3.91018145399994 ], [ 102.779385539000032, -3.94085227599993 ], [ 102.792859582000062, -3.960090187999981 ], [ 102.817187180000076, -3.967501111999979 ], [ 102.817070597000054, -3.978649983999958 ], [ 102.845354766000071, -3.977203648999932 ], [ 102.861493396000071, -3.992852515999971 ], [ 102.867241533000083, -3.986526 ], [ 102.887221074000081, -3.98864371999997 ], [ 102.895311241000059, -3.975556684999958 ], [ 102.91190798100007, -3.96960803199994 ], [ 102.961110344000076, -4.019724561999965 ], [ 102.99787692600006, -4.019161031999943 ], [ 102.980641578000075, -4.041968779999934 ], [ 102.95842009100005, -4.054651977999924 ], [ 102.930751722000082, -4.048180455999955 ], [ 102.914098426000066, -4.06234085899996 ], [ 102.922038384000075, -4.076302501999976 ], [ 102.919638961000032, -4.096593128999928 ], [ 102.970481188000065, -4.124046475999933 ], [ 103.002707500000042, -4.160492221999959 ], [ 102.987285375000056, -4.168248150999943 ], [ 102.960219247000055, -4.164840512999945 ], [ 102.941502513000046, -4.18252019199997 ], [ 102.900419225000064, -4.178532064999956 ], [ 102.901302189000035, -4.19657835199996 ], [ 102.891222731000084, -4.203428432999942 ], [ 102.881082886000058, -4.241495032999978 ], [ 102.907953406000047, -4.241551657999935 ], [ 102.918245831000036, -4.256116470999928 ], [ 102.88560543300008, -4.263024536999978 ], [ 102.862267522000081, -4.282350469999926 ], [ 102.842981344000066, -4.344587870999931 ], [ 102.826805556000068, -4.319777777999946 ], [ 102.81259048700008, -4.323625823999976 ], [ 102.796455914000035, -4.35394344599996 ], [ 102.743322857000067, -4.321742090999976 ], [ 102.696306605000075, -4.275016272999949 ], [ 102.300630355000067, -3.982064442999956 ], [ 102.301711100000034, -3.9529 ], [ 102.317058300000042, -3.911425 ], [ 102.332027800000049, -3.904136110999957 ], [ 102.346863900000073, -3.913291666999953 ], [ 102.342008300000032, -3.900716666999926 ], [ 102.34808060000006, -3.886944443999937 ], [ 102.364806065000039, -3.884273767999957 ], [ 102.359669108000048, -3.876772373999927 ], [ 102.370162234000077, -3.873601754999925 ], [ 102.368616445000043, -3.857208029999981 ], [ 102.391341342000032, -3.854159042999925 ], [ 102.391875783000046, -3.870277810999937 ], [ 102.407133313000088, -3.871393573999967 ], [ 102.462933308000061, -3.843662617999939 ], [ 102.48850980800006, -3.860121416999959 ], [ 102.509810392000077, -3.83713989499995 ], [ 102.532454327000039, -3.829047546999959 ], [ 102.553256022000085, -3.832982725999955 ], [ 102.563441298000043, -3.808245064999937 ], [ 102.574064815000042, -3.803659124999967 ], [ 102.605954862000033, -3.811166189999938 ], [ 102.620333333000076, -3.8022 ] ] ] } },
{ "type": "Feature", "properties": { "kemendagri_kab_code": 1706, "kemendagri_kab_name": "Kabupaten Mukomuko", "kemendagri_prov_code": 17, "kemendagri_prov_name": "Bengkulu" }, "geometry": { "type": "Polygon", "coordinates": [ [ [ 101.361678561000076, -2.328854964999948 ], [ 101.38741015100004, -2.336439011999971 ], [ 101.369993928000042, -2.347300451999956 ], [ 101.378661410000063, -2.355209529999968 ], [ 101.405638951000071, -2.356726338999977 ], [ 101.498408103000088, -2.419917705999978 ], [ 101.556317722000074, -2.44911628899996 ], [ 101.560732721000079, -2.458948464999935 ], [ 101.540120364000074, -2.549929948999932 ], [ 101.542016376000049, -2.571381967999969 ], [ 101.56433514400004, -2.570623563999959 ], [ 101.568804315000079, -2.547790163999935 ], [ 101.59052719400006, -2.544214826999962 ], [ 101.590825138000071, -2.531294859999946 ], [ 101.604151393000052, -2.535845288999951 ], [ 101.609676913000044, -2.549875776999954 ], [ 101.646974175000082, -2.53809341699997 ], [ 101.655668744000081, -2.526202713999965 ], [ 101.670024263000073, -2.528315412999973 ], [ 101.735219985000072, -2.610629413999959 ], [ 101.748681669000064, -2.616073676999974 ], [ 101.773113136000063, -2.64911845499995 ], [ 101.813308588000041, -2.675716792999935 ], [ 101.812116809000088, -2.692022494999947 ], [ 101.84583873400004, -2.703425651999964 ], [ 101.86036258300004, -2.73099999599998 ], [ 101.865829470000051, -2.789531469999929 ], [ 101.83647919100008, -2.847332242999926 ], [ 101.806669980000038, -2.884215681999933 ], [ 101.810798645000034, -2.92002034199993 ], [ 101.80097354600008, -2.935249996999971 ], [ 101.784530645000075, -2.93760109599998 ], [ 101.790809633000038, -2.982956409999929 ], [ 101.761417900000083, -2.981999996999946 ], [ 101.717612279000036, -3.044706258999952 ], [ 101.700268728000083, -3.045134582999935 ], [ 101.693064932000084, -3.061853178999968 ], [ 101.676123569000083, -3.070734193999954 ], [ 101.634956360000047, -3.073849915999972 ], [ 101.620973911000078, -3.083343440999954 ], [ 101.609816657000067, -3.106032752999965 ], [ 101.58821438700005, -3.102484767999954 ], [ 101.579876144000082, -3.119378942999958 ], [ 101.574145826000063, -3.11069858299993 ], [ 101.531875323000065, -3.128626578999956 ], [ 101.52437817100008, -3.119541620999939 ], [ 101.524042228000042, -3.095863575999942 ], [ 101.488416688000086, -3.052314465999928 ], [ 101.480546077000042, -3.012100913999973 ], [ 101.399797015000047, -2.922183488999963 ], [ 101.32185710400006, -2.737447952999958 ], [ 101.259782596000036, -2.690504696999938 ], [ 101.142325380000045, -2.628549236999959 ], [ 101.022391691000053, -2.478443519999928 ], [ 101.146777714000052, -2.388811111999928 ], [ 101.201305324000032, -2.367095111999959 ], [ 101.26072686100008, -2.319710847999943 ], [ 101.266175437000072, -2.299939786999971 ], [ 101.277613234000057, -2.291385104999961 ], [ 101.301412470000059, -2.289932549999946 ], [ 101.361678561000076, -2.328854964999948 ] ] ] } },
{ "type": "Feature", "properties": { "kemendagri_kab_code": 1707, "kemendagri_kab_name": "Kabupaten Lebong", "kemendagri_prov_code": 17, "kemendagri_prov_name": "Bengkulu" }, "geometry": { "type": "Polygon", "coordinates": [ [ [ 102.063888894000058, -2.768519443999935 ], [ 102.073429601000043, -2.794944692999934 ], [ 102.092466784000067, -2.810922133999952 ], [ 102.113463433000049, -2.814217472999928 ], [ 102.129366173000051, -2.834821506999958 ], [ 102.131340320000049, -2.874817338999947 ], [ 102.22201337100006, -2.927736580999976 ], [ 102.242890484000043, -3.019540497999969 ], [ 102.253826004000075, -3.035515995999958 ], [ 102.287087399000086, -3.040468725999972 ], [ 102.317605842000034, -3.069936169999949 ], [ 102.389203640000062, -3.043026132999955 ], [ 102.408299861000046, -3.054693928999939 ], [ 102.442258364000054, -3.058649670999955 ], [ 102.470879590000038, -3.086983865999969 ], [ 102.486528715000077, -3.109910083999978 ], [ 102.491371656000069, -3.13903311599995 ], [ 102.486719960000073, -3.156963942999937 ], [ 102.49390509400007, -3.169066574999931 ], [ 102.485407348000081, -3.204829011999948 ], [ 102.490427143000034, -3.217211938999981 ], [ 102.484322363000047, -3.228203593999979 ], [ 102.493145018000064, -3.239446921999956 ], [ 102.484237624000059, -3.25447326799997 ], [ 102.494321232000061, -3.266807570999958 ], [ 102.48659019300004, -3.28924223599995 ], [ 102.500509670000042, -3.308687024999927 ], [ 102.496508473000063, -3.321588719999966 ], [ 102.488124043000084, -3.32668969499997 ], [ 102.449752725000053, -3.320741857999963 ], [ 102.442109072000051, -3.347076046999973 ], [ 102.422946642000056, -3.358548614999961 ], [ 102.384233355000049, -3.355141776999972 ], [ 102.38758542000005, -3.369314362999944 ], [ 102.375183100000072, -3.383522267999979 ], [ 102.27021026500006, -3.36493110899994 ], [ 102.275802617000068, -3.34278534799995 ], [ 102.296607970000082, -3.322799686999929 ], [ 102.291038507000053, -3.283766515999957 ], [ 102.250823984000078, -3.263490444999945 ], [ 102.236282352000046, -3.241073617999973 ], [ 102.191200245000061, -3.221105573999978 ], [ 102.166404733000036, -3.223880760999975 ], [ 102.145973206000065, -3.205790042999979 ], [ 102.127105723000057, -3.170422801999962 ], [ 102.136680613000067, -3.14419221199995 ], [ 102.133026114000074, -3.128030538999951 ], [ 102.143623345000037, -3.112941730999978 ], [ 102.137413028000083, -3.065980675999981 ], [ 102.106613164000066, -3.041911130999949 ], [ 102.10142516500008, -3.021779539999955 ], [ 102.077751154000055, -3.00001789199996 ], [ 102.04216004500006, -2.984064093999962 ], [ 102.019294742000056, -2.855935337999938 ], [ 101.966751099000078, -2.824541804999967 ], [ 101.941322331000038, -2.781665808999946 ], [ 101.926307674000043, -2.770331142999964 ], [ 101.919105702000081, -2.73559385599998 ], [ 101.953775981000035, -2.730701136999926 ], [ 101.964014445000032, -2.721816966999938 ], [ 101.996923794000054, -2.724065095999947 ], [ 102.027937131000044, -2.75502426099996 ], [ 102.063888894000058, -2.768519443999935 ] ] ] } },
{ "type": "Feature", "properties": { "kemendagri_kab_code": 1708, "kemendagri_kab_name": "Kabupaten Kepahiang", "kemendagri_prov_code": 17, "kemendagri_prov_name": "Bengkulu" }, "geometry": { "type": "Polygon", "coordinates": [ [ [ 102.628205214000047, -3.516432459999976 ], [ 102.654961434000086, -3.540653651999946 ], [ 102.722202222000078, -3.552649721999956 ], [ 102.751255038000068, -3.543099091999977 ], [ 102.774466613000072, -3.547133063999979 ], [ 102.810213707000059, -3.529921616999957 ], [ 102.812547, -3.546233 ], [ 102.794696, -3.581666 ], [ 102.807779930000038, -3.612818731999937 ], [ 102.790010707000079, -3.66017340999997 ], [ 102.773921284000039, -3.675730771999952 ], [ 102.778059796000036, -3.686994905999939 ], [ 102.769646748000071, -3.709493165999959 ], [ 102.734475040000063, -3.717416554999943 ], [ 102.734378112000059, -3.746264022999981 ], [ 102.702816139000049, -3.756926668999938 ], [ 102.696788963000074, -3.769905643999948 ], [ 102.69273210700004, -3.758356209999931 ], [ 102.658096736000061, -3.77166660499995 ], [ 102.641235766000079, -3.793556027999955 ], [ 102.620333333000076, -3.8022 ], [ 102.598357222000061, -3.76652973299997 ], [ 102.596994178000045, -3.747953657999972 ], [ 102.582970007000085, -3.745362094999962 ], [ 102.579847967000035, -3.704198960999975 ], [ 102.573489671000061, -3.698886641999934 ], [ 102.57785602000007, -3.683398525999962 ], [ 102.55148775400005, -3.67672768999995 ], [ 102.544574061000048, -3.660331983999924 ], [ 102.528194795000047, -3.656145953999953 ], [ 102.528843916000085, -3.642901251999945 ], [ 102.512749923000058, -3.620795898999972 ], [ 102.513568097000075, -3.592830358999947 ], [ 102.491182623000043, -3.575419818999933 ], [ 102.478637543000048, -3.552647763999971 ], [ 102.433091592000039, -3.546483355999953 ], [ 102.450001258000043, -3.525739613999974 ], [ 102.49687917600005, -3.513638553999954 ], [ 102.500656551000077, -3.497175463999952 ], [ 102.529582900000037, -3.494193204999931 ], [ 102.594411415000081, -3.525655754999946 ], [ 102.628205214000047, -3.516432459999976 ] ] ] } },
{ "type": "Feature", "properties": { "kemendagri_kab_code": 1709, "kemendagri_kab_name": "Kabupaten Bengkulu Tengah", "kemendagri_prov_code": 17, "kemendagri_prov_name": "Bengkulu" }, "geometry": { "type": "Polygon", "coordinates": [ [ [ 102.416777778000039, -3.476166666999973 ], [ 102.429344182000079, -3.51081848299998 ], [ 102.424527778000083, -3.524055555999951 ], [ 102.446442686000069, -3.529069708999941 ], [ 102.433718205000048, -3.549057825999967 ], [ 102.483200381000074, -3.556598420999933 ], [ 102.491182623000043, -3.575419818999933 ], [ 102.513568097000075, -3.592830358999947 ], [ 102.512749923000058, -3.620795898999972 ], [ 102.528843916000085, -3.642901251999945 ], [ 102.528194795000047, -3.656145953999953 ], [ 102.544574061000048, -3.660331983999924 ], [ 102.55148775400005, -3.67672768999995 ], [ 102.57785602000007, -3.683398525999962 ], [ 102.573489671000061, -3.698886641999934 ], [ 102.579847967000035, -3.704198960999975 ], [ 102.582970007000085, -3.745362094999962 ], [ 102.596994178000045, -3.747953657999972 ], [ 102.598357222000061, -3.76652973299997 ], [ 102.620333333000076, -3.8022 ], [ 102.605954862000033, -3.811166189999938 ], [ 102.574064815000042, -3.803659124999967 ], [ 102.563441298000043, -3.808245064999937 ], [ 102.553256022000085, -3.832982725999955 ], [ 102.532454327000039, -3.829047546999959 ], [ 102.509810392000077, -3.83713989499995 ], [ 102.490131217000055, -3.851349010999968 ], [ 102.489297552000039, -3.859931682999957 ], [ 102.462077349000083, -3.843688894999957 ], [ 102.414793715000087, -3.869211862999975 ], [ 102.393717867000078, -3.870909854999979 ], [ 102.391519950000088, -3.854236655999955 ], [ 102.361675990000037, -3.855111106999971 ], [ 102.349323224000045, -3.824308499999972 ], [ 102.354177279000055, -3.812665011999968 ], [ 102.332361690000084, -3.79763113599995 ], [ 102.334975191000069, -3.785083708999935 ], [ 102.324943156000074, -3.780960686999947 ], [ 102.33136653400004, -3.78029685599995 ], [ 102.329750545000081, -3.773405657999945 ], [ 102.314693610000063, -3.774595615999942 ], [ 102.298615687000051, -3.741051389999939 ], [ 102.27067382000007, -3.74338255899994 ], [ 102.257600686000046, -3.755732397999964 ], [ 102.232905272000039, -3.715254631999926 ], [ 102.244785787000069, -3.707332516999941 ], [ 102.23829876800005, -3.684076239999968 ], [ 102.199547701000085, -3.647729497999933 ], [ 102.215616619000059, -3.633088942999962 ], [ 102.206739930000083, -3.625566234999951 ], [ 102.212121852000053, -3.608251398999926 ], [ 102.199027088000037, -3.593018883999946 ], [ 102.210350513000037, -3.575679262999927 ], [ 102.233187638000061, -3.561827966999942 ], [ 102.244223712000064, -3.581784531999972 ], [ 102.242699566000056, -3.608001609999974 ], [ 102.258530514000086, -3.604917087999979 ], [ 102.263866933000088, -3.54910530899997 ], [ 102.330901764000032, -3.530019297999957 ], [ 102.369257968000056, -3.494707625999979 ], [ 102.390365189000079, -3.495600347999925 ], [ 102.416777778000039, -3.476166666999973 ] ] ] } },
{ "type": "Feature", "properties": { "kemendagri_kab_code": 1771, "kemendagri_kab_name": "Kota Bengkulu", "kemendagri_prov_code": 17, "kemendagri_prov_name": "Bengkulu" }, "geometry": { "type": "MultiPolygon", "coordinates": [ [ [ [ 102.29238808000008, -3.740377562999925 ], [ 102.314693610000063, -3.774595615999942 ], [ 102.329750545000081, -3.773405657999945 ], [ 102.33136653400004, -3.78029685599995 ], [ 102.324943156000074, -3.780960686999947 ], [ 102.334975191000069, -3.785083708999935 ], [ 102.332361690000084, -3.79763113599995 ], [ 102.354177279000055, -3.812665011999968 ], [ 102.350554435000049, -3.828214171999946 ], [ 102.361675990000037, -3.855111106999971 ], [ 102.371339722000073, -3.856461666999962 ], [ 102.370162234000077, -3.873601754999925 ], [ 102.359669108000048, -3.876772373999927 ], [ 102.363016921000053, -3.88712159499994 ], [ 102.353372200000081, -3.883327777999966 ], [ 102.342008300000032, -3.900716666999926 ], [ 102.346863900000073, -3.913291666999953 ], [ 102.332027800000049, -3.904136110999957 ], [ 102.317058300000042, -3.911425 ], [ 102.301711100000034, -3.9529 ], [ 102.300630355000067, -3.982064442999956 ], [ 102.279446030000088, -3.961508887999969 ], [ 102.278619611000067, -3.938743271999954 ], [ 102.265647031000071, -3.915389895999965 ], [ 102.276339019000034, -3.898790762999965 ], [ 102.281792757000062, -3.908182219999958 ], [ 102.274045492000084, -3.913359077999928 ], [ 102.283373998000059, -3.923973230999934 ], [ 102.300549338000053, -3.918146855999964 ], [ 102.307208985000045, -3.890814209999974 ], [ 102.28531692100006, -3.906013771999937 ], [ 102.278751311000065, -3.898277827999948 ], [ 102.286762003000035, -3.902524099999937 ], [ 102.301547835000065, -3.889597725999977 ], [ 102.301909126000055, -3.866504108999948 ], [ 102.29090055100005, -3.838819078999961 ], [ 102.246955192000087, -3.788365220999935 ], [ 102.261051231000067, -3.781092620999971 ], [ 102.26101661000007, -3.750608911999961 ], [ 102.29238808000008, -3.740377562999925 ] ] ], [ [ [ 102.180072454000083, -3.838004212999977 ], [ 102.179272956000034, -3.838161257999957 ], [ 102.179277715000069, -3.837642534999929 ], [ 102.180072454000083, -3.838004212999977 ] ] ] ] } }
]
}
