{
"type": "FeatureCollection",
"name": "31",
"crs": { "type": "name", "properties": { "name": "urn:ogc:def:crs:OGC:1.3:CRS84" } },
"features": [
{ "type": "Feature", "properties": { "kemendagri_kab_code": 3101, "kemendagri_kab_name": "Kabupaten Administrasi Kepulauan Seribu", "kemendagri_prov_code": 31, "kemendagri_prov_name": "Dki Jakarta" }, "geometry": { "type": "MultiPolygon", "coordinates": [ [ [ [ 106.522760672000061, -5.95560949999998 ], [ 106.519379826000034, -5.956933785999979 ], [ 106.520903721000082, -5.954199833999951 ], [ 106.522760672000061, -5.95560949999998 ] ] ], [ [ [ 106.516141770000047, -5.802496994999956 ], [ 106.530088749000072, -5.804139315999976 ], [ 106.521908519000078, -5.805716168999936 ], [ 106.516141770000047, -5.802496994999956 ] ] ], [ [ [ 106.53601158400005, -5.803433837999933 ], [ 106.535761836000063, -5.804448820999937 ], [ 106.535946863000049, -5.803395766999927 ], [ 106.53601158400005, -5.803433837999933 ] ] ], [ [ [ 106.499610733000054, -5.800407996999979 ], [ 106.498906412000053, -5.799703676999968 ], [ 106.500693387000069, -5.800783951999961 ], [ 106.499610733000054, -5.800407996999979 ] ] ], [ [ [ 106.478442180000059, -5.793376068999976 ], [ 106.500392386000044, -5.795778111999937 ], [ 106.511598702000072, -5.803026758999977 ], [ 106.478442180000059, -5.793376068999976 ] ] ], [ [ [ 106.534807731000058, -5.699295110999969 ], [ 106.54057909800008, -5.701865806999933 ], [ 106.533853926000063, -5.700349820999975 ], [ 106.534807731000058, -5.699295110999969 ] ] ], [ [ [ 106.532587174000071, -5.690287767999962 ], [ 106.531437894000078, -5.689581067999939 ], [ 106.532658558000037, -5.689516822999963 ], [ 106.532587174000071, -5.690287767999962 ] ] ], [ [ [ 106.546667223000043, -5.604595929999959 ], [ 106.542831532000037, -5.605795178999927 ], [ 106.546658275000084, -5.603809622999961 ], [ 106.546667223000043, -5.604595929999959 ] ] ], [ [ [ 106.543088473000068, -5.59109121399996 ], [ 106.543402013000048, -5.59267493599998 ], [ 106.541595034000068, -5.59224543299996 ], [ 106.543088473000068, -5.59109121399996 ] ] ], [ [ [ 106.541516598000044, -5.574312895999981 ], [ 106.541159679000089, -5.571160109999937 ], [ 106.543293532000064, -5.571213397999941 ], [ 106.541516598000044, -5.574312895999981 ] ] ], [ [ [ 106.52537869300005, -5.568653759999961 ], [ 106.529447892000064, -5.568086988999937 ], [ 106.528371186000072, -5.570490244999974 ], [ 106.52537869300005, -5.568653759999961 ] ] ], [ [ [ 106.526221978000081, -5.55667961499995 ], [ 106.527740128000062, -5.557661068999948 ], [ 106.525529555000048, -5.55793596999996 ], [ 106.526221978000081, -5.55667961499995 ] ] ], [ [ [ 106.531179585000075, -5.554590447999942 ], [ 106.531710338000039, -5.556332139999938 ], [ 106.530537130000084, -5.556184686999927 ], [ 106.531179585000075, -5.554590447999942 ] ] ], [ [ [ 106.540898255000059, -5.552686799999947 ], [ 106.543456167000045, -5.555036898999958 ], [ 106.540556009000056, -5.55490525099998 ], [ 106.540898255000059, -5.552686799999947 ] ] ], [ [ [ 106.520726990000071, -5.550318224999955 ], [ 106.518231643000036, -5.55015624899994 ], [ 106.520763389000081, -5.548809473999938 ], [ 106.520726990000071, -5.550318224999955 ] ] ], [ [ [ 106.529478605000065, -5.54908980099998 ], [ 106.527450627000064, -5.550720353999964 ], [ 106.526415725000049, -5.550154834999944 ], [ 106.529478605000065, -5.54908980099998 ] ] ], [ [ [ 106.535890257000062, -5.536029903999975 ], [ 106.529786913000066, -5.53765855599994 ], [ 106.536346069000047, -5.534685879999927 ], [ 106.535890257000062, -5.536029903999975 ] ] ], [ [ [ 106.541110795000066, -5.52833789999994 ], [ 106.540239912000061, -5.531788117999952 ], [ 106.539299872000072, -5.531716094999979 ], [ 106.541110795000066, -5.52833789999994 ] ] ], [ [ [ 106.525822231000063, -5.523192703999939 ], [ 106.525422481000078, -5.521032152999965 ], [ 106.526547893000043, -5.521671347999927 ], [ 106.525822231000063, -5.523192703999939 ] ] ], [ [ [ 106.520416571000055, -5.516667258999973 ], [ 106.520975745000044, -5.51617946999994 ], [ 106.520606928000063, -5.516940895999937 ], [ 106.520416571000055, -5.516667258999973 ] ] ], [ [ [ 106.527851911000084, -5.514575485999956 ], [ 106.527797183000075, -5.512445867999929 ], [ 106.529116854000051, -5.513604555999962 ], [ 106.527851911000084, -5.514575485999956 ] ] ], [ [ [ 106.536710644000038, -5.513921133999929 ], [ 106.533272323000062, -5.51257673899994 ], [ 106.53840544600007, -5.511368251999954 ], [ 106.536710644000038, -5.513921133999929 ] ] ], [ [ [ 106.534014, -5.503613794999978 ], [ 106.533006657000044, -5.501399678999974 ], [ 106.535043476000055, -5.502598927999941 ], [ 106.534014, -5.503613794999978 ] ] ], [ [ [ 106.394968, -5.477544 ], [ 106.392052350000085, -5.481003765999958 ], [ 106.390590409000083, -5.478713772999981 ], [ 106.394968, -5.477544 ] ] ], [ [ [ 106.522557756000083, -5.479487588999973 ], [ 106.527227448000076, -5.47604926799994 ], [ 106.527444779000064, -5.476055192999979 ], [ 106.522557756000083, -5.479487588999973 ] ] ], [ [ [ 106.438204673000087, -5.465260791999981 ], [ 106.438718637000079, -5.464561229999958 ], [ 106.439004172000068, -5.465089470999942 ], [ 106.438204673000087, -5.465260791999981 ] ] ], [ [ [ 106.491727156000081, -5.423036199999956 ], [ 106.490950336000083, -5.418778749999944 ], [ 106.494578863000072, -5.419161113999962 ], [ 106.491727156000081, -5.423036199999956 ] ] ], [ [ [ 106.470996025000034, -5.415677582999933 ], [ 106.471935912000049, -5.412132185999951 ], [ 106.473304103000032, -5.412846024999965 ], [ 106.470996025000034, -5.415677582999933 ] ] ], [ [ [ 106.460360644000048, -5.208377036999934 ], [ 106.460366592000071, -5.20643182799995 ], [ 106.460628333000045, -5.207038589999968 ], [ 106.460545052000043, -5.207996322999975 ], [ 106.460360644000048, -5.208377036999934 ] ] ], [ [ [ 106.548341119000042, -5.819986889999939 ], [ 106.55800767900007, -5.820629344999929 ], [ 106.55598513700005, -5.824428748999935 ], [ 106.548341119000042, -5.819986889999939 ] ] ], [ [ [ 106.550016274000086, -5.814379533999954 ], [ 106.549480732000063, -5.814118271999973 ], [ 106.550269008000043, -5.814183944999968 ], [ 106.550016274000086, -5.814379533999954 ] ] ], [ [ [ 106.55236476400006, -5.770264370999939 ], [ 106.554806091000046, -5.77138937999996 ], [ 106.553969472000063, -5.772014702999968 ], [ 106.55236476400006, -5.770264370999939 ] ] ], [ [ [ 106.560117863000073, -5.771792031999951 ], [ 106.560189661000038, -5.769677285999933 ], [ 106.561349661000065, -5.76948228599997 ], [ 106.560117863000073, -5.771792031999951 ] ] ], [ [ [ 106.565391430000034, -5.710687768999946 ], [ 106.566081474000043, -5.71093523299993 ], [ 106.565324805000046, -5.710873366999976 ], [ 106.565391430000034, -5.710687768999946 ] ] ], [ [ [ 106.561695733000079, -5.685851583999977 ], [ 106.562883095000075, -5.684823857999959 ], [ 106.561636257000089, -5.686175391999939 ], [ 106.561695733000079, -5.685851583999977 ] ] ], [ [ [ 106.560009470000068, -5.66954820199993 ], [ 106.559928240000033, -5.668850739999925 ], [ 106.560968559000059, -5.669090019999942 ], [ 106.560009470000068, -5.66954820199993 ] ] ], [ [ [ 106.569444422000061, -5.648629 ], [ 106.567643111000052, -5.650297512999941 ], [ 106.564078737000045, -5.648795562999965 ], [ 106.569444422000061, -5.648629 ] ] ], [ [ [ 106.567438933000062, -5.643374753999979 ], [ 106.557955591000052, -5.64658107799994 ], [ 106.553246638000076, -5.647263982999959 ], [ 106.560709817000088, -5.643084459999955 ], [ 106.567438933000062, -5.643374753999979 ] ] ], [ [ [ 106.555603265000059, -5.642351183999949 ], [ 106.555794810000066, -5.641567641999927 ], [ 106.555781953000064, -5.642500896999934 ], [ 106.555603265000059, -5.642351183999949 ] ] ], [ [ [ 106.544576073000087, -5.623569276999945 ], [ 106.548041686000033, -5.624649227999953 ], [ 106.543630165000081, -5.624235201999966 ], [ 106.544576073000087, -5.623569276999945 ] ] ], [ [ [ 106.561530850000054, -5.619822491999969 ], [ 106.561231038000074, -5.620750481999949 ], [ 106.560763474000055, -5.620261501999948 ], [ 106.561530850000054, -5.619822491999969 ] ] ], [ [ [ 106.550681374000078, -5.620552119999957 ], [ 106.553602162000061, -5.614448802999959 ], [ 106.556401922000077, -5.615891621999936 ], [ 106.550681374000078, -5.620552119999957 ] ] ], [ [ [ 106.567534552000041, -5.607743242999959 ], [ 106.567033564000042, -5.606919972999947 ], [ 106.568067552000059, -5.606239423999966 ], [ 106.567534552000041, -5.607743242999959 ] ] ], [ [ [ 106.548767747000056, -5.59887030699997 ], [ 106.549743326000055, -5.598237369999936 ], [ 106.549867057000085, -5.598846511999966 ], [ 106.548767747000056, -5.59887030699997 ] ] ], [ [ [ 106.552767620000054, -5.598582391999969 ], [ 106.552421409000033, -5.59811482799995 ], [ 106.552781897000045, -5.597882829999946 ], [ 106.552767620000054, -5.598582391999969 ] ] ], [ [ [ 106.556635434000043, -5.595540250999932 ], [ 106.559800719000066, -5.595324079999955 ], [ 106.557135722000055, -5.596061712999926 ], [ 106.556635434000043, -5.595540250999932 ] ] ], [ [ [ 106.558126382000069, -5.590008825999973 ], [ 106.558208473000036, -5.591008199999976 ], [ 106.557301899000038, -5.590487097999926 ], [ 106.558126382000069, -5.590008825999973 ] ] ], [ [ [ 106.555257704000041, -5.589030629999968 ], [ 106.551515277000078, -5.590915097999925 ], [ 106.550899721000064, -5.589851543999941 ], [ 106.555257704000041, -5.589030629999968 ] ] ], [ [ [ 106.544923012000083, -5.586514885999975 ], [ 106.546450942000035, -5.588684883999974 ], [ 106.544199753000044, -5.586982389999946 ], [ 106.544923012000083, -5.586514885999975 ] ] ], [ [ [ 106.552018026000042, -5.584420565999949 ], [ 106.551650399000039, -5.584042231999945 ], [ 106.552225039000064, -5.584002970999961 ], [ 106.552018026000042, -5.584420565999949 ] ] ], [ [ [ 106.549857798000062, -5.582810486999961 ], [ 106.547306778000063, -5.580225915999961 ], [ 106.550923559000069, -5.577306793999981 ], [ 106.549857798000062, -5.582810486999961 ] ] ], [ [ [ 106.559048625000059, -5.572798507999948 ], [ 106.555669790000081, -5.571456491999925 ], [ 106.559805361000087, -5.57187240199994 ], [ 106.559048625000059, -5.572798507999948 ] ] ], [ [ [ 106.551064398000051, -5.570640512999944 ], [ 106.549646239000083, -5.569650656999954 ], [ 106.55147366500006, -5.569355603999952 ], [ 106.551064398000051, -5.570640512999944 ] ] ], [ [ [ 106.566467144000057, -5.56680006299996 ], [ 106.565358316000072, -5.567009454999948 ], [ 106.565805654000087, -5.566100500999937 ], [ 106.566467144000057, -5.56680006299996 ] ] ], [ [ [ 106.546745371000043, -5.499569914999938 ], [ 106.557246957000075, -5.50115316199998 ], [ 106.542668221000042, -5.504946027999949 ], [ 106.546745371000043, -5.499569914999938 ] ] ], [ [ [ 106.553621571000065, -5.461380993999967 ], [ 106.556330635000052, -5.464966927999967 ], [ 106.552952402000074, -5.464667542999962 ], [ 106.553621571000065, -5.461380993999967 ] ] ], [ [ [ 106.545631483000079, -5.463811459999931 ], [ 106.545461382000042, -5.462561775999973 ], [ 106.546166054000082, -5.46307668399993 ], [ 106.545631483000079, -5.463811459999931 ] ] ], [ [ [ 106.564373214000057, -5.452891163999936 ], [ 106.564801517000035, -5.452358164999964 ], [ 106.564839588000041, -5.452462860999958 ], [ 106.564373214000057, -5.452891163999936 ] ] ], [ [ [ 106.592254979000074, -5.93466488699994 ], [ 106.595266025000058, -5.940730960999929 ], [ 106.59063083500007, -5.935886377999964 ], [ 106.592254979000074, -5.93466488699994 ] ] ], [ [ [ 106.581901228000049, -5.926126554999939 ], [ 106.589660015000049, -5.932507543999975 ], [ 106.587746928000058, -5.935048807999976 ], [ 106.581901228000049, -5.926126554999939 ] ] ], [ [ [ 106.582336320000081, -5.862012136999965 ], [ 106.58243625700004, -5.862668867999957 ], [ 106.581781171000046, -5.862211771999966 ], [ 106.582336320000081, -5.862012136999965 ] ] ], [ [ [ 106.583602115000076, -5.765074237999954 ], [ 106.58197789500008, -5.763742691999937 ], [ 106.58399765200005, -5.760388982999928 ], [ 106.583602115000076, -5.765074237999954 ] ] ], [ [ [ 106.581511825000064, -5.764499484999931 ], [ 106.581949918000078, -5.76163362799997 ], [ 106.582899119000047, -5.76000903399995 ], [ 106.581511825000064, -5.764499484999931 ] ] ], [ [ [ 106.586370001000034, -5.759475499999951 ], [ 106.587185980000072, -5.758158192999929 ], [ 106.58637772600008, -5.759589600999959 ], [ 106.586370001000034, -5.759475499999951 ] ] ], [ [ [ 106.583959453000034, -5.757588455999951 ], [ 106.585638660000086, -5.759699040999976 ], [ 106.583672322000041, -5.759983150999972 ], [ 106.583649281000078, -5.758336915999962 ], [ 106.583959453000034, -5.757588455999951 ] ] ], [ [ [ 106.582852590000073, -5.757713042999967 ], [ 106.583169892000058, -5.758046479999962 ], [ 106.582952414000033, -5.758433125999943 ], [ 106.582852590000073, -5.757713042999967 ] ] ], [ [ [ 106.570719299000075, -5.729812549999963 ], [ 106.571955521000064, -5.729792428999929 ], [ 106.570281064000085, -5.730220763999966 ], [ 106.570719299000075, -5.729812549999963 ] ] ], [ [ [ 106.576428860000078, -5.70898286299996 ], [ 106.576023502000055, -5.707785041999955 ], [ 106.576201126000058, -5.707700652999961 ], [ 106.576428860000078, -5.70898286299996 ] ] ], [ [ [ 106.588336854000033, -5.679381486999944 ], [ 106.586430155000073, -5.679180257999974 ], [ 106.588781536000056, -5.678958669999929 ], [ 106.588336854000033, -5.679381486999944 ] ] ], [ [ [ 106.580806082000038, -5.669163688999959 ], [ 106.579226132000088, -5.671359998999947 ], [ 106.578777154000079, -5.671023416999958 ], [ 106.580806082000038, -5.669163688999959 ] ] ], [ [ [ 106.568509877000054, -5.667496895999932 ], [ 106.568248135000033, -5.666723570999977 ], [ 106.56880835700008, -5.666933228999937 ], [ 106.568509877000054, -5.667496895999932 ] ] ], [ [ [ 106.568372644000078, -5.662661287999981 ], [ 106.568204264000087, -5.660888291999925 ], [ 106.570330765000051, -5.660790708999969 ], [ 106.568372644000078, -5.662661287999981 ] ] ], [ [ [ 106.572117331000072, -5.654852701999971 ], [ 106.571652861000075, -5.65487173799994 ], [ 106.57202976700006, -5.654715644999953 ], [ 106.572117331000072, -5.654852701999971 ] ] ], [ [ [ 106.578964548000044, -5.650396129999933 ], [ 106.579101605000062, -5.656311707999976 ], [ 106.574311274000081, -5.653139648999968 ], [ 106.564242375000049, -5.656571640999971 ], [ 106.578964548000044, -5.650396129999933 ] ] ], [ [ [ 106.57787703300005, -5.634025256999962 ], [ 106.582649036000078, -5.636098883999978 ], [ 106.575197833000061, -5.635143926999945 ], [ 106.57787703300005, -5.634025256999962 ] ] ], [ [ [ 106.573247207000065, -5.627695056999926 ], [ 106.571562896000046, -5.627214049999964 ], [ 106.573295143000053, -5.627099834999967 ], [ 106.573247207000065, -5.627695056999926 ] ] ], [ [ [ 106.582148880000034, -5.619145534999973 ], [ 106.585299755000051, -5.62016347499997 ], [ 106.581568760000039, -5.62062033199993 ], [ 106.582148880000034, -5.619145534999973 ] ] ], [ [ [ 106.572940842000037, -5.617974126999968 ], [ 106.572023559000058, -5.618880700999966 ], [ 106.571809408000036, -5.618637995999961 ], [ 106.572940842000037, -5.617974126999968 ] ] ], [ [ [ 106.58206897000008, -5.611343876999968 ], [ 106.574830649000035, -5.614846443999966 ], [ 106.572644037000089, -5.613762565999934 ], [ 106.574012227000082, -5.611002391999932 ], [ 106.58206897000008, -5.611343876999968 ] ] ], [ [ [ 106.568582358000072, -5.59394446899995 ], [ 106.56780189400007, -5.591593560999968 ], [ 106.570176597000057, -5.591959998999926 ], [ 106.568582358000072, -5.59394446899995 ] ] ], [ [ [ 106.589947538000047, -5.584791475999964 ], [ 106.591399009000042, -5.587278011999956 ], [ 106.587871809000035, -5.587271060999967 ], [ 106.589947538000047, -5.584791475999964 ] ] ], [ [ [ 106.568351836000033, -5.58235697899994 ], [ 106.568751586000076, -5.58332779899996 ], [ 106.567238248000081, -5.582953033999956 ], [ 106.568351836000033, -5.58235697899994 ] ] ], [ [ [ 106.582336057000077, -5.575840479999954 ], [ 106.579785667000067, -5.576088905999939 ], [ 106.581034884000076, -5.574256720999927 ], [ 106.582336057000077, -5.575840479999954 ] ] ], [ [ [ 106.585381767000058, -5.570960502999981 ], [ 106.584175380000033, -5.570082481999975 ], [ 106.585263385000076, -5.569301889999963 ], [ 106.585381767000058, -5.570960502999981 ] ] ], [ [ [ 106.578527135000058, -5.540198405999945 ], [ 106.578788875000043, -5.539517879999948 ], [ 106.57915055400008, -5.539627334999977 ], [ 106.578527135000058, -5.540198405999945 ] ] ], [ [ [ 106.576850491000073, -5.492097749999971 ], [ 106.579911675000062, -5.49299715199993 ], [ 106.576319334000061, -5.495094867999967 ], [ 106.576850491000073, -5.492097749999971 ] ] ], [ [ [ 106.56652923200005, -5.457119711999951 ], [ 106.572148774000084, -5.457628671999942 ], [ 106.566553016000057, -5.460031139999955 ], [ 106.56652923200005, -5.457119711999951 ] ] ], [ [ [ 106.735621226000035, -6.03832170499993 ], [ 106.736274200000082, -6.039875474999974 ], [ 106.735420687000044, -6.040184090999958 ], [ 106.735621226000035, -6.03832170499993 ] ] ], [ [ [ 106.74557851600008, -6.03516108599996 ], [ 106.747898562000046, -6.036853444999963 ], [ 106.746389865000083, -6.037300832999961 ], [ 106.74557851600008, -6.03516108599996 ] ] ], [ [ [ 106.734420528000044, -6.032052629999953 ], [ 106.735968552000088, -6.034723540999948 ], [ 106.733518106000076, -6.034032965999927 ], [ 106.734420528000044, -6.032052629999953 ] ] ], [ [ [ 106.745514904000061, -6.02588379599996 ], [ 106.745248784000069, -6.02557797399993 ], [ 106.745120727000085, -6.024983569999961 ], [ 106.745514904000061, -6.02588379599996 ] ] ], [ [ [ 106.831889100000069, -6.006738663999954 ], [ 106.831676952000066, -6.006212758999936 ], [ 106.831985185000065, -6.006202362999943 ], [ 106.831889100000069, -6.006738663999954 ] ] ], [ [ [ 106.782220568000071, -6.003000679999957 ], [ 106.781480075000047, -6.005672973999935 ], [ 106.779521930000044, -6.00303981299993 ], [ 106.782220568000071, -6.003000679999957 ] ] ], [ [ [ 106.847789424000041, -5.984566384999937 ], [ 106.846808992000035, -5.98417066199994 ], [ 106.847630189000085, -5.984004948999939 ], [ 106.847789424000041, -5.984566384999937 ] ] ], [ [ [ 106.702476911000076, -5.976822074999973 ], [ 106.710277513000051, -5.976119160999929 ], [ 106.711380517000066, -5.978404102999946 ], [ 106.71098076800007, -5.979346368999927 ], [ 106.702476911000076, -5.976822074999973 ] ] ], [ [ [ 106.68924469600006, -5.975059198999929 ], [ 106.695433674000071, -5.972839161999957 ], [ 106.694916142000068, -5.97842137799995 ], [ 106.68924469600006, -5.975059198999929 ] ] ], [ [ [ 106.846018947000061, -5.955579716999978 ], [ 106.845117006000066, -5.960218958999974 ], [ 106.841689077000069, -5.955732121999972 ], [ 106.846018947000061, -5.955579716999978 ] ] ], [ [ [ 106.63012578300004, -5.942410863999953 ], [ 106.63242630600007, -5.945633990999966 ], [ 106.627884903000052, -5.94356421599997 ], [ 106.63012578300004, -5.942410863999953 ] ] ], [ [ [ 106.599345183000082, -5.862533476999943 ], [ 106.598317256000087, -5.866247815999941 ], [ 106.599228589000063, -5.862500164999972 ], [ 106.599345183000082, -5.862533476999943 ] ] ], [ [ [ 106.630507057000045, -5.854871583999966 ], [ 106.619905510000081, -5.860881842999959 ], [ 106.609357646000035, -5.863893907999966 ], [ 106.614928248000069, -5.856721671999935 ], [ 106.630507057000045, -5.854871583999966 ] ] ], [ [ [ 106.60482571700004, -5.853766685999972 ], [ 106.60860144600008, -5.858681224999941 ], [ 106.601337427000033, -5.860868424999978 ], [ 106.60482571700004, -5.853766685999972 ] ] ], [ [ [ 106.59966363400008, -5.856572688999961 ], [ 106.601444661000073, -5.856351398999948 ], [ 106.601906193000048, -5.857725641999934 ], [ 106.59966363400008, -5.856572688999961 ] ] ], [ [ [ 106.614423071000033, -5.855100634999928 ], [ 106.614512526000055, -5.853955447999965 ], [ 106.614700798000058, -5.855161960999965 ], [ 106.614423071000033, -5.855100634999928 ] ] ], [ [ [ 106.622561985000061, -5.854366833999961 ], [ 106.622824621000063, -5.853963702999977 ], [ 106.622588130000054, -5.854435400999932 ], [ 106.622561985000061, -5.854366833999961 ] ] ], [ [ [ 106.620847424000033, -5.85244966099998 ], [ 106.619836447000068, -5.854710163999925 ], [ 106.619586775000073, -5.854718807999973 ], [ 106.619470767000053, -5.85370295499996 ], [ 106.620847424000033, -5.85244966099998 ] ] ], [ [ [ 106.621862019000048, -5.85334570699996 ], [ 106.621772889000056, -5.852583185999947 ], [ 106.622117524000032, -5.852683672999945 ], [ 106.621862019000048, -5.85334570699996 ] ] ], [ [ [ 106.607259674000034, -5.759283657999958 ], [ 106.608282842000051, -5.759928491999972 ], [ 106.606981277000045, -5.759902317999945 ], [ 106.607259674000034, -5.759283657999958 ] ] ], [ [ [ 106.616108872000041, -5.743132809999963 ], [ 106.611573320000048, -5.749380729999928 ], [ 106.615239129000088, -5.742050251999956 ], [ 106.616108872000041, -5.743132809999963 ] ] ], [ [ [ 106.602024125000071, -5.737397852999948 ], [ 106.601168837000046, -5.739438221999933 ], [ 106.597892737000052, -5.738527540999939 ], [ 106.602024125000071, -5.737397852999948 ] ] ], [ [ [ 106.618979821000039, -5.739751082999931 ], [ 106.619074048000073, -5.739531220999936 ], [ 106.619128299000067, -5.739708252999947 ], [ 106.618979821000039, -5.739751082999931 ] ] ], [ [ [ 106.609731871000065, -5.737995231999946 ], [ 106.609514865000051, -5.736698900999954 ], [ 106.610017407000043, -5.736841668999944 ], [ 106.609731871000065, -5.737995231999946 ] ] ], [ [ [ 106.600597340000036, -5.734077612999954 ], [ 106.600993961000086, -5.736084210999934 ], [ 106.598663615000078, -5.73542727399996 ], [ 106.600597340000036, -5.734077612999954 ] ] ], [ [ [ 106.713150890000065, -5.695069786999966 ], [ 106.711052205000044, -5.696169097999928 ], [ 106.713422148000063, -5.693634971999927 ], [ 106.713150890000065, -5.695069786999966 ] ] ], [ [ [ 106.603210481000076, -5.605432106999956 ], [ 106.603137608000054, -5.604711622999957 ], [ 106.603717306000078, -5.604703990999951 ], [ 106.603210481000076, -5.605432106999956 ] ] ], [ [ [ 106.595255967000071, -5.579006658999958 ], [ 106.59324990600004, -5.581080209999925 ], [ 106.592617644000086, -5.579908413999931 ], [ 106.595255967000071, -5.579006658999958 ] ] ] ] } },
{ "type": "Feature", "properties": { "kemendagri_kab_code": 3171, "kemendagri_kab_name": "Kota Administrasi Jakarta Pusat", "kemendagri_prov_code": 31, "kemendagri_prov_name": "Dki Jakarta" }, "geometry": { "type": "Polygon", "coordinates": [ [ [ 106.878668, -6.166451 ], [ 106.87499899900007, -6.192453 ], [ 106.861722, -6.193865000999949 ], [ 106.847033999000075, -6.208607 ], [ 106.822709002000067, -6.202698989999931 ], [ 106.818598999000073, -6.214368 ], [ 106.79579, -6.229269 ], [ 106.791899, -6.208629 ], [ 106.810679, -6.188518 ], [ 106.798151, -6.161385 ], [ 106.82831, -6.162253000999954 ], [ 106.82127, -6.136873 ], [ 106.844054, -6.144986 ], [ 106.843569, -6.153653000999952 ], [ 106.861161, -6.150891 ], [ 106.878668, -6.166451 ] ] ] } },
{ "type": "Feature", "properties": { "kemendagri_kab_code": 3172, "kemendagri_kab_name": "Kota Administrasi Jakarta Utara", "kemendagri_prov_code": 31, "kemendagri_prov_name": "Dki Jakarta" }, "geometry": { "type": "MultiPolygon", "coordinates": [ [ [ [ 106.96817036300007, -6.091171419999966 ], [ 106.971481098000083, -6.154482128999973 ], [ 106.946863, -6.163146 ], [ 106.939197, -6.152824 ], [ 106.921988, -6.16226 ], [ 106.922453, -6.183112 ], [ 106.896429, -6.177997 ], [ 106.861161, -6.150891 ], [ 106.843569, -6.153653000999952 ], [ 106.844054, -6.144986 ], [ 106.830665, -6.135322000999963 ], [ 106.816871, -6.137696 ], [ 106.815035999000088, -6.130242 ], [ 106.801138, -6.133651 ], [ 106.800525, -6.141888000999927 ], [ 106.775086, -6.145232 ], [ 106.733385001000045, -6.123142997999935 ], [ 106.711461887000041, -6.096018564999952 ], [ 106.725632748000066, -6.089079215999959 ], [ 106.740977100000066, -6.101980262999973 ], [ 106.77659409100005, -6.103709598999956 ], [ 106.774498624000046, -6.110076977999938 ], [ 106.790414379000083, -6.108033728999942 ], [ 106.79415311200006, -6.104889722999928 ], [ 106.796033218000048, -6.093965109999942 ], [ 106.797636431000058, -6.108897346999981 ], [ 106.803533438000045, -6.09451999099997 ], [ 106.811827363000077, -6.122673431999942 ], [ 106.817210053000053, -6.114874574999931 ], [ 106.840538733000074, -6.123870429999954 ], [ 106.872926857000039, -6.104351195999925 ], [ 106.864617563000081, -6.113551800999971 ], [ 106.871514147000084, -6.115583934999961 ], [ 106.876732410000045, -6.101802586999952 ], [ 106.87856888500005, -6.109932191999974 ], [ 106.879533662000085, -6.094306105999976 ], [ 106.882282295000039, -6.106380976999958 ], [ 106.884195025000054, -6.09602668399998 ], [ 106.886446106000051, -6.09610599399997 ], [ 106.886688809000077, -6.10654767099993 ], [ 106.888297290000082, -6.097210541999971 ], [ 106.891495059000079, -6.106879771999957 ], [ 106.892734293000046, -6.097365129999957 ], [ 106.905146374000083, -6.097861713999976 ], [ 106.906975360000047, -6.108480592999967 ], [ 106.909455230000049, -6.098906197999952 ], [ 106.919624476000081, -6.104365680999933 ], [ 106.926716208000073, -6.097498216999952 ], [ 106.952394827000035, -6.096600513999931 ], [ 106.946436657000049, -6.096576718999927 ], [ 106.947862905000079, -6.09047689199997 ], [ 106.957539251000071, -6.097498353999981 ], [ 106.96817036300007, -6.091171419999966 ] ] ], [ [ [ 106.79325764400005, -6.100220757999978 ], [ 106.791408994000051, -6.103820535999944 ], [ 106.791360808000036, -6.100338688999955 ], [ 106.79325764400005, -6.100220757999978 ] ] ], [ [ [ 106.790935405000084, -6.094058523999934 ], [ 106.791331823000064, -6.095810996999944 ], [ 106.790382228000055, -6.106650746999946 ], [ 106.790935405000084, -6.094058523999934 ] ] ], [ [ [ 106.791237890000048, -6.099614053999971 ], [ 106.793566129000055, -6.097210555999936 ], [ 106.793203594000033, -6.099752988999967 ], [ 106.791237890000048, -6.099614053999971 ] ] ], [ [ [ 106.87704539200007, -6.094541785999979 ], [ 106.878142512000068, -6.099063756999954 ], [ 106.876035985000044, -6.100424454999938 ], [ 106.87704539200007, -6.094541785999979 ] ] ], [ [ [ 106.734287757000061, -6.081979072999957 ], [ 106.740634940000064, -6.087363465999942 ], [ 106.736586168000088, -6.095344138999963 ], [ 106.728812469000047, -6.08845381499998 ], [ 106.734287757000061, -6.081979072999957 ] ] ], [ [ [ 106.756779614000038, -6.080888648999974 ], [ 106.751153059000046, -6.097556947999976 ], [ 106.738249718000077, -6.097394787999974 ], [ 106.751412049000066, -6.074315556999977 ], [ 106.756779614000038, -6.080888648999974 ] ] ], [ [ [ 106.923323044000085, -6.089931272999934 ], [ 106.899834143000078, -6.090235604999975 ], [ 106.899027428000068, -6.082314452999981 ], [ 106.923367127000063, -6.08216850499997 ], [ 106.923323044000085, -6.089931272999934 ] ] ] ] } },
{ "type": "Feature", "properties": { "kemendagri_kab_code": 3173, "kemendagri_kab_name": "Kota Administrasi Jakarta Barat", "kemendagri_prov_code": 31, "kemendagri_prov_name": "Dki Jakarta" }, "geometry": { "type": "Polygon", "coordinates": [ [ [ 106.687992792000045, -6.097068797999952 ], [ 106.711461887000041, -6.096018564999952 ], [ 106.733385001000045, -6.123142997999935 ], [ 106.775086, -6.145232 ], [ 106.800525, -6.141888000999927 ], [ 106.801138, -6.133651 ], [ 106.813187, -6.130125 ], [ 106.821649, -6.137313 ], [ 106.82831, -6.162253000999954 ], [ 106.798151, -6.161385 ], [ 106.810650001000056, -6.188722998999935 ], [ 106.796055999000089, -6.207583 ], [ 106.783146, -6.20672 ], [ 106.778448999000034, -6.224842 ], [ 106.718089487000043, -6.223044396999967 ], [ 106.724712649000082, -6.193951838999965 ], [ 106.713440094000077, -6.191766390999931 ], [ 106.724369552000041, -6.184962643999938 ], [ 106.686811430000034, -6.172372014999951 ], [ 106.685804723000047, -6.128427215999977 ], [ 106.696886968000058, -6.110590307999928 ], [ 106.688740448000033, -6.108093092999979 ], [ 106.687992792000045, -6.097068797999952 ] ] ] } },
{ "type": "Feature", "properties": { "kemendagri_kab_code": 3174, "kemendagri_kab_name": "Kota Administrasi Jakarta Selatan", "kemendagri_prov_code": 31, "kemendagri_prov_name": "Dki Jakarta" }, "geometry": { "type": "Polygon", "coordinates": [ [ [ 106.846613719000061, -6.208620997999958 ], [ 106.865432, -6.223820000999979 ], [ 106.856716, -6.272687000999952 ], [ 106.846591, -6.279079 ], [ 106.858255, -6.311284001999979 ], [ 106.838294001000065, -6.32073 ], [ 106.843398, -6.331748 ], [ 106.836290654000038, -6.355077422999955 ], [ 106.794577962000062, -6.364594416999978 ], [ 106.792407619000073, -6.348382417999971 ], [ 106.80924334000008, -6.314835276999929 ], [ 106.77675359300008, -6.315203014999952 ], [ 106.773769664000042, -6.298539884999968 ], [ 106.760110690000033, -6.286440474999949 ], [ 106.762197739000044, -6.277844823999942 ], [ 106.751526298000044, -6.274537278999958 ], [ 106.75482895500005, -6.255829743999925 ], [ 106.736781506000057, -6.22379850699997 ], [ 106.778448999000034, -6.224842 ], [ 106.777677, -6.213681 ], [ 106.786557, -6.206907 ], [ 106.795762, -6.212492998999949 ], [ 106.799244, -6.229075 ], [ 106.822709002000067, -6.202698989999931 ], [ 106.846613719000061, -6.208620997999958 ] ] ] } },
{ "type": "Feature", "properties": { "kemendagri_kab_code": 3175, "kemendagri_kab_name": "Kota Administrasi Jakarta Timur", "kemendagri_prov_code": 31, "kemendagri_prov_name": "Dki Jakarta" }, "geometry": { "type": "Polygon", "coordinates": [ [ [ 106.971481098000083, -6.154482128999973 ], [ 106.973004059000061, -6.18944171399994 ], [ 106.962820733000058, -6.212170664999974 ], [ 106.94869179300008, -6.222238286999925 ], [ 106.944002521000073, -6.252396328999964 ], [ 106.919243641000037, -6.25117834699995 ], [ 106.904349549000074, -6.26205244099998 ], [ 106.911869649000039, -6.298183782999956 ], [ 106.921779073000039, -6.303389932999949 ], [ 106.916151179000053, -6.363016752999954 ], [ 106.906024474000048, -6.359665125999925 ], [ 106.901275640000051, -6.370207186999949 ], [ 106.884677102000069, -6.372512970999935 ], [ 106.871593228000052, -6.353084050999939 ], [ 106.862265, -6.357206666999957 ], [ 106.849012939000033, -6.336942896999972 ], [ 106.839738999000076, -6.335325000999944 ], [ 106.839207, -6.31939700099997 ], [ 106.85832, -6.311088 ], [ 106.846591, -6.279079 ], [ 106.856716, -6.272687000999952 ], [ 106.854322, -6.262162998999941 ], [ 106.866842, -6.238766 ], [ 106.863530001000072, -6.216266 ], [ 106.856939, -6.217325 ], [ 106.851026012000034, -6.20162699499997 ], [ 106.87499899900007, -6.192453 ], [ 106.875004, -6.166848 ], [ 106.922453, -6.183112 ], [ 106.921988, -6.16226 ], [ 106.939197, -6.152824 ], [ 106.946863, -6.163146 ], [ 106.971481098000083, -6.154482128999973 ] ] ] } }
]
}
