{
"type": "FeatureCollection",
"name": "34",
"crs": { "type": "name", "properties": { "name": "urn:ogc:def:crs:OGC:1.3:CRS84" } },
"features": [
{ "type": "Feature", "properties": { "kemendagri_kab_code": 3401, "kemendagri_kab_name": "Kabupaten Kulon Progo", "kemendagri_prov_code": 34, "kemendagri_prov_name": "Di Yogyakarta" }, "geometry": { "type": "Polygon", "coordinates": [ [ [ 110.26993649700006, -7.706016617999978 ], [ 110.232457003000036, -7.713450750999925 ], [ 110.215910397000073, -7.741761498999949 ], [ 110.220206670000039, -7.776984243999948 ], [ 110.236141406000058, -7.798213664999935 ], [ 110.228350955000053, -7.805897523999931 ], [ 110.233623544000068, -7.824240267999926 ], [ 110.221200616000033, -7.836783834999949 ], [ 110.256954516000064, -7.865742112999953 ], [ 110.27192132600004, -7.889013241999976 ], [ 110.271195590000048, -7.924210228999925 ], [ 110.248809621000078, -7.927136965999978 ], [ 110.211499049000054, -7.985540779999951 ], [ 110.143513542000051, -7.946998913999948 ], [ 110.00352917500004, -7.888300978999951 ], [ 110.02623075200006, -7.888857771999938 ], [ 110.03265489000006, -7.896035720999976 ], [ 110.050083333000089, -7.841555554999957 ], [ 110.059694445000048, -7.838555554999971 ], [ 110.063000031000058, -7.812505551999948 ], [ 110.080602250000084, -7.806240942999978 ], [ 110.101705855000034, -7.775072693999959 ], [ 110.111361112000054, -7.777416666999954 ], [ 110.112621034000085, -7.764626110999927 ], [ 110.130249372000037, -7.747875645999954 ], [ 110.123513724000077, -7.730632860999947 ], [ 110.134346301000051, -7.721342038999978 ], [ 110.127238616000056, -7.71602272399997 ], [ 110.138508302000048, -7.694256707999955 ], [ 110.115563679000047, -7.673608760999969 ], [ 110.141444444000058, -7.644805555999937 ], [ 110.144769368000084, -7.650671639999928 ], [ 110.189388188000066, -7.64564562299995 ], [ 110.202178685000035, -7.653931696999962 ], [ 110.213929949000033, -7.645957332999956 ], [ 110.238756008000053, -7.653295875999959 ], [ 110.251226498000051, -7.641972307999936 ], [ 110.261208018000048, -7.644739594999976 ], [ 110.266995654000084, -7.664534336999964 ], [ 110.260739740000076, -7.687496260999978 ], [ 110.26993649700006, -7.706016617999978 ] ] ] } },
{ "type": "Feature", "properties": { "kemendagri_kab_code": 3402, "kemendagri_kab_name": "Kabupaten Bantul", "kemendagri_prov_code": 34, "kemendagri_prov_name": "Di Yogyakarta" }, "geometry": { "type": "Polygon", "coordinates": [ [ [ 110.351089015000071, -7.768220295999981 ], [ 110.34480091000006, -7.80778305299998 ], [ 110.35132638500005, -7.82503477299997 ], [ 110.375140514000066, -7.824365324999974 ], [ 110.387657003000072, -7.839928598999961 ], [ 110.395212703000084, -7.835622708999949 ], [ 110.393306933000076, -7.826259902999936 ], [ 110.397788228000081, -7.833333231999973 ], [ 110.405107455000064, -7.830403258999979 ], [ 110.396962689000077, -7.786214493999978 ], [ 110.411300004000054, -7.79025 ], [ 110.412865503000035, -7.78316166299993 ], [ 110.421023467000055, -7.786306855999953 ], [ 110.42156906200006, -7.822295665999945 ], [ 110.428430450000064, -7.823118187999967 ], [ 110.430001840000045, -7.835895596999933 ], [ 110.444871746000047, -7.822463270999947 ], [ 110.46428234800004, -7.822012541999925 ], [ 110.467714373000035, -7.828108185999952 ], [ 110.481415665000043, -7.817384301999937 ], [ 110.52130889700004, -7.83365439399995 ], [ 110.488909988000046, -7.837760746999948 ], [ 110.467544558000043, -7.866666301999942 ], [ 110.47567209500005, -7.889264477999973 ], [ 110.494976662000056, -7.890635047999979 ], [ 110.497848532000035, -7.900322889999927 ], [ 110.491951003000054, -7.938368288999925 ], [ 110.488006591000044, -7.945178020999947 ], [ 110.476417545000061, -7.942675081999937 ], [ 110.472610474000078, -7.953566035999927 ], [ 110.47723387700006, -7.971399757999961 ], [ 110.463363644000083, -7.968422872999952 ], [ 110.470680232000063, -7.962728961999971 ], [ 110.466537473000074, -7.954191661999971 ], [ 110.454635615000086, -7.967231247999962 ], [ 110.449439999000049, -7.94691656599997 ], [ 110.443473800000049, -7.966760130999944 ], [ 110.431861459000061, -7.962973041999931 ], [ 110.421201473000053, -7.973271348999958 ], [ 110.396988078000049, -7.967141856999945 ], [ 110.397340238000083, -7.980704784999944 ], [ 110.365645818000075, -7.972452813999951 ], [ 110.360992426000053, -7.982401816999925 ], [ 110.34824719900007, -7.97433734699996 ], [ 110.352419980000036, -7.99354911599994 ], [ 110.331528313000035, -7.99908136199997 ], [ 110.339001283000073, -8.028066897999963 ], [ 110.211499049000054, -7.985540779999951 ], [ 110.247881631000041, -7.928150615999925 ], [ 110.268682879000039, -7.927750866999929 ], [ 110.273289516000034, -7.910511671999927 ], [ 110.273586948000059, -7.892487254999935 ], [ 110.257359024000039, -7.866194210999936 ], [ 110.221414767000056, -7.837412011999959 ], [ 110.232124484000053, -7.827916534999929 ], [ 110.234018050000088, -7.812960719999978 ], [ 110.253598302000057, -7.796504711999944 ], [ 110.256376814000078, -7.800915627999927 ], [ 110.286710768000034, -7.784587436999971 ], [ 110.29069846200008, -7.793134376999944 ], [ 110.28035053800005, -7.818487704999939 ], [ 110.292423050000082, -7.83522835399998 ], [ 110.306357086000048, -7.828879129999962 ], [ 110.30935168700006, -7.818700964999948 ], [ 110.316583329000082, -7.823722224999926 ], [ 110.316042445000051, -7.805168008999942 ], [ 110.330597627000088, -7.806564653999942 ], [ 110.351089015000071, -7.768220295999981 ] ] ] } },
{ "type": "Feature", "properties": { "kemendagri_kab_code": 3403, "kemendagri_kab_name": "Kabupaten Gunungkidul", "kemendagri_prov_code": 34, "kemendagri_prov_name": "Di Yogyakarta" }, "geometry": { "type": "MultiPolygon", "coordinates": [ [ [ [ 110.679635932000053, -8.18745759899997 ], [ 110.679689470000085, -8.187353497999936 ], [ 110.679722188000085, -8.187418932999947 ], [ 110.679635932000053, -8.18745759899997 ] ] ], [ [ [ 110.679635932000053, -8.187091756999962 ], [ 110.679787623000038, -8.187062013999935 ], [ 110.679731111000081, -8.187186934999943 ], [ 110.679635932000053, -8.187091756999962 ] ] ], [ [ [ 110.676650898000048, -8.185511199999951 ], [ 110.676717523000036, -8.185140003999948 ], [ 110.67694595200004, -8.185273253999981 ], [ 110.676650898000048, -8.185511199999951 ] ] ], [ [ [ 110.678764749000038, -8.184539227999949 ], [ 110.677978814000085, -8.184324138999955 ], [ 110.678394999000034, -8.183927414999971 ], [ 110.678764749000038, -8.184539227999949 ] ] ], [ [ [ 110.679073071000062, -8.182889628999931 ], [ 110.678805178000061, -8.183695172999933 ], [ 110.678536378000047, -8.182944115999931 ], [ 110.679073071000062, -8.182889628999931 ] ] ], [ [ [ 110.672093874000041, -8.180118626999956 ], [ 110.671815477000052, -8.180150749999939 ], [ 110.671897568000077, -8.179829522999967 ], [ 110.672093874000041, -8.180118626999956 ] ] ], [ [ [ 110.662754473000064, -8.177579725999976 ], [ 110.662248499000043, -8.177437789999942 ], [ 110.662416677000067, -8.177211759999977 ], [ 110.662754473000064, -8.177579725999976 ] ] ], [ [ [ 110.604504645000077, -8.148117087999935 ], [ 110.604854624000041, -8.147417664999978 ], [ 110.605192414000044, -8.147405086999981 ], [ 110.604504645000077, -8.148117087999935 ] ] ], [ [ [ 110.585369374000038, -8.145641664999971 ], [ 110.58570749900008, -8.145416289999957 ], [ 110.585698999000044, -8.14567872799995 ], [ 110.585369374000038, -8.145641664999971 ] ] ], [ [ [ 110.576946, -8.145645 ], [ 110.577114, -8.145469 ], [ 110.577109, -8.145632 ], [ 110.576946, -8.145645 ] ] ], [ [ [ 110.578369062000036, -8.138934414999937 ], [ 110.577653943000087, -8.139551815999937 ], [ 110.57750403700004, -8.138927206999938 ], [ 110.578369062000036, -8.138934414999937 ] ] ], [ [ [ 110.575876565000044, -8.13818188099998 ], [ 110.575880848000054, -8.138074804999974 ], [ 110.57597221900005, -8.138076231999946 ], [ 110.575876565000044, -8.13818188099998 ] ] ], [ [ [ 110.555447346000051, -8.134595477999937 ], [ 110.55513682600008, -8.134277819999966 ], [ 110.555308147000062, -8.134231419999935 ], [ 110.555447346000051, -8.134595477999937 ] ] ], [ [ [ 110.553828122000084, -8.133987524999952 ], [ 110.553606832000071, -8.133798357999979 ], [ 110.553742462000059, -8.133766234999939 ], [ 110.553828122000084, -8.133987524999952 ] ] ], [ [ [ 110.403811920000066, -8.08008291799996 ], [ 110.403907098000047, -8.080136455999934 ], [ 110.403820843000062, -8.08014537899993 ], [ 110.403811920000066, -8.08008291799996 ] ] ], [ [ [ 110.348112902000082, -8.041192808999938 ], [ 110.348240798000063, -8.041032195999946 ], [ 110.348282438000069, -8.04119875799995 ], [ 110.348112902000082, -8.041192808999938 ] ] ], [ [ [ 110.553150217000052, -7.787003777999928 ], [ 110.582088967000061, -7.789117025999929 ], [ 110.575856121000072, -7.805880204999937 ], [ 110.586156926000058, -7.802687383999967 ], [ 110.585823657000049, -7.808582719999947 ], [ 110.600064176000046, -7.806737406999957 ], [ 110.604250630000081, -7.798275353999941 ], [ 110.625783364000085, -7.80318693199996 ], [ 110.650725650000084, -7.792424315999938 ], [ 110.65767648700006, -7.804803036999942 ], [ 110.67123833800008, -7.786138834999974 ], [ 110.681800165000084, -7.806282824999926 ], [ 110.708778116000076, -7.805153663999931 ], [ 110.713334983000038, -7.790773556999966 ], [ 110.740332084000045, -7.804845322999938 ], [ 110.752325344000042, -7.824992074999955 ], [ 110.762247524000088, -7.823458107999954 ], [ 110.767869630000064, -7.808178302999977 ], [ 110.785583593000069, -7.816719380999928 ], [ 110.782885954000051, -7.871011224999961 ], [ 110.770493516000045, -7.904044139999939 ], [ 110.767433716000085, -7.982584206999945 ], [ 110.755678554000042, -8.024864906999937 ], [ 110.788735401000054, -8.110769377999929 ], [ 110.785615372000052, -8.150690371999929 ], [ 110.803707609000071, -8.162502440999958 ], [ 110.814699119000068, -8.137828983999952 ], [ 110.830492750000076, -8.136343460999967 ], [ 110.828838142000052, -8.14623925799998 ], [ 110.815283208000039, -8.153540859999964 ], [ 110.813843215000077, -8.179634236999959 ], [ 110.822262195000064, -8.18187349599998 ], [ 110.825089993000063, -8.168276272999947 ], [ 110.832625863000032, -8.169175505999931 ], [ 110.838811346000057, -8.179108561999954 ], [ 110.834577426000067, -8.203366312999947 ], [ 110.830227472000047, -8.201409677999948 ], [ 110.821017767000058, -8.203306909999981 ], [ 110.818630571000085, -8.19998589599993 ], [ 110.807382568000037, -8.200516771999958 ], [ 110.805850108000072, -8.198323799999969 ], [ 110.803021886000067, -8.197273218999953 ], [ 110.799556772000074, -8.197880359999942 ], [ 110.798952604000078, -8.189096503999963 ], [ 110.781307360000085, -8.196207782999977 ], [ 110.731809181000074, -8.192607166999949 ], [ 110.708132555000077, -8.200337224999942 ], [ 110.70774891800005, -8.183568843999979 ], [ 110.673954719000051, -8.181249053999977 ], [ 110.668683886000053, -8.176467843999944 ], [ 110.644593686000064, -8.168364997999959 ], [ 110.603989698000078, -8.145187601999964 ], [ 110.595760092000035, -8.149228837999942 ], [ 110.578963077000083, -8.138112914999965 ], [ 110.553397206000056, -8.133050270999945 ], [ 110.550171741000042, -8.134358197999973 ], [ 110.548756617000038, -8.128390808999939 ], [ 110.545530968000037, -8.135002075999978 ], [ 110.52732668200008, -8.13133213499998 ], [ 110.514206950000073, -8.120930136999959 ], [ 110.43646033300007, -8.100008745999958 ], [ 110.430693203000033, -8.089120374999936 ], [ 110.408826830000066, -8.078907797999932 ], [ 110.375530835000063, -8.071462876999931 ], [ 110.339001283000073, -8.028066897999963 ], [ 110.331528313000035, -7.99908136199997 ], [ 110.352419980000036, -7.99354911599994 ], [ 110.34824719900007, -7.97433734699996 ], [ 110.360992426000053, -7.982401816999925 ], [ 110.365645818000075, -7.972452813999951 ], [ 110.397340238000083, -7.980704784999944 ], [ 110.396988078000049, -7.967141856999945 ], [ 110.421201473000053, -7.973271348999958 ], [ 110.431861459000061, -7.962973041999931 ], [ 110.443473800000049, -7.966760130999944 ], [ 110.449439999000049, -7.94691656599997 ], [ 110.454635615000086, -7.967231247999962 ], [ 110.466537473000074, -7.954191661999971 ], [ 110.470680232000063, -7.962728961999971 ], [ 110.463363644000083, -7.968422872999952 ], [ 110.477455145000079, -7.971160862999966 ], [ 110.472610474000078, -7.953566035999927 ], [ 110.476417545000061, -7.942675081999937 ], [ 110.488006591000044, -7.945178020999947 ], [ 110.491951003000054, -7.938368288999925 ], [ 110.497848532000035, -7.900322889999927 ], [ 110.494976662000056, -7.890635047999979 ], [ 110.47567209500005, -7.889264477999973 ], [ 110.467544558000043, -7.866666301999942 ], [ 110.488909988000046, -7.837760746999948 ], [ 110.516273496000053, -7.837604004999946 ], [ 110.529788864000068, -7.823759288999952 ], [ 110.542363791000071, -7.823447249999958 ], [ 110.54376783400005, -7.792188875999955 ], [ 110.555027219000067, -7.795060711999952 ], [ 110.553150217000052, -7.787003777999928 ] ] ], [ [ [ 110.826481706000038, -8.20562263599993 ], [ 110.826455056000043, -8.205512228999964 ], [ 110.826519777000044, -8.205510325999967 ], [ 110.826481706000038, -8.20562263599993 ] ] ], [ [ [ 110.81979995100005, -8.203707139999949 ], [ 110.819433514000082, -8.203457296999943 ], [ 110.819764259000067, -8.203155104999951 ], [ 110.81979995100005, -8.203707139999949 ] ] ], [ [ [ 110.824456318000045, -8.202865762999977 ], [ 110.824503908000054, -8.202780101999963 ], [ 110.824526750000075, -8.202816269999971 ], [ 110.824456318000045, -8.202865762999977 ] ] ], [ [ [ 110.719694579000077, -8.201498020999964 ], [ 110.718444296000087, -8.200440287999982 ], [ 110.718752299000073, -8.19968423399996 ], [ 110.719694579000077, -8.201498020999964 ] ] ], [ [ [ 110.712065624000047, -8.199541102999945 ], [ 110.712284687000079, -8.199190039999962 ], [ 110.712584562000075, -8.199785414999951 ], [ 110.712065624000047, -8.199541102999945 ] ] ], [ [ [ 110.804732609000041, -8.198416408999947 ], [ 110.804792096000085, -8.198303383999928 ], [ 110.804801019000081, -8.19841938299993 ], [ 110.804732609000041, -8.198416408999947 ] ] ], [ [ [ 110.802188569000066, -8.198103112999945 ], [ 110.802243296000086, -8.198050764999948 ], [ 110.802240917000063, -8.198148322999941 ], [ 110.802188569000066, -8.198103112999945 ] ] ], [ [ [ 110.764701935000062, -8.196303967999938 ], [ 110.764855411000042, -8.196089816999972 ], [ 110.764776888000085, -8.19636107499997 ], [ 110.764701935000062, -8.196303967999938 ] ] ], [ [ [ 110.705967569000052, -8.196316106999973 ], [ 110.706115357000044, -8.195716544999925 ], [ 110.706637397000065, -8.195460791999949 ], [ 110.705967569000052, -8.196316106999973 ] ] ], [ [ [ 110.761680020000085, -8.195936340999936 ], [ 110.761772819000043, -8.195657943999947 ], [ 110.761979832000065, -8.195682928999929 ], [ 110.761680020000085, -8.195936340999936 ] ] ], [ [ [ 110.728106698000033, -8.195789528999967 ], [ 110.728161111000077, -8.195672221999928 ], [ 110.728209014000072, -8.195737179999981 ], [ 110.728106698000033, -8.195789528999967 ] ] ], [ [ [ 110.797132531000045, -8.195774730999972 ], [ 110.797254360000068, -8.195609120999961 ], [ 110.797279106000076, -8.195778537999956 ], [ 110.797132531000045, -8.195774730999972 ] ] ], [ [ [ 110.76284357600008, -8.195643667999946 ], [ 110.762909011000033, -8.195521719999931 ], [ 110.762932806000038, -8.195670436999933 ], [ 110.76284357600008, -8.195643667999946 ] ] ], [ [ [ 110.743963902000075, -8.195592270999953 ], [ 110.744156638000049, -8.195449503999953 ], [ 110.743999594000059, -8.195660085999975 ], [ 110.743963902000075, -8.195592270999953 ] ] ], [ [ [ 110.706323600000076, -8.195459720999963 ], [ 110.706474305000086, -8.195098866999956 ], [ 110.706566894000048, -8.195329434999962 ], [ 110.706323600000076, -8.195459720999963 ] ] ], [ [ [ 110.68825838500004, -8.185616133999929 ], [ 110.688283369000033, -8.18533059899994 ], [ 110.688426137000079, -8.185573303999945 ], [ 110.68825838500004, -8.185616133999929 ] ] ], [ [ [ 110.68185287600005, -8.182833353999968 ], [ 110.681942106000065, -8.182540680999978 ], [ 110.682099141000037, -8.182744123999953 ], [ 110.68185287600005, -8.182833353999968 ] ] ] ] } },
{ "type": "Feature", "properties": { "kemendagri_kab_code": 3404, "kemendagri_kab_name": "Kabupaten Sleman", "kemendagri_prov_code": 34, "kemendagri_prov_name": "Di Yogyakarta" }, "geometry": { "type": "Polygon", "coordinates": [ [ [ 110.543589625000038, -7.79256345999994 ], [ 110.542363791000071, -7.823447249999958 ], [ 110.519182630000046, -7.831029906999959 ], [ 110.481415665000043, -7.817384301999937 ], [ 110.467714373000035, -7.828108185999952 ], [ 110.45395796400004, -7.820389463999959 ], [ 110.43372383500008, -7.836629381999956 ], [ 110.42156906200006, -7.822295665999945 ], [ 110.421023467000055, -7.786306855999953 ], [ 110.400137914000084, -7.791352859999961 ], [ 110.390750905000061, -7.780389278999962 ], [ 110.352261099000089, -7.766468011999962 ], [ 110.330597627000088, -7.806564653999942 ], [ 110.316042445000051, -7.805168008999942 ], [ 110.316583329000082, -7.823722224999926 ], [ 110.30935168700006, -7.818700964999948 ], [ 110.306357086000048, -7.828879129999962 ], [ 110.292211901000087, -7.835222140999974 ], [ 110.28035053800005, -7.818487704999939 ], [ 110.29069846200008, -7.793134376999944 ], [ 110.286710768000034, -7.784587436999971 ], [ 110.256376814000078, -7.800915627999927 ], [ 110.253598302000057, -7.796504711999944 ], [ 110.233438918000047, -7.815200492999963 ], [ 110.228350955000053, -7.805897523999931 ], [ 110.236141406000058, -7.798213664999935 ], [ 110.220206670000039, -7.776984243999948 ], [ 110.216015654000046, -7.740155742999946 ], [ 110.232457003000036, -7.713450750999925 ], [ 110.272222837000072, -7.70631203399995 ], [ 110.302845722000086, -7.655776906999961 ], [ 110.385787036000067, -7.599085062999961 ], [ 110.445224912000072, -7.541161558999931 ], [ 110.455012774000068, -7.554800606999947 ], [ 110.468477001000053, -7.617411398999934 ], [ 110.491773567000052, -7.766765996999936 ], [ 110.509520427000041, -7.769298770999967 ], [ 110.530466511000043, -7.797957219999944 ], [ 110.543589625000038, -7.79256345999994 ] ] ] } },
{ "type": "Feature", "properties": { "kemendagri_kab_code": 3471, "kemendagri_kab_name": "Kota Yogyakarta", "kemendagri_prov_code": 34, "kemendagri_prov_name": "Di Yogyakarta" }, "geometry": { "type": "Polygon", "coordinates": [ [ [ 110.397126886000081, -7.788483850999967 ], [ 110.40356599900008, -7.833092601999965 ], [ 110.393306933000076, -7.826259902999936 ], [ 110.395212703000084, -7.835622708999949 ], [ 110.387657003000072, -7.839928598999961 ], [ 110.375140514000066, -7.824365324999974 ], [ 110.351752580000039, -7.825745171999927 ], [ 110.344800105000047, -7.806857719999925 ], [ 110.352230064000082, -7.766489707999938 ], [ 110.397126886000081, -7.788483850999967 ] ] ] } }
]
}
