{
"type": "FeatureCollection",
"name": "36",
"crs": { "type": "name", "properties": { "name": "urn:ogc:def:crs:OGC:1.3:CRS84" } },
"features": [
{ "type": "Feature", "properties": { "kemendagri_kab_code": 3601, "kemendagri_kab_name": "Kabupaten Pandeglang", "kemendagri_prov_code": 36, "kemendagri_prov_name": "Banten" }, "geometry": { "type": "MultiPolygon", "coordinates": [ [ [ [ 105.22764608600005, -6.793899631999977 ], [ 105.227440086000058, -6.794377632999954 ], [ 105.227562086000034, -6.79374863299995 ], [ 105.22764608600005, -6.793899631999977 ] ] ], [ [ [ 105.228542558000072, -6.789395297999931 ], [ 105.228928711000037, -6.78962800499994 ], [ 105.228489206000063, -6.789827829999979 ], [ 105.228542558000072, -6.789395297999931 ] ] ], [ [ [ 105.208455779000076, -6.751692774999981 ], [ 105.208729935000065, -6.751350680999963 ], [ 105.208610768000085, -6.751781973999925 ], [ 105.208455779000076, -6.751692774999981 ] ] ], [ [ [ 105.210287034000032, -6.745965530999968 ], [ 105.210286939000071, -6.745745441999929 ], [ 105.210371382000062, -6.745953679999957 ], [ 105.210287034000032, -6.745965530999968 ] ] ], [ [ [ 105.224246225000059, -6.745674172999941 ], [ 105.22447565300007, -6.745596458999955 ], [ 105.224747990000083, -6.745770222999965 ], [ 105.224246225000059, -6.745674172999941 ] ] ], [ [ [ 105.210453838000035, -6.745474685999966 ], [ 105.211441747000038, -6.745815772999947 ], [ 105.210589801000083, -6.745838068999944 ], [ 105.210453838000035, -6.745474685999966 ] ] ], [ [ [ 105.212472494000053, -6.743807555999979 ], [ 105.213344390000088, -6.745050122999942 ], [ 105.212120810000044, -6.743955276999941 ], [ 105.212472494000053, -6.743807555999979 ] ] ], [ [ [ 105.211953105000077, -6.744306134999931 ], [ 105.21105900200007, -6.744367239999974 ], [ 105.211329465000063, -6.743657951999978 ], [ 105.211953105000077, -6.744306134999931 ] ] ], [ [ [ 105.177966815000048, -6.688349461999962 ], [ 105.178041768000071, -6.688420845999929 ], [ 105.177952538000056, -6.688460106999969 ], [ 105.177966815000048, -6.688349461999962 ] ] ], [ [ [ 105.178259488000037, -6.688167433999979 ], [ 105.178362995000043, -6.688021096999933 ], [ 105.178427240000076, -6.688110325999958 ], [ 105.178259488000037, -6.688167433999979 ] ] ], [ [ [ 105.182907170000078, -6.687061102999962 ], [ 105.18298747700004, -6.687102743999958 ], [ 105.182898247000082, -6.687117614999977 ], [ 105.182907170000078, -6.687061102999962 ] ] ], [ [ [ 105.182707095000069, -6.686129340999969 ], [ 105.181889086000069, -6.68499567799995 ], [ 105.182264727000074, -6.684732923999945 ], [ 105.182707095000069, -6.686129340999969 ] ] ], [ [ [ 105.178435785000033, -6.68286024899993 ], [ 105.178599348000034, -6.682528633999937 ], [ 105.178626490000056, -6.682824610999944 ], [ 105.178435785000033, -6.68286024899993 ] ] ], [ [ [ 105.179117035000047, -6.681512439999949 ], [ 105.179019747000041, -6.682572279999931 ], [ 105.178772979000087, -6.682514341999934 ], [ 105.179117035000047, -6.681512439999949 ] ] ], [ [ [ 105.179977940000072, -6.68104965699996 ], [ 105.179612057000043, -6.680748113999925 ], [ 105.179778528000043, -6.680628518999981 ], [ 105.179977940000072, -6.68104965699996 ] ] ], [ [ [ 105.184301174000041, -6.681169802999932 ], [ 105.183819006000078, -6.680863418999934 ], [ 105.184173041000065, -6.680728396999939 ], [ 105.184301174000041, -6.681169802999932 ] ] ], [ [ [ 105.183984585000076, -6.680403592999937 ], [ 105.183167663000063, -6.680532650999965 ], [ 105.183462855000073, -6.680048941999928 ], [ 105.183984585000076, -6.680403592999937 ] ] ], [ [ [ 105.178964808000046, -6.680369356999961 ], [ 105.178643045000058, -6.680074445999935 ], [ 105.179018764000034, -6.680009801999972 ], [ 105.178964808000046, -6.680369356999961 ] ] ], [ [ [ 105.181250796000086, -6.677609617999963 ], [ 105.181557822000059, -6.677763694999953 ], [ 105.181361916000071, -6.677772776999973 ], [ 105.181250796000086, -6.677609617999963 ] ] ], [ [ [ 105.197056677000035, -6.667609105999929 ], [ 105.197038012000064, -6.668075427999952 ], [ 105.196909090000077, -6.668161439999949 ], [ 105.197056677000035, -6.667609105999929 ] ] ], [ [ [ 105.196436219000077, -6.66783354599994 ], [ 105.196791671000085, -6.66772878699993 ], [ 105.196610125000063, -6.668162372999973 ], [ 105.196436219000077, -6.66783354599994 ] ] ], [ [ [ 105.105642439000064, -6.616963082999973 ], [ 105.111455983000042, -6.618670809999969 ], [ 105.106400930000063, -6.619989643999929 ], [ 105.105642439000064, -6.616963082999973 ] ] ], [ [ [ 105.261668658000076, -6.521305110999947 ], [ 105.266698094000049, -6.53441214999998 ], [ 105.250041827000075, -6.559895060999963 ], [ 105.259088968000071, -6.604637622999974 ], [ 105.243066844000055, -6.635841935999963 ], [ 105.229378084000075, -6.64312319499993 ], [ 105.216209654000068, -6.638151988999937 ], [ 105.184101496000039, -6.679545458999939 ], [ 105.170203550000053, -6.660909472999947 ], [ 105.19081443400006, -6.64034195399995 ], [ 105.19523816800006, -6.621201110999948 ], [ 105.174830194000037, -6.59920941799993 ], [ 105.177486077000083, -6.578911069999947 ], [ 105.160178352000059, -6.575381708999942 ], [ 105.131992270000069, -6.605002479999939 ], [ 105.127930380000066, -6.623253800999976 ], [ 105.112220039000078, -6.609917593999967 ], [ 105.101353026000083, -6.61997910499997 ], [ 105.120966069000076, -6.587891253999942 ], [ 105.124161230000084, -6.588665946999981 ], [ 105.156958618000033, -6.564186775999929 ], [ 105.184917487000064, -6.53865529899997 ], [ 105.211890133000054, -6.547477944999969 ], [ 105.221015203000036, -6.529949440999928 ], [ 105.238959753000074, -6.533491605999927 ], [ 105.261668658000076, -6.521305110999947 ] ] ], [ [ [ 105.126596292000045, -6.584249561999968 ], [ 105.125741854000069, -6.584182736999935 ], [ 105.125722159000077, -6.583852604999947 ], [ 105.126596292000045, -6.584249561999968 ] ] ], [ [ [ 105.185326437000072, -6.537855457999967 ], [ 105.185321936000037, -6.537300924999954 ], [ 105.185617445000048, -6.537314791999961 ], [ 105.185326437000072, -6.537855457999967 ] ] ], [ [ [ 105.262813373000085, -6.852638601999956 ], [ 105.262332325000045, -6.854361925999967 ], [ 105.26230232100005, -6.852589464999937 ], [ 105.262813373000085, -6.852638601999956 ] ] ], [ [ [ 105.265623705000053, -6.846798633999981 ], [ 105.266905705000056, -6.846345633999931 ], [ 105.26561670500007, -6.846992633999946 ], [ 105.265623705000053, -6.846798633999981 ] ] ], [ [ [ 105.245693031000087, -6.841194645999963 ], [ 105.245828850000066, -6.840450707999935 ], [ 105.246150971000077, -6.840799241999946 ], [ 105.245693031000087, -6.841194645999963 ] ] ], [ [ [ 105.242947401000038, -6.83986750899993 ], [ 105.242925083000046, -6.839533120999931 ], [ 105.24296077200006, -6.839541708999946 ], [ 105.242947401000038, -6.83986750899993 ] ] ], [ [ [ 105.238920182000072, -6.838031407999949 ], [ 105.239986656000042, -6.838276967999946 ], [ 105.239308034000032, -6.839212334999957 ], [ 105.238920182000072, -6.838031407999949 ] ] ], [ [ [ 105.239184926000064, -6.821993323999948 ], [ 105.238017347000039, -6.82172792199998 ], [ 105.239335266000069, -6.82096228599994 ], [ 105.239184926000064, -6.821993323999948 ] ] ], [ [ [ 105.444083440000043, -6.810370638999927 ], [ 105.443213018000051, -6.808593942999948 ], [ 105.44446170100008, -6.808375698999953 ], [ 105.444083440000043, -6.810370638999927 ] ] ], [ [ [ 105.481674317000056, -6.805464549999954 ], [ 105.481637977000048, -6.805437160999929 ], [ 105.481681648000063, -6.805419474999951 ], [ 105.481674317000056, -6.805464549999954 ] ] ], [ [ [ 105.235676968000064, -6.802070356999934 ], [ 105.235959194000088, -6.801735070999939 ], [ 105.236038876000066, -6.801802542999951 ], [ 105.235676968000064, -6.802070356999934 ] ] ], [ [ [ 105.232678272000044, -6.792188291999935 ], [ 105.232967146000078, -6.79227495799995 ], [ 105.232872446000044, -6.792398878999961 ], [ 105.232678272000044, -6.792188291999935 ] ] ], [ [ [ 105.229860418000044, -6.791024460999949 ], [ 105.230219341000065, -6.791102040999931 ], [ 105.230106952000085, -6.791273270999966 ], [ 105.229860418000044, -6.791024460999949 ] ] ], [ [ [ 105.230205105000039, -6.78921560699996 ], [ 105.230283627000063, -6.789158499999928 ], [ 105.230301473000054, -6.789294129999973 ], [ 105.230205105000039, -6.78921560699996 ] ] ], [ [ [ 105.230358580000086, -6.788834893999933 ], [ 105.23048945000005, -6.788936020999927 ], [ 105.230328837000059, -6.788971712999967 ], [ 105.230358580000086, -6.788834893999933 ] ] ], [ [ [ 105.230195879000064, -6.78751618299998 ], [ 105.230370477000065, -6.786723121999955 ], [ 105.230734718000065, -6.787027958999943 ], [ 105.230195879000064, -6.78751618299998 ] ] ], [ [ [ 105.437253743000042, -6.771081971999934 ], [ 105.434817948000045, -6.77186435599998 ], [ 105.436458470000048, -6.769739385999969 ], [ 105.437253743000042, -6.771081971999934 ] ] ], [ [ [ 105.423338121000086, -6.766850173999956 ], [ 105.421243989000061, -6.766400831999931 ], [ 105.422844862000034, -6.765456417999928 ], [ 105.423338121000086, -6.766850173999956 ] ] ], [ [ [ 105.424019098000088, -6.765587690999951 ], [ 105.424049280000077, -6.76517721099998 ], [ 105.424259950000078, -6.765495891999933 ], [ 105.424019098000088, -6.765587690999951 ] ] ], [ [ [ 105.420622171000048, -6.761526806999939 ], [ 105.424887251000087, -6.761061766999944 ], [ 105.42118074800004, -6.763907634999953 ], [ 105.420622171000048, -6.761526806999939 ] ] ], [ [ [ 105.416592073000061, -6.755054594999933 ], [ 105.418824825000058, -6.758919768999931 ], [ 105.417050809000045, -6.759755767999934 ], [ 105.416592073000061, -6.755054594999933 ] ] ], [ [ [ 105.421577691000039, -6.755976371999964 ], [ 105.418689513000061, -6.755466642999977 ], [ 105.419380855000043, -6.754421256999933 ], [ 105.421577691000039, -6.755976371999964 ] ] ], [ [ [ 105.435383916000035, -6.755458312999963 ], [ 105.429249239000058, -6.755060569999955 ], [ 105.428776044000074, -6.74947745999998 ], [ 105.435383916000035, -6.755458312999963 ] ] ], [ [ [ 105.426176848000068, -6.753438412999969 ], [ 105.418833542000073, -6.753275169999938 ], [ 105.418822907000049, -6.748797496999941 ], [ 105.423165933000064, -6.748342587999957 ], [ 105.426176848000068, -6.753438412999969 ] ] ], [ [ [ 105.24900329500008, -6.726216576999946 ], [ 105.267695327000069, -6.73669991099996 ], [ 105.258111137000071, -6.750972139999931 ], [ 105.247685918000059, -6.748202784999933 ], [ 105.24900329500008, -6.726216576999946 ] ] ], [ [ [ 105.246457872000065, -6.726368518999948 ], [ 105.246562834000088, -6.726258420999955 ], [ 105.24661227200005, -6.726449392999939 ], [ 105.246457872000065, -6.726368518999948 ] ] ], [ [ [ 105.247203882000065, -6.725427079999974 ], [ 105.246731891000081, -6.725314748999949 ], [ 105.247074687000065, -6.725157727999942 ], [ 105.247203882000065, -6.725427079999974 ] ] ], [ [ [ 105.550361353000085, -6.995384623999939 ], [ 105.569615760000033, -7.006367000999944 ], [ 105.568577714000071, -7.013842766999971 ], [ 105.535501894000049, -7.014889424999978 ], [ 105.520637374000046, -7.007943915999931 ], [ 105.522542134000048, -7.001027423999972 ], [ 105.550361353000085, -6.995384623999939 ] ] ], [ [ [ 105.766196995000087, -6.971370964999949 ], [ 105.820445532000065, -6.953546925999945 ], [ 105.814369818000046, -6.957849081999939 ], [ 105.766196995000087, -6.971370964999949 ] ] ], [ [ [ 105.48178676200007, -6.805451786999981 ], [ 105.481805981000036, -6.805557483999962 ], [ 105.481765674000087, -6.805542179999975 ], [ 105.48178676200007, -6.805451786999981 ] ] ], [ [ [ 105.502860530000078, -6.707996238999954 ], [ 105.503327076000062, -6.707315430999927 ], [ 105.503565566000077, -6.707390645999965 ], [ 105.502860530000078, -6.707996238999954 ] ] ], [ [ [ 105.556127536000076, -6.677676973999951 ], [ 105.558022761000075, -6.67728484099996 ], [ 105.558193856000059, -6.67793615599993 ], [ 105.556127536000076, -6.677676973999951 ] ] ], [ [ [ 105.569837630000052, -6.664159509999934 ], [ 105.569634865000069, -6.66415430099994 ], [ 105.569704597000054, -6.664080540999976 ], [ 105.569837630000052, -6.664159509999934 ] ] ], [ [ [ 105.569846088000077, -6.664117420999958 ], [ 105.570024458000034, -6.664135002999956 ], [ 105.56994523700007, -6.664242545999969 ], [ 105.569846088000077, -6.664117420999958 ] ] ], [ [ [ 105.569568404000051, -6.664069928999936 ], [ 105.569486562000066, -6.664139814999942 ], [ 105.569471674000056, -6.664070752999976 ], [ 105.569568404000051, -6.664069928999936 ] ] ], [ [ [ 105.569688197000062, -6.66408346999998 ], [ 105.569623400000069, -6.664082840999981 ], [ 105.569675157000063, -6.664054467999961 ], [ 105.569688197000062, -6.66408346999998 ] ] ], [ [ [ 105.569972082000049, -6.664053544999945 ], [ 105.569918059000088, -6.664047429999925 ], [ 105.56993731700004, -6.664013784999952 ], [ 105.569972082000049, -6.664053544999945 ] ] ], [ [ [ 105.569803183000033, -6.663950474999979 ], [ 105.569881361000057, -6.664096920999953 ], [ 105.569686741000055, -6.66403497999994 ], [ 105.569803183000033, -6.663950474999979 ] ] ], [ [ [ 105.569673474000069, -6.664000163999958 ], [ 105.569598024000072, -6.664010926999936 ], [ 105.569663275000039, -6.663972301999934 ], [ 105.569673474000069, -6.664000163999958 ] ] ], [ [ [ 105.569566720000068, -6.66394709399998 ], [ 105.569531448000077, -6.663945040999977 ], [ 105.569555328000035, -6.663918132999981 ], [ 105.569566720000068, -6.66394709399998 ] ] ], [ [ [ 105.569926821000081, -6.663933195999959 ], [ 105.569878348000088, -6.663880673999927 ], [ 105.569933224000067, -6.663920639999958 ], [ 105.569926821000081, -6.663933195999959 ] ] ], [ [ [ 105.56833239000008, -6.662969523999948 ], [ 105.56825417500005, -6.662951276999934 ], [ 105.568315142000074, -6.662920720999978 ], [ 105.56833239000008, -6.662969523999948 ] ] ], [ [ [ 105.568185047000043, -6.662832305999927 ], [ 105.568091053000046, -6.662824763999936 ], [ 105.568122308000056, -6.662781012999972 ], [ 105.568185047000043, -6.662832305999927 ] ] ], [ [ [ 105.567977106000058, -6.662086216999967 ], [ 105.567930324000088, -6.662067307999962 ], [ 105.567971496000041, -6.662060372999974 ], [ 105.567977106000058, -6.662086216999967 ] ] ], [ [ [ 105.567910625000081, -6.661732024999935 ], [ 105.56800062700006, -6.661712717999933 ], [ 105.568019406000076, -6.661735991999933 ], [ 105.567910625000081, -6.661732024999935 ] ] ], [ [ [ 105.567882982000071, -6.661627228999976 ], [ 105.567822755000066, -6.661632998999949 ], [ 105.56784973200007, -6.66160347899995 ], [ 105.567882982000071, -6.661627228999976 ] ] ], [ [ [ 105.579027724000071, -6.652806966999947 ], [ 105.580277352000053, -6.652897484999926 ], [ 105.580304326000032, -6.653903157999935 ], [ 105.579027724000071, -6.652806966999947 ] ] ], [ [ [ 105.569355438000059, -6.64625020699998 ], [ 105.571041110000067, -6.647425573999953 ], [ 105.569225628000083, -6.646890629999973 ], [ 105.569355438000059, -6.64625020699998 ] ] ], [ [ [ 105.580641062000041, -6.643555281999966 ], [ 105.583297406000042, -6.642650840999977 ], [ 105.583098594000035, -6.644329613999957 ], [ 105.580641062000041, -6.643555281999966 ] ] ], [ [ [ 105.898670459000073, -6.242196372999956 ], [ 105.916364, -6.250014000999954 ], [ 105.930303001000084, -6.281041 ], [ 105.934534389000078, -6.240269765999926 ], [ 105.946383, -6.237496 ], [ 105.949638, -6.24829 ], [ 105.977408744000059, -6.24574544799998 ], [ 105.981436034000069, -6.265158484999972 ], [ 106.001255, -6.275420000999929 ], [ 106.060466182000084, -6.266793336999967 ], [ 106.077473395000084, -6.251634870999965 ], [ 106.085047656000086, -6.227592300999959 ], [ 106.104801895000037, -6.239120413999956 ], [ 106.108747975000085, -6.252438807999965 ], [ 106.122616, -6.248931 ], [ 106.13496809600008, -6.25766024099994 ], [ 106.174157482000055, -6.250638010999978 ], [ 106.180235852000067, -6.257372167999961 ], [ 106.169437, -6.295701 ], [ 106.156442, -6.298144 ], [ 106.151500343000066, -6.325002512999959 ], [ 106.130066, -6.326916 ], [ 106.132118892000051, -6.34629149999995 ], [ 106.129512354000042, -6.357743814999935 ], [ 106.123790718000066, -6.356474456999933 ], [ 106.131538, -6.377459000999977 ], [ 106.113021693000064, -6.399250385999949 ], [ 106.118071, -6.420465 ], [ 106.109851001000038, -6.427285 ], [ 106.090497, -6.423863000999972 ], [ 106.063480001000073, -6.405052000999945 ], [ 106.055440735000047, -6.406670189999943 ], [ 106.055726735000064, -6.414419170999963 ], [ 106.042848176000064, -6.411339118999933 ], [ 106.036697269000058, -6.42805483199993 ], [ 106.023099, -6.431092 ], [ 106.023645628000054, -6.445230128999981 ], [ 105.983848911000052, -6.504119514999957 ], [ 105.98514235600004, -6.514986217999933 ], [ 105.974738712000033, -6.517293906999953 ], [ 105.982805450000058, -6.542062818999966 ], [ 105.965509429000065, -6.554914374999953 ], [ 105.92869031400005, -6.616573720999952 ], [ 105.942782001000069, -6.629524 ], [ 105.946218250000072, -6.660209046999967 ], [ 105.937507, -6.663603000999956 ], [ 105.919451, -6.717644 ], [ 105.900142, -6.721615000999975 ], [ 105.896235001000036, -6.716239998999981 ], [ 105.884033557000066, -6.764497270999925 ], [ 105.862968825000053, -6.781258582999953 ], [ 105.877800343000047, -6.794757834999928 ], [ 105.869461414000057, -6.810598342999981 ], [ 105.879211784000063, -6.813677321999933 ], [ 105.878090281000084, -6.822290882999937 ], [ 105.880585071000041, -6.817488648999927 ], [ 105.888397582000039, -6.820752141999947 ], [ 105.881954611000083, -6.83979887199996 ], [ 105.849686610000049, -6.833672629999967 ], [ 105.774233581000033, -6.850300137999966 ], [ 105.716708578000066, -6.836577050999949 ], [ 105.670521819000044, -6.836008166999932 ], [ 105.658144542000059, -6.844632225999931 ], [ 105.614616282000043, -6.843361521999952 ], [ 105.563330461000078, -6.85649959999995 ], [ 105.538023987000088, -6.874291564999965 ], [ 105.504893405000075, -6.86195104799998 ], [ 105.479300097000078, -6.865058965999935 ], [ 105.438953, -6.836136818999933 ], [ 105.421702095000057, -6.839329095999972 ], [ 105.421610048000048, -6.851976573999934 ], [ 105.413889090000055, -6.853761331999976 ], [ 105.404724281000085, -6.828620791999981 ], [ 105.327066632000083, -6.80262382199993 ], [ 105.295181823000064, -6.804938015999937 ], [ 105.267088424000065, -6.845081645999926 ], [ 105.237679479000064, -6.836041222999938 ], [ 105.244235807000052, -6.824711044999958 ], [ 105.235314817000074, -6.817079054999965 ], [ 105.238931241000046, -6.796286166999948 ], [ 105.220962787000076, -6.765492202999951 ], [ 105.210161705000075, -6.763457046999974 ], [ 105.212102987000037, -6.74564940199997 ], [ 105.234933124000065, -6.758094072999938 ], [ 105.263439805000075, -6.76107460999998 ], [ 105.279302544000075, -6.734991868999941 ], [ 105.330317229000059, -6.69596189899994 ], [ 105.327104271000053, -6.668102683999962 ], [ 105.369598097000051, -6.646426359999964 ], [ 105.400878616000057, -6.717218775999982 ], [ 105.401499489000059, -6.727445578999948 ], [ 105.394633979000048, -6.725108121999938 ], [ 105.38694311200004, -6.734399176999943 ], [ 105.389448425000069, -6.741252490999955 ], [ 105.40593033600004, -6.74902429499997 ], [ 105.423565394000036, -6.774345711999956 ], [ 105.430296014000078, -6.767434562999938 ], [ 105.44292856800007, -6.822195344999955 ], [ 105.463558314000068, -6.82841415799993 ], [ 105.478289146000066, -6.820802519999972 ], [ 105.479589666000038, -6.807600815999933 ], [ 105.50007310400008, -6.792254745999969 ], [ 105.503371802000061, -6.765525254999943 ], [ 105.512339884000085, -6.757128937999937 ], [ 105.506733116000078, -6.730376410999952 ], [ 105.55550439600006, -6.696751665999955 ], [ 105.561901221000085, -6.680835610999964 ], [ 105.571686052000075, -6.680618553999977 ], [ 105.575748422000061, -6.66444884799995 ], [ 105.569215187000054, -6.657660049999947 ], [ 105.597825092000051, -6.649266958999931 ], [ 105.611334499000066, -6.63293127399993 ], [ 105.626228228000059, -6.585356221999973 ], [ 105.616848244000039, -6.574851968999951 ], [ 105.616319643000054, -6.559048109999935 ], [ 105.650057867000044, -6.481173283999965 ], [ 105.663832495000065, -6.482902503999981 ], [ 105.665870838000046, -6.471557426999937 ], [ 105.677177147000066, -6.475799966999944 ], [ 105.67400120700006, -6.509316114999933 ], [ 105.714721047000069, -6.532706471999973 ], [ 105.732134162000079, -6.527175341999964 ], [ 105.732901337000044, -6.516993482999965 ], [ 105.752390391000063, -6.522110444999953 ], [ 105.772128855000062, -6.516482075999932 ], [ 105.797970191000047, -6.491467344999933 ], [ 105.822942543000067, -6.43726457799994 ], [ 105.82507976800008, -6.397798497999929 ], [ 105.807043201000056, -6.407005668999943 ], [ 105.826000999000087, -6.391607763999957 ], [ 105.808500418000051, -6.40218979399998 ], [ 105.825449320000075, -6.39052953199996 ], [ 105.818880448000073, -6.35936208399994 ], [ 105.828189320000035, -6.318680048999965 ], [ 105.840930481000044, -6.308923466999943 ], [ 105.840817735000087, -6.297166679999975 ], [ 105.826540627000043, -6.289083020999954 ], [ 105.826860421000049, -6.24778734399996 ], [ 105.840930074000084, -6.239979736999942 ], [ 105.877671173000067, -6.239582208999934 ], [ 105.884244889000058, -6.223419613999965 ], [ 105.898670459000073, -6.242196372999956 ] ] ], [ [ [ 105.722173818000044, -6.489209131999928 ], [ 105.723224557000037, -6.493344576999959 ], [ 105.719072150000045, -6.488083840999934 ], [ 105.722173818000044, -6.489209131999928 ] ] ], [ [ [ 105.804550490000054, -6.395663497999976 ], [ 105.811179134000042, -6.396017274999963 ], [ 105.808683304000056, -6.399161685999957 ], [ 105.804550490000054, -6.395663497999976 ] ] ] ] } },
{ "type": "Feature", "properties": { "kemendagri_kab_code": 3602, "kemendagri_kab_name": "Kabupaten Lebak", "kemendagri_prov_code": 36, "kemendagri_prov_name": "Banten" }, "geometry": { "type": "MultiPolygon", "coordinates": [ [ [ [ 106.105229895000036, -6.883771989999957 ], [ 106.105131100000051, -6.883792215999961 ], [ 106.105174636000072, -6.883723203999978 ], [ 106.105229895000036, -6.883771989999957 ] ] ], [ [ [ 106.105182192000086, -6.883664751999959 ], [ 106.105163026000071, -6.883662308999931 ], [ 106.105185101000075, -6.883650627999941 ], [ 106.105182192000086, -6.883664751999959 ] ] ], [ [ [ 106.105146699000045, -6.881094594999979 ], [ 106.105126879000068, -6.88110801199997 ], [ 106.105132479000076, -6.881077958999981 ], [ 106.105146699000045, -6.881094594999979 ] ] ], [ [ [ 106.096218590000035, -6.877177341999925 ], [ 106.09610344500004, -6.877205179999976 ], [ 106.096120068000062, -6.877090754999927 ], [ 106.096218590000035, -6.877177341999925 ] ] ], [ [ [ 106.096004829000037, -6.876999510999951 ], [ 106.096001336000086, -6.877116751999949 ], [ 106.095941720000042, -6.877022458999932 ], [ 106.096004829000037, -6.876999510999951 ] ] ], [ [ [ 106.096539915000051, -6.876956 ], [ 106.096418046000053, -6.877044139999953 ], [ 106.096470692000082, -6.876919809999947 ], [ 106.096539915000051, -6.876956 ] ] ], [ [ [ 106.096199302000059, -6.876826215999927 ], [ 106.096082476000049, -6.876782814999956 ], [ 106.096126808000065, -6.876702015999967 ], [ 106.096199302000059, -6.876826215999927 ] ] ], [ [ [ 106.095670331000065, -6.876604317999977 ], [ 106.095973876000073, -6.876757103999978 ], [ 106.095679078000046, -6.876734079999949 ], [ 106.095670331000065, -6.876604317999977 ] ] ], [ [ [ 106.095638401000087, -6.876547992999974 ], [ 106.095553521000056, -6.876562159999935 ], [ 106.095593777000033, -6.876444711999966 ], [ 106.095638401000087, -6.876547992999974 ] ] ], [ [ [ 106.095527465000032, -6.876488888999972 ], [ 106.095412795000072, -6.876501902999962 ], [ 106.095524390000037, -6.876442763999933 ], [ 106.095527465000032, -6.876488888999972 ] ] ], [ [ [ 106.095455084000037, -6.876268868999944 ], [ 106.09530645500007, -6.876252249999936 ], [ 106.095395312000051, -6.876224381999975 ], [ 106.095455084000037, -6.876268868999944 ] ] ], [ [ [ 106.094829868000033, -6.876086400999952 ], [ 106.094784436000054, -6.876134855999965 ], [ 106.094785028000047, -6.876064764999967 ], [ 106.094829868000033, -6.876086400999952 ] ] ], [ [ [ 106.094432488000052, -6.876062322999928 ], [ 106.094285627000033, -6.876037844999928 ], [ 106.094295548000048, -6.87597747999996 ], [ 106.094432488000052, -6.876062322999928 ] ] ], [ [ [ 106.094522377000033, -6.875744216999976 ], [ 106.094602903000066, -6.876057093999975 ], [ 106.094361669000079, -6.87594308599995 ], [ 106.094522377000033, -6.875744216999976 ] ] ], [ [ [ 106.079260748000081, -6.85614030499994 ], [ 106.079091973000061, -6.856111246999944 ], [ 106.079226415000051, -6.856008686999928 ], [ 106.079260748000081, -6.85614030499994 ] ] ], [ [ [ 106.119149230000062, -6.889255176999939 ], [ 106.11899608300007, -6.889295342999958 ], [ 106.119064059000038, -6.889172104999943 ], [ 106.119149230000062, -6.889255176999939 ] ] ], [ [ [ 106.119168161000061, -6.888873014999945 ], [ 106.119205698000087, -6.889134505999948 ], [ 106.119054524000035, -6.888934683999935 ], [ 106.119168161000061, -6.888873014999945 ] ] ], [ [ [ 106.119834557000047, -6.888593322999952 ], [ 106.119609342000047, -6.888506317999941 ], [ 106.119598710000048, -6.888479168999936 ], [ 106.119834557000047, -6.888593322999952 ] ] ], [ [ [ 106.119093102000079, -6.888379914999973 ], [ 106.119209887000068, -6.888634167999953 ], [ 106.11903798700007, -6.888433309999925 ], [ 106.119093102000079, -6.888379914999973 ] ] ], [ [ [ 106.105851829000073, -6.884428467999953 ], [ 106.10583594600007, -6.884355459999938 ], [ 106.105884175000085, -6.884378942999945 ], [ 106.105851829000073, -6.884428467999953 ] ] ], [ [ [ 106.105790230000082, -6.884332855999958 ], [ 106.105718332000038, -6.88437374199998 ], [ 106.105715036000049, -6.884321478999937 ], [ 106.105790230000082, -6.884332855999958 ] ] ], [ [ [ 106.10528848000007, -6.883738911999956 ], [ 106.10525709500007, -6.883716405999962 ], [ 106.105260983000051, -6.883705218999978 ], [ 106.10528848000007, -6.883738911999956 ] ] ], [ [ [ 106.105302098000038, -6.883639432999928 ], [ 106.105260180000073, -6.883691150999937 ], [ 106.105254241000068, -6.883623185999966 ], [ 106.105302098000038, -6.883639432999928 ] ] ], [ [ [ 106.107141358000035, -6.883604792999961 ], [ 106.107083326000065, -6.883609362999948 ], [ 106.107121583000037, -6.88357174999993 ], [ 106.107141358000035, -6.883604792999961 ] ] ], [ [ [ 106.105173625000077, -6.883469299999945 ], [ 106.105152384000064, -6.883563287999948 ], [ 106.105107636000071, -6.883533416999967 ], [ 106.105173625000077, -6.883469299999945 ] ] ], [ [ [ 106.107195399000034, -6.883489679999968 ], [ 106.107096520000084, -6.883516153999949 ], [ 106.107116621000046, -6.883480503999976 ], [ 106.107195399000034, -6.883489679999968 ] ] ], [ [ [ 106.106851562000088, -6.88343447099993 ], [ 106.106811873000083, -6.88337047899995 ], [ 106.106880766000074, -6.883397993999949 ], [ 106.106851562000088, -6.88343447099993 ] ] ], [ [ [ 106.106607486000087, -6.883316715999968 ], [ 106.106744193000054, -6.883258993999959 ], [ 106.106732864000037, -6.883434383999941 ], [ 106.106607486000087, -6.883316715999968 ] ] ], [ [ [ 106.106561978000059, -6.883253915999944 ], [ 106.106475836000072, -6.883241518999967 ], [ 106.106497207000075, -6.883157916999949 ], [ 106.106561978000059, -6.883253915999944 ] ] ], [ [ [ 106.214306356000066, -6.292861601999959 ], [ 106.225011512000037, -6.312493707999977 ], [ 106.234377693000056, -6.302135267999972 ], [ 106.243841212000063, -6.304640190999976 ], [ 106.245224197000084, -6.297010098999976 ], [ 106.258382303000076, -6.299057651999931 ], [ 106.259684453000034, -6.310804348999966 ], [ 106.277131365000059, -6.301421774999937 ], [ 106.280483656000058, -6.311702473999958 ], [ 106.308458620000067, -6.320046760999958 ], [ 106.31954756500005, -6.335149187999946 ], [ 106.400942660000055, -6.330301855999949 ], [ 106.410264928000061, -6.345063492999941 ], [ 106.429235540000036, -6.350331251999933 ], [ 106.434042198000043, -6.393809561999944 ], [ 106.453929337000034, -6.413958968999964 ], [ 106.444491799000048, -6.421537135999927 ], [ 106.454670011000076, -6.42692233799994 ], [ 106.44053434500006, -6.449510773999975 ], [ 106.401268710000068, -6.452933476999931 ], [ 106.411853532000066, -6.46804502699996 ], [ 106.403790475000051, -6.516722350999942 ], [ 106.422037140000043, -6.549911084999962 ], [ 106.417086217000076, -6.562311403999956 ], [ 106.430010821000053, -6.580048113999965 ], [ 106.429276328000071, -6.68105539499993 ], [ 106.449309833000086, -6.707166463999954 ], [ 106.450711288000036, -6.726714580999953 ], [ 106.466770867000037, -6.75100309499993 ], [ 106.499567360000071, -6.752425461999962 ], [ 106.526167244000078, -6.767843073999927 ], [ 106.497649476000049, -6.791170723999926 ], [ 106.457240771000045, -6.803730993999977 ], [ 106.447384929000066, -6.818386953999948 ], [ 106.436089924000044, -6.819777742999975 ], [ 106.431079992000036, -6.862095580999949 ], [ 106.392898544000047, -6.900634793999927 ], [ 106.400287420000041, -6.923598629999958 ], [ 106.389657859000067, -6.942165259999967 ], [ 106.397116757000049, -6.978486461999978 ], [ 106.38065510000007, -6.995096158999957 ], [ 106.372651691000044, -6.989703110999926 ], [ 106.343254031000072, -6.997482091999927 ], [ 106.337012866000066, -6.986572702999979 ], [ 106.310026435000054, -6.995701082999972 ], [ 106.301657228000067, -6.979620136999927 ], [ 106.269475625000041, -6.976274746999934 ], [ 106.260885534000067, -6.963852811999971 ], [ 106.245592242000043, -6.960556806999932 ], [ 106.23584659900007, -6.951650317999963 ], [ 106.248924227000089, -6.93951481299996 ], [ 106.237714495000034, -6.930870142999936 ], [ 106.184866475000035, -6.909433774999968 ], [ 106.197329965000051, -6.912121407999962 ], [ 106.197633661000054, -6.910856201999934 ], [ 106.196663871000055, -6.909805659999961 ], [ 106.196022842000048, -6.909476395999945 ], [ 106.165189936000047, -6.908574551999948 ], [ 106.135911541000041, -6.893196254999964 ], [ 106.106121629000086, -6.882933650999973 ], [ 106.105504486000086, -6.880193770999938 ], [ 106.103029981000077, -6.877972081999928 ], [ 106.094556080000075, -6.875648553999952 ], [ 106.064050438000038, -6.836312828999951 ], [ 106.032248822000042, -6.820773376999966 ], [ 105.969339954000077, -6.81155537099994 ], [ 105.920897697000044, -6.815554261999978 ], [ 105.894547765000084, -6.826681176999955 ], [ 105.900601560000041, -6.842777973999944 ], [ 105.882674703000077, -6.845621341999959 ], [ 105.87995182800006, -6.831456178999929 ], [ 105.888397582000039, -6.820752141999947 ], [ 105.878090281000084, -6.822290882999937 ], [ 105.879211784000063, -6.813677321999933 ], [ 105.868706113000087, -6.808901772999945 ], [ 105.874977483000066, -6.80863618799998 ], [ 105.877800343000047, -6.794757834999928 ], [ 105.862968825000053, -6.781258582999953 ], [ 105.884033557000066, -6.764497270999925 ], [ 105.892509802000063, -6.720810901999926 ], [ 105.919451, -6.717644 ], [ 105.937507, -6.663603000999956 ], [ 105.946218250000072, -6.660209046999967 ], [ 105.942782001000069, -6.629524 ], [ 105.92869031400005, -6.616573720999952 ], [ 105.933301001000075, -6.601889 ], [ 105.966245312000069, -6.55400850999996 ], [ 105.975175400000069, -6.552036536999935 ], [ 105.975156888000072, -6.542290829999956 ], [ 105.982805450000058, -6.542062818999966 ], [ 105.974738712000033, -6.517293906999953 ], [ 105.98514235600004, -6.514986217999933 ], [ 105.997924434000083, -6.479334183999981 ], [ 106.009392967000053, -6.473606021999956 ], [ 106.023921, -6.42966200099994 ], [ 106.036352248000071, -6.428387956999927 ], [ 106.042848176000064, -6.411339118999933 ], [ 106.055726735000064, -6.414419170999963 ], [ 106.058593, -6.404990000999931 ], [ 106.089817, -6.423621 ], [ 106.112142729000084, -6.426708915999939 ], [ 106.118071, -6.420465 ], [ 106.111669072000041, -6.410969707999925 ], [ 106.115213573000062, -6.393311012999959 ], [ 106.131538, -6.377459000999977 ], [ 106.123790718000066, -6.356474456999933 ], [ 106.129512354000042, -6.357743814999935 ], [ 106.132118892000051, -6.34629149999995 ], [ 106.130155144000071, -6.326699868999981 ], [ 106.151500343000066, -6.325002512999959 ], [ 106.156442, -6.298144 ], [ 106.170128256000055, -6.29073627799994 ], [ 106.214306356000066, -6.292861601999959 ] ] ], [ [ [ 106.349517340000034, -6.996844203999956 ], [ 106.349855216000037, -6.996852073999946 ], [ 106.349417532000075, -6.997005445999946 ], [ 106.349517340000034, -6.996844203999956 ] ] ], [ [ [ 106.376139223000052, -6.99571020999997 ], [ 106.375872188000073, -6.995616016999975 ], [ 106.376130366000041, -6.995540130999927 ], [ 106.376139223000052, -6.99571020999997 ] ] ], [ [ [ 106.376074256000038, -6.995365456999934 ], [ 106.375812569000061, -6.995321520999937 ], [ 106.375994541000068, -6.995257411999944 ], [ 106.376074256000038, -6.995365456999934 ] ] ], [ [ [ 106.307057844000042, -6.994921592999958 ], [ 106.307037656000034, -6.995041387999947 ], [ 106.306724854000038, -6.995022377999931 ], [ 106.307057844000042, -6.994921592999958 ] ] ], [ [ [ 106.36142912300005, -6.994733 ], [ 106.361721836000072, -6.99489839499995 ], [ 106.361435031000042, -6.995142947999966 ], [ 106.36142912300005, -6.994733 ] ] ], [ [ [ 106.375955904000079, -6.994823226999927 ], [ 106.375588935000053, -6.994932468999934 ], [ 106.375756528000068, -6.994651193999971 ], [ 106.375955904000079, -6.994823226999927 ] ] ], [ [ [ 106.374708841000086, -6.994698723999932 ], [ 106.374832801000082, -6.994796436999934 ], [ 106.374679989000072, -6.994824834999974 ], [ 106.374708841000086, -6.994698723999932 ] ] ], [ [ [ 106.376368523000053, -6.99462626299993 ], [ 106.376267413000051, -6.994828776999952 ], [ 106.376063153000075, -6.994726242999945 ], [ 106.376368523000053, -6.99462626299993 ] ] ], [ [ [ 106.374956100000077, -6.994551252999941 ], [ 106.375047814000084, -6.994652981999934 ], [ 106.374946606000037, -6.99461815199993 ], [ 106.374956100000077, -6.994551252999941 ] ] ], [ [ [ 106.370211322000046, -6.992184135999935 ], [ 106.369801327000062, -6.992058889999953 ], [ 106.369939464000083, -6.99185142999994 ], [ 106.370211322000046, -6.992184135999935 ] ] ], [ [ [ 106.325327814000048, -6.991331909999928 ], [ 106.326367720000064, -6.991220580999936 ], [ 106.325133346000086, -6.991658448999942 ], [ 106.325327814000048, -6.991331909999928 ] ] ], [ [ [ 106.279593532000035, -6.979903362999949 ], [ 106.279981958000064, -6.980024364999963 ], [ 106.279702746000055, -6.98027000299993 ], [ 106.279593532000035, -6.979903362999949 ] ] ], [ [ [ 106.397043764000045, -6.978754464999952 ], [ 106.397292126000082, -6.978837458999976 ], [ 106.397065630000043, -6.978914742999962 ], [ 106.397043764000045, -6.978754464999952 ] ] ], [ [ [ 106.261809192000044, -6.971321754999963 ], [ 106.26134492400007, -6.97199203699995 ], [ 106.261659234000035, -6.971301917999938 ], [ 106.261809192000044, -6.971321754999963 ] ] ] ] } },
{ "type": "Feature", "properties": { "kemendagri_kab_code": 3603, "kemendagri_kab_name": "Kabupaten Tangerang", "kemendagri_prov_code": 36, "kemendagri_prov_name": "Banten" }, "geometry": { "type": "MultiPolygon", "coordinates": [ [ [ [ 106.647656797000081, -6.005963174999977 ], [ 106.66352603100006, -6.022332296999934 ], [ 106.679318475000059, -6.012756834999948 ], [ 106.709715863000042, -6.03656314899996 ], [ 106.71489841500005, -6.044718536999937 ], [ 106.708682631000045, -6.055756722999945 ], [ 106.725044145000084, -6.089651080999943 ], [ 106.675772, -6.098609 ], [ 106.672558665000054, -6.119462408999937 ], [ 106.641351508000071, -6.122634400999971 ], [ 106.642795702000058, -6.108585606999952 ], [ 106.635798273000034, -6.10610601999997 ], [ 106.632094, -6.120226000999935 ], [ 106.614008134000073, -6.126103863999958 ], [ 106.613366036000059, -6.147775503999981 ], [ 106.590379019000068, -6.148218541999938 ], [ 106.592036, -6.158523 ], [ 106.551454006000085, -6.190039463999938 ], [ 106.552614647000041, -6.199490200999946 ], [ 106.582918, -6.220678000999953 ], [ 106.592368, -6.21999 ], [ 106.601103398000078, -6.205540368999948 ], [ 106.61253408500005, -6.215903922999928 ], [ 106.611634001000084, -6.227154000999974 ], [ 106.638679583000055, -6.230237077999959 ], [ 106.651947472000074, -6.269236666999973 ], [ 106.646220119000077, -6.27828253499996 ], [ 106.657529231000069, -6.289840690999938 ], [ 106.655476199000077, -6.315779808999935 ], [ 106.662162372000068, -6.317285995999953 ], [ 106.647014149000086, -6.340426267999931 ], [ 106.656713052000043, -6.359632882999961 ], [ 106.593864616000076, -6.36272452299994 ], [ 106.577294355000049, -6.338565284999959 ], [ 106.557955524000079, -6.340609667999956 ], [ 106.526839550000034, -6.324617167999975 ], [ 106.513298255000052, -6.325706414999956 ], [ 106.531883480000033, -6.339636740999936 ], [ 106.519325716000083, -6.354865034999932 ], [ 106.476269440000067, -6.350747770999931 ], [ 106.48416738700007, -6.325322656999958 ], [ 106.468959314000074, -6.303281611999978 ], [ 106.442518661000065, -6.32407515899996 ], [ 106.427692616000058, -6.348456800999941 ], [ 106.410264928000061, -6.345063492999941 ], [ 106.399322752000046, -6.31600698799997 ], [ 106.391922263000083, -6.313926078999941 ], [ 106.398819234000086, -6.300483589999942 ], [ 106.382782237000072, -6.261917935999975 ], [ 106.387108108000064, -6.230320327999948 ], [ 106.366440092000062, -6.214778277999926 ], [ 106.379287979000082, -6.200752117999969 ], [ 106.373779552000087, -6.191479534999928 ], [ 106.390754940000079, -6.179121848999955 ], [ 106.392578380000089, -6.151805281999941 ], [ 106.37723567900008, -6.128857471999936 ], [ 106.350738806000038, -6.109929437999938 ], [ 106.353531151000084, -6.092441898999937 ], [ 106.339386240000067, -6.06317839899998 ], [ 106.349998738000068, -6.062485581999965 ], [ 106.351875567000036, -6.049804558999938 ], [ 106.366523997000058, -6.038467762999971 ], [ 106.380382350000048, -6.03910733999993 ], [ 106.38275400100008, -6.02975700099995 ], [ 106.393112439000049, -6.027651682999931 ], [ 106.40747857000008, -6.030905141999938 ], [ 106.413881309000033, -6.024238704999959 ], [ 106.431606299000066, -6.033070531999954 ], [ 106.441340615000058, -6.028043976999925 ], [ 106.466738551000049, -6.039552835999928 ], [ 106.468998246000069, -6.031204094999964 ], [ 106.469239643000037, -6.042443359999936 ], [ 106.471571515000051, -6.031640606999929 ], [ 106.470713953000086, -6.044697449999944 ], [ 106.485071135000055, -6.048668 ], [ 106.523427428000048, -6.032924030999936 ], [ 106.535175496000079, -6.010459431999948 ], [ 106.552330796000035, -6.025266346999956 ], [ 106.586678351000046, -6.032488582999974 ], [ 106.626593467000077, -6.011448636999944 ], [ 106.632173586000079, -6.016539079999973 ], [ 106.647656797000081, -6.005963174999977 ] ] ], [ [ [ 106.633033666000074, -6.00644817899996 ], [ 106.643543606000037, -6.006400108999969 ], [ 106.633335719000058, -6.014004866999926 ], [ 106.633033666000074, -6.00644817899996 ] ] ] ] } },
{ "type": "Feature", "properties": { "kemendagri_kab_code": 3604, "kemendagri_kab_name": "Kabupaten Serang", "kemendagri_prov_code": 36, "kemendagri_prov_name": "Banten" }, "geometry": { "type": "MultiPolygon", "coordinates": [ [ [ [ 105.852219221000041, -6.137895502999925 ], [ 105.852308451000056, -6.137827688999948 ], [ 105.852265620000082, -6.137891933999981 ], [ 105.852219221000041, -6.137895502999925 ] ] ], [ [ [ 105.852001500000085, -6.137559998999961 ], [ 105.85205503800006, -6.137631382999928 ], [ 105.852012208000076, -6.137631382999928 ], [ 105.852001500000085, -6.137559998999961 ] ] ], [ [ [ 105.857269672000086, -5.937896856999942 ], [ 105.866188323000074, -5.967579089999958 ], [ 105.850968888000068, -5.980172376999974 ], [ 105.848733220000042, -5.958402005999972 ], [ 105.82972146600008, -5.950589191999939 ], [ 105.857269672000086, -5.937896856999942 ] ] ], [ [ [ 106.090756379000084, -5.899391067999943 ], [ 106.090863583000043, -5.899364075999927 ], [ 106.090832875000046, -5.899460067999939 ], [ 106.090756379000084, -5.899391067999943 ] ] ], [ [ [ 106.090907104000053, -5.899249502999965 ], [ 106.091120045000082, -5.899199117999956 ], [ 106.090965965000066, -5.899252462999925 ], [ 106.091044578000037, -5.899306190999937 ], [ 106.091005399000039, -5.899392642999942 ], [ 106.090925678000076, -5.899403779999943 ], [ 106.090907104000053, -5.899249502999965 ] ] ], [ [ [ 106.091269882000063, -5.899216165999974 ], [ 106.091278607000049, -5.899167211999952 ], [ 106.091308306000087, -5.899205959999961 ], [ 106.091269882000063, -5.899216165999974 ] ] ], [ [ [ 106.091215265000073, -5.899126704999958 ], [ 106.091214975000071, -5.899052796999968 ], [ 106.091272149000076, -5.899088843999948 ], [ 106.091215265000073, -5.899126704999958 ] ] ], [ [ [ 106.090472652000074, -5.899178685999971 ], [ 106.090861905000054, -5.899105624999947 ], [ 106.090774391000082, -5.899321493999935 ], [ 106.090472652000074, -5.899178685999971 ] ] ], [ [ [ 106.090413466000086, -5.899050713999941 ], [ 106.090553094000086, -5.898928935999947 ], [ 106.09053994900006, -5.899009281999952 ], [ 106.090413466000086, -5.899050713999941 ] ] ], [ [ [ 106.091005100000075, -5.898937504999935 ], [ 106.09113521900008, -5.898950747999947 ], [ 106.091156167000065, -5.898990750999928 ], [ 106.091066544000057, -5.899022254999977 ], [ 106.091005100000075, -5.898937504999935 ] ] ], [ [ [ 106.090938937000033, -5.898591809999971 ], [ 106.091095144000064, -5.898746463999942 ], [ 106.090900829000077, -5.898757584999942 ], [ 106.090938937000033, -5.898591809999971 ] ] ], [ [ [ 106.09053384200007, -5.898500737999939 ], [ 106.090747250000049, -5.898616026999946 ], [ 106.090684417000034, -5.898795086999939 ], [ 106.09053384200007, -5.898500737999939 ] ] ], [ [ [ 106.089118707000068, -5.897340357999951 ], [ 106.090419547000067, -5.897903281999959 ], [ 106.090140073000043, -5.898467871999969 ], [ 106.089118707000068, -5.897340357999951 ] ] ], [ [ [ 106.061353434000068, -5.879542192999963 ], [ 106.060721206000039, -5.879249019999975 ], [ 106.061296391000042, -5.879282119999971 ], [ 106.061353434000068, -5.879542192999963 ] ] ], [ [ [ 106.044287313000041, -5.875591002999954 ], [ 106.049963207000076, -5.880245187999947 ], [ 106.047535783000058, -5.883993092999958 ], [ 106.072159954000085, -5.882323348999932 ], [ 106.101352946000077, -5.911654277999958 ], [ 106.114334341000074, -5.930958905999944 ], [ 106.104306787000041, -5.944310392999967 ], [ 106.11239938500006, -5.961155527999949 ], [ 106.10435371300008, -5.964395361999948 ], [ 106.104987774000051, -5.973645918999978 ], [ 106.113147155000036, -5.974377852999964 ], [ 106.104441654000084, -5.978400628999964 ], [ 106.113650027000062, -5.988946734999956 ], [ 106.10282249800008, -5.98724881499993 ], [ 106.10313694000007, -5.988394716999949 ], [ 106.10107563400004, -5.987187209999945 ], [ 106.099911302000066, -5.988076236999973 ], [ 106.110793661000059, -5.995422020999968 ], [ 106.122931506000043, -5.985540292999929 ], [ 106.113386044000038, -6.002880683999933 ], [ 106.148343570000065, -6.020333840999967 ], [ 106.142707502000064, -6.057673353999974 ], [ 106.148884601000077, -6.067554857999937 ], [ 106.110067271000048, -6.085752353999965 ], [ 106.088512899000079, -6.11724462199993 ], [ 106.074349569000049, -6.12173218099997 ], [ 106.069215764000035, -6.133421361999979 ], [ 106.07617263800006, -6.150065161999976 ], [ 106.065932499000041, -6.174371175999966 ], [ 106.075745103000088, -6.182969994999951 ], [ 106.086421671000039, -6.173533794999969 ], [ 106.102540409000085, -6.173419266999929 ], [ 106.111369456000034, -6.181975148999925 ], [ 106.122007082000039, -6.167873430999975 ], [ 106.149582333000069, -6.16938958399993 ], [ 106.151230590000068, -6.179287560999967 ], [ 106.134881974000052, -6.192396224999925 ], [ 106.138038913000059, -6.209292569999945 ], [ 106.192254974000036, -6.217978967999954 ], [ 106.199889336000069, -6.198424278999937 ], [ 106.228446982000037, -6.194741205999946 ], [ 106.219544270000085, -6.18687816299996 ], [ 106.23300118700007, -6.17081541999994 ], [ 106.241861637000056, -6.17399878699996 ], [ 106.251161651000075, -6.159141297999952 ], [ 106.255740775000049, -6.146234676999939 ], [ 106.242264806000037, -6.13072238899997 ], [ 106.222330797000041, -6.126195204999931 ], [ 106.230196038000088, -6.099288293999962 ], [ 106.219242146000056, -6.083401869999932 ], [ 106.225657899000055, -6.038743973999942 ], [ 106.216394060000084, -6.016224404999946 ], [ 106.24321185000008, -5.990588402999947 ], [ 106.244246868000062, -5.967024851999952 ], [ 106.265047002000074, -5.95889428299995 ], [ 106.306751306000081, -5.968612555999925 ], [ 106.332921536000072, -5.986468149999951 ], [ 106.355360379000047, -5.961842692999937 ], [ 106.355478787000038, -5.970512028999963 ], [ 106.357709533000047, -5.974432784999976 ], [ 106.363052018000076, -5.964242743999932 ], [ 106.389093174000038, -5.978154803999928 ], [ 106.409866583000053, -6.028753172999927 ], [ 106.382943, -6.029657 ], [ 106.380382350000048, -6.03910733999993 ], [ 106.366523997000058, -6.038467762999971 ], [ 106.339279438000062, -6.068133207999949 ], [ 106.352829239000073, -6.089557041999967 ], [ 106.350738806000038, -6.109929437999938 ], [ 106.37723567900008, -6.128857471999936 ], [ 106.392578380000089, -6.151805281999941 ], [ 106.390754940000079, -6.179121848999955 ], [ 106.373779552000087, -6.191479534999928 ], [ 106.379287979000082, -6.200752117999969 ], [ 106.366440092000062, -6.214778277999926 ], [ 106.387108108000064, -6.230320327999948 ], [ 106.382782237000072, -6.261917935999975 ], [ 106.395134247000044, -6.279893258999948 ], [ 106.390312450000067, -6.28178870499994 ], [ 106.398933677000059, -6.302556854999978 ], [ 106.391922263000083, -6.313926078999941 ], [ 106.399322752000046, -6.31600698799997 ], [ 106.400942660000055, -6.330301855999949 ], [ 106.31954756500005, -6.335149187999946 ], [ 106.308458620000067, -6.320046760999958 ], [ 106.280483656000058, -6.311702473999958 ], [ 106.277131365000059, -6.301421774999937 ], [ 106.259684453000034, -6.310804348999966 ], [ 106.25930113000004, -6.299947889999942 ], [ 106.245954210000036, -6.29699097699995 ], [ 106.243841212000063, -6.304640190999976 ], [ 106.234377693000056, -6.302135267999972 ], [ 106.222496297000077, -6.311707365999951 ], [ 106.213712494000049, -6.29257475999998 ], [ 106.171820039000067, -6.291328888999942 ], [ 106.179768183000078, -6.271404902999961 ], [ 106.174511043000052, -6.250835223999957 ], [ 106.13496809600008, -6.25766024099994 ], [ 106.122616, -6.248931 ], [ 106.109675189000086, -6.252706427999954 ], [ 106.104801895000037, -6.239120413999956 ], [ 106.08551422000005, -6.227591340999936 ], [ 106.065887085000043, -6.263524141999937 ], [ 106.026987650000081, -6.275217006999981 ], [ 105.994894, -6.273894 ], [ 105.992309556000066, -6.265602249999972 ], [ 105.981436034000069, -6.265158484999972 ], [ 105.977408744000059, -6.24574544799998 ], [ 105.949638, -6.24829 ], [ 105.946978001000048, -6.237450000999957 ], [ 105.934534389000078, -6.240269765999926 ], [ 105.930303001000084, -6.281041 ], [ 105.916364, -6.250014000999954 ], [ 105.898499671000081, -6.243555209999954 ], [ 105.885090115000082, -6.223480765999966 ], [ 105.877671173000067, -6.239582208999934 ], [ 105.840930074000084, -6.239979736999942 ], [ 105.826860421000049, -6.24778734399996 ], [ 105.85618671800006, -6.141023463999943 ], [ 105.880117079000058, -6.109180641999956 ], [ 105.884863027000051, -6.069599555999957 ], [ 105.922500592000063, -6.046671346999972 ], [ 105.937614308000036, -6.052565929999957 ], [ 105.944334753000078, -6.045892896999931 ], [ 105.95372817100008, -6.058070333999979 ], [ 105.972120360000076, -6.049623172999929 ], [ 105.986561213000073, -6.062411924999935 ], [ 105.984846610000034, -6.03791446699995 ], [ 106.003238457000066, -6.046292582999968 ], [ 106.029639112000041, -6.040008723999961 ], [ 106.020286233000036, -6.078088620999949 ], [ 106.036314230000073, -6.080132885999944 ], [ 106.049892001000046, -6.075491000999932 ], [ 106.065914711000062, -6.044523225999967 ], [ 106.085069001000079, -6.035612 ], [ 106.088032417000079, -6.002540674999977 ], [ 106.064298767000082, -5.993072856999959 ], [ 106.057891362000078, -5.958701700999939 ], [ 106.031415073000062, -5.933825389999981 ], [ 106.044803861000048, -5.911551419999967 ], [ 106.039628597000046, -5.89965803299998 ], [ 106.044287313000041, -5.875591002999954 ] ] ], [ [ [ 106.154269333000059, -6.000917732999937 ], [ 106.155166808000047, -6.000932073999934 ], [ 106.155290477000051, -6.002904858999955 ], [ 106.154269333000059, -6.000917732999937 ] ] ], [ [ [ 106.14908728100005, -5.995850001999941 ], [ 106.150536297000087, -5.996281329999931 ], [ 106.149727087000088, -5.998359443999959 ], [ 106.14908728100005, -5.995850001999941 ] ] ], [ [ [ 106.149289329000055, -5.980872078999937 ], [ 106.151175814000055, -5.981279676999975 ], [ 106.151904488000071, -5.982866295999941 ], [ 106.149289329000055, -5.980872078999937 ] ] ], [ [ [ 106.35748458900008, -5.962972037999975 ], [ 106.360731247000047, -5.964818600999934 ], [ 106.357510884000078, -5.973295668999981 ], [ 106.35748458900008, -5.962972037999975 ] ] ], [ [ [ 106.192814593000037, -5.964953409999964 ], [ 106.192662556000073, -5.96371869099994 ], [ 106.193490608000047, -5.964061332999961 ], [ 106.192814593000037, -5.964953409999964 ] ] ], [ [ [ 106.354336344000046, -5.951265475999946 ], [ 106.350209566000046, -5.955775217999928 ], [ 106.350466030000064, -5.951535849999971 ], [ 106.354336344000046, -5.951265475999946 ] ] ], [ [ [ 106.113457760000074, -5.94818859999998 ], [ 106.116759296000055, -5.950413650999963 ], [ 106.115741622000087, -5.951751731999934 ], [ 106.113457760000074, -5.94818859999998 ] ] ], [ [ [ 106.215515278000055, -5.942854951999948 ], [ 106.220758827000054, -5.941226870999969 ], [ 106.221632361000047, -5.943242035999958 ], [ 106.215515278000055, -5.942854951999948 ] ] ], [ [ [ 106.169419946000062, -5.938075133999973 ], [ 106.17039552500006, -5.938531989999944 ], [ 106.170267034000062, -5.939022158999933 ], [ 106.169419946000062, -5.938075133999973 ] ] ], [ [ [ 106.15155042400005, -5.919647419999933 ], [ 106.169175092000046, -5.934974558999954 ], [ 106.157106387000056, -5.94487831999993 ], [ 106.139674217000049, -5.935947488999943 ], [ 106.139172469000073, -5.921788934999938 ], [ 106.15155042400005, -5.919647419999933 ] ] ], [ [ [ 106.094071948000078, -5.902909444999977 ], [ 106.094071842000062, -5.900992840999947 ], [ 106.094413393000082, -5.902057457999945 ], [ 106.094071948000078, -5.902909444999977 ] ] ], [ [ [ 106.254291294000041, -5.810786386999951 ], [ 106.290516209000089, -5.809035102999928 ], [ 106.294913453000049, -5.811476429999971 ], [ 106.286276009000062, -5.816982502999963 ], [ 106.254291294000041, -5.810786386999951 ] ] ] ] } },
{ "type": "Feature", "properties": { "kemendagri_kab_code": 3671, "kemendagri_kab_name": "Kota Tangerang", "kemendagri_prov_code": 36, "kemendagri_prov_name": "Banten" }, "geometry": { "type": "Polygon", "coordinates": [ [ [ 106.687992792000045, -6.097068797999952 ], [ 106.696886968000058, -6.110590307999928 ], [ 106.685804723000047, -6.128427215999977 ], [ 106.686811430000034, -6.172372014999951 ], [ 106.724369552000041, -6.184962643999938 ], [ 106.713440094000077, -6.191766390999931 ], [ 106.724712649000082, -6.193951838999965 ], [ 106.718089487000043, -6.223044396999967 ], [ 106.743308092000063, -6.227564119999954 ], [ 106.747231364000072, -6.251472193999973 ], [ 106.704010964000076, -6.256101131999969 ], [ 106.687103408000041, -6.238568586999975 ], [ 106.688113559000044, -6.230242127999929 ], [ 106.611864, -6.227262 ], [ 106.61253408500005, -6.215903922999928 ], [ 106.601103398000078, -6.205540368999948 ], [ 106.588122, -6.222506 ], [ 106.552614647000041, -6.199490200999946 ], [ 106.552648, -6.184794 ], [ 106.579221001000064, -6.172038 ], [ 106.592036, -6.158523 ], [ 106.590379019000068, -6.148218541999938 ], [ 106.613366036000059, -6.147775503999981 ], [ 106.614008134000073, -6.126103863999958 ], [ 106.632094, -6.120226000999935 ], [ 106.635798273000034, -6.10610601999997 ], [ 106.642795702000058, -6.108585606999952 ], [ 106.644637355000043, -6.122657727999979 ], [ 106.672558665000054, -6.119462408999937 ], [ 106.675772, -6.098609 ], [ 106.687992792000045, -6.097068797999952 ] ] ] } },
{ "type": "Feature", "properties": { "kemendagri_kab_code": 3672, "kemendagri_kab_name": "Kota Cilegon", "kemendagri_prov_code": 36, "kemendagri_prov_name": "Banten" }, "geometry": { "type": "MultiPolygon", "coordinates": [ [ [ [ 105.923801127000047, -6.048994709999931 ], [ 105.924174880000066, -6.048744849999935 ], [ 105.923929135000037, -6.048988560999931 ], [ 105.923801127000047, -6.048994709999931 ] ] ], [ [ [ 105.923592301000042, -6.04844554899995 ], [ 105.924428716000079, -6.047292450999976 ], [ 105.923725273000059, -6.048934891999977 ], [ 105.923592301000042, -6.04844554899995 ] ] ], [ [ [ 105.928558415000055, -6.007735729999979 ], [ 105.927423494000038, -6.007718001999933 ], [ 105.927876626000057, -6.007248961999949 ], [ 105.928558415000055, -6.007735729999979 ] ] ], [ [ [ 106.04099922100005, -5.879612989999941 ], [ 106.044826951000061, -5.911434733999954 ], [ 106.031415073000062, -5.933825389999981 ], [ 106.057891362000078, -5.958701700999939 ], [ 106.064298767000082, -5.993072856999959 ], [ 106.088032417000079, -6.002540674999977 ], [ 106.085069001000079, -6.035612 ], [ 106.064039709000042, -6.046490333999941 ], [ 106.049741999000048, -6.075622 ], [ 106.033430096000075, -6.080545581999957 ], [ 106.020286233000036, -6.078088620999949 ], [ 106.029639112000041, -6.040008723999961 ], [ 106.003238457000066, -6.046292582999968 ], [ 105.984846610000034, -6.03791446699995 ], [ 105.986561213000073, -6.062411924999935 ], [ 105.972120360000076, -6.049623172999929 ], [ 105.95372817100008, -6.058070333999979 ], [ 105.944334753000078, -6.045892896999931 ], [ 105.938112219000061, -6.052504693999936 ], [ 105.924523581000074, -6.048442869999974 ], [ 105.941977686000087, -6.021259149999935 ], [ 105.957564261000073, -6.020115663999945 ], [ 105.95874524900006, -6.011632930999951 ], [ 105.969748272000061, -6.011084856999958 ], [ 105.971398469000064, -6.000240299999973 ], [ 105.983194809000054, -5.99651696799998 ], [ 106.002664818000085, -5.947803619999945 ], [ 105.991740052000068, -5.922927615999981 ], [ 106.003845005000073, -5.920780141999956 ], [ 106.001187371000071, -5.913121195999963 ], [ 106.018593809000038, -5.901559694999946 ], [ 106.015929012000072, -5.894100880999929 ], [ 106.04099922100005, -5.879612989999941 ] ] ], [ [ [ 105.997211144000062, -5.941569715999947 ], [ 105.997474675000035, -5.942134545999977 ], [ 105.996317943000065, -5.94215377699993 ], [ 105.997211144000062, -5.941569715999947 ] ] ], [ [ [ 105.985420437000073, -5.931731553999953 ], [ 105.993711038000072, -5.933245439999951 ], [ 105.987629208000044, -5.937239192999925 ], [ 105.985420437000073, -5.931731553999953 ] ] ], [ [ [ 106.010403378000035, -5.901947721999932 ], [ 106.011610791000066, -5.902018647999967 ], [ 106.011824702000069, -5.902879214999928 ], [ 106.010403378000035, -5.901947721999932 ] ] ], [ [ [ 105.932241651000083, -5.902063584999951 ], [ 105.930099830000074, -5.901483755999948 ], [ 105.93132472700006, -5.900674424999977 ], [ 105.932241651000083, -5.902063584999951 ] ] ] ] } },
{ "type": "Feature", "properties": { "kemendagri_kab_code": 3673, "kemendagri_kab_name": "Kota Serang", "kemendagri_prov_code": 36, "kemendagri_prov_name": "Banten" }, "geometry": { "type": "Polygon", "coordinates": [ [ [ 106.216394060000084, -6.016224404999946 ], [ 106.225657899000055, -6.038743973999942 ], [ 106.219242146000056, -6.083401869999932 ], [ 106.230196038000088, -6.099288293999962 ], [ 106.222506658000043, -6.126799021999943 ], [ 106.24110360800006, -6.129594732999976 ], [ 106.255740775000049, -6.146234676999939 ], [ 106.241861637000056, -6.17399878699996 ], [ 106.23300118700007, -6.17081541999994 ], [ 106.219544270000085, -6.18687816299996 ], [ 106.229593687000033, -6.193553727999927 ], [ 106.200248742000042, -6.198224440999979 ], [ 106.192299982000065, -6.217943961999936 ], [ 106.175368422000076, -6.218874294999978 ], [ 106.158198859000038, -6.214841562999936 ], [ 106.157256066000059, -6.207445907999954 ], [ 106.137672059000067, -6.208947512999941 ], [ 106.134881974000052, -6.192396224999925 ], [ 106.151230590000068, -6.179287560999967 ], [ 106.149582333000069, -6.16938958399993 ], [ 106.122007082000039, -6.167873430999975 ], [ 106.111369456000034, -6.181975148999925 ], [ 106.102540409000085, -6.173419266999929 ], [ 106.086421671000039, -6.173533794999969 ], [ 106.075745103000088, -6.182969994999951 ], [ 106.066998409000064, -6.17666638299994 ], [ 106.07617263800006, -6.150065161999976 ], [ 106.069215764000035, -6.133421361999979 ], [ 106.074349569000049, -6.12173218099997 ], [ 106.088512899000079, -6.11724462199993 ], [ 106.110067271000048, -6.085752353999965 ], [ 106.148884601000077, -6.067554857999937 ], [ 106.142707502000064, -6.057673353999974 ], [ 106.148343570000065, -6.020333840999967 ], [ 106.181394240000088, -6.027113000999975 ], [ 106.194487154000058, -6.020394840999927 ], [ 106.190795277000063, -6.015452989999972 ], [ 106.216394060000084, -6.016224404999946 ] ] ] } },
{ "type": "Feature", "properties": { "kemendagri_kab_code": 3674, "kemendagri_kab_name": "Kota Tangerang Selatan", "kemendagri_prov_code": 36, "kemendagri_prov_name": "Banten" }, "geometry": { "type": "Polygon", "coordinates": [ [ [ 106.638325025000086, -6.229894256999955 ], [ 106.691744331000052, -6.231941018999976 ], [ 106.687103408000041, -6.238568586999975 ], [ 106.704010964000076, -6.256101131999969 ], [ 106.70680314100008, -6.250817862999952 ], [ 106.753565796000032, -6.25163831499998 ], [ 106.751526298000044, -6.274537278999958 ], [ 106.762197739000044, -6.277844823999942 ], [ 106.760110690000033, -6.286440474999949 ], [ 106.779863216000081, -6.31652097999995 ], [ 106.769895, -6.361234 ], [ 106.650983912000072, -6.362190372999976 ], [ 106.657032609000055, -6.358434144999933 ], [ 106.647014149000086, -6.340426267999931 ], [ 106.662162372000068, -6.317285995999953 ], [ 106.655476199000077, -6.315779808999935 ], [ 106.657529231000069, -6.289840690999938 ], [ 106.646645504000048, -6.279465650999953 ], [ 106.651947472000074, -6.269236666999973 ], [ 106.636706629000059, -6.236532341999975 ], [ 106.638325025000086, -6.229894256999955 ] ] ] } }
]
}
