{
"type": "FeatureCollection",
"name": "51",
"crs": { "type": "name", "properties": { "name": "urn:ogc:def:crs:OGC:1.3:CRS84" } },
"features": [
{ "type": "Feature", "properties": { "kemendagri_kab_code": 5101, "kemendagri_kab_name": "Kabupaten Jembrana", "kemendagri_prov_code": 51, "kemendagri_prov_name": "Bali" }, "geometry": { "type": "MultiPolygon", "coordinates": [ [ [ [ 114.439118324000106, -8.160710240999947 ], [ 114.442336794000084, -8.180865378999954 ], [ 114.451495427000054, -8.178075960999934 ], [ 114.456949281000107, -8.168885778999936 ], [ 114.458174489000044, -8.167179363999935 ], [ 114.459458010000048, -8.166871173999937 ], [ 114.458064886000102, -8.193887242999949 ], [ 114.491182871000092, -8.191841856999929 ], [ 114.504441225000051, -8.209731235999925 ], [ 114.532177727000089, -8.192902273999948 ], [ 114.547744336000051, -8.190422444999967 ], [ 114.553087174000098, -8.197903100999952 ], [ 114.597322292000058, -8.176579881999942 ], [ 114.610821150000106, -8.183113765999963 ], [ 114.632163176000063, -8.214229730999932 ], [ 114.654919089000032, -8.227472295999974 ], [ 114.669856793, -8.222011595999959 ], [ 114.68426510300003, -8.231655867999962 ], [ 114.701540202000047, -8.201078102999929 ], [ 114.731248215000051, -8.222375686999953 ], [ 114.751742161000038, -8.223447230999966 ], [ 114.771958657000027, -8.257957626999939 ], [ 114.811610811000037, -8.251111358999935 ], [ 114.823949296000023, -8.333088473999965 ], [ 114.858349005000036, -8.342070201999945 ], [ 114.870261970000115, -8.337357802999975 ], [ 114.896368137000081, -8.357384832999969 ], [ 114.901699019000034, -8.371314231999975 ], [ 114.933077783000044, -8.380674534999969 ], [ 114.926029679000067, -8.448343845999943 ], [ 114.915563911000049, -8.467107038999927 ], [ 114.884246983000025, -8.450092014999939 ], [ 114.816673421000019, -8.431586555999957 ], [ 114.799686009000084, -8.412826027999927 ], [ 114.748505013000113, -8.398951004999958 ], [ 114.702751980000016, -8.396713032999969 ], [ 114.62301702700006, -8.40757797599997 ], [ 114.583980027000052, -8.399359973999935 ], [ 114.567508305000047, -8.388465587999974 ], [ 114.575807473000054, -8.38825124899995 ], [ 114.572887874000116, -8.382252627999947 ], [ 114.569763642000112, -8.384682057999953 ], [ 114.568923692000112, -8.386173979999967 ], [ 114.568602465000026, -8.386254880999957 ], [ 114.569718432000059, -8.384503597999981 ], [ 114.573546985, -8.381564963999949 ], [ 114.545762185000058, -8.347811595999929 ], [ 114.519053633000112, -8.330843450999964 ], [ 114.517589368000017, -8.306824627999958 ], [ 114.483730878000074, -8.275994864999973 ], [ 114.454156094000041, -8.229672654999945 ], [ 114.431771258000026, -8.173975535999944 ], [ 114.439118324000106, -8.160710240999947 ] ] ], [ [ [ 114.449596292000024, -8.172404015999973 ], [ 114.452920248000055, -8.174670237999976 ], [ 114.446470632000114, -8.178754320999928 ], [ 114.449596292000024, -8.172404015999973 ] ] ], [ [ [ 114.451552005000053, -8.164604227999973 ], [ 114.451906352000037, -8.167294703999971 ], [ 114.451644611, -8.167270909999957 ], [ 114.451489946000038, -8.167824133999943 ], [ 114.450933747000022, -8.168261359999974 ], [ 114.451552005000053, -8.164604227999973 ] ] ], [ [ [ 114.444184687000075, -8.165418483999929 ], [ 114.445504958000015, -8.16442733599996 ], [ 114.446722382000075, -8.163715979999949 ], [ 114.446611737000012, -8.164993749999951 ], [ 114.444184687000075, -8.165418483999929 ] ] ] ] } },
{ "type": "Feature", "properties": { "kemendagri_kab_code": 5102, "kemendagri_kab_name": "Kabupaten Tabanan", "kemendagri_prov_code": 51, "kemendagri_prov_name": "Bali" }, "geometry": { "type": "MultiPolygon", "coordinates": [ [ [ [ 115.004493987000046, -8.542257990999929 ], [ 115.004118013000038, -8.541965024999968 ], [ 115.004634963000058, -8.541327964999937 ], [ 115.004493987000046, -8.542257990999929 ] ] ], [ [ [ 115.189481780000051, -8.255784142999971 ], [ 115.185829094000042, -8.275911957999938 ], [ 115.201648535000118, -8.293013242999962 ], [ 115.212289523000095, -8.328557958999966 ], [ 115.201869592000094, -8.333441979999975 ], [ 115.198002384, -8.358713648999981 ], [ 115.209037988000091, -8.37931767699996 ], [ 115.21741140600011, -8.438227968999968 ], [ 115.202453911000021, -8.489319105999925 ], [ 115.195431877000033, -8.489492043999974 ], [ 115.198350935, -8.445711908999954 ], [ 115.189019555000073, -8.442973068999947 ], [ 115.176161291000085, -8.459228719999942 ], [ 115.176653028000032, -8.487153029999945 ], [ 115.183670118, -8.495079532999966 ], [ 115.150044343000104, -8.580886419999956 ], [ 115.155884056000104, -8.60042335199995 ], [ 115.13819418300011, -8.618378757999949 ], [ 115.137407615000029, -8.608808117999956 ], [ 115.119758415000092, -8.610913184999959 ], [ 115.099178765000033, -8.637282336999931 ], [ 115.055866015000106, -8.57889096699995 ], [ 114.915563911000049, -8.467107038999927 ], [ 114.928027630000088, -8.438131664999958 ], [ 114.925153641000065, -8.414931967999962 ], [ 114.936312655000052, -8.394134299999962 ], [ 114.931543430000033, -8.363980246999972 ], [ 114.93669300800002, -8.357376037999927 ], [ 114.950050109000017, -8.36054760899998 ], [ 114.961758285000087, -8.314453137999976 ], [ 114.983440886000039, -8.296561715999928 ], [ 114.981263279000018, -8.28925864799993 ], [ 115.012897815000088, -8.312511855999958 ], [ 115.02670794900007, -8.310867020999979 ], [ 115.032905206, -8.301578197999959 ], [ 115.082041238000102, -8.314033704999929 ], [ 115.10239548100003, -8.308506247999958 ], [ 115.105922689000067, -8.29827288499996 ], [ 115.12580240200009, -8.308379355999932 ], [ 115.13883364000003, -8.270776015999957 ], [ 115.179149851000034, -8.243169609999939 ], [ 115.189481780000051, -8.255784142999971 ] ] ] ] } },
{ "type": "Feature", "properties": { "kemendagri_kab_code": 5103, "kemendagri_kab_name": "Kabupaten Badung", "kemendagri_prov_code": 51, "kemendagri_prov_name": "Bali" }, "geometry": { "type": "MultiPolygon", "coordinates": [ [ [ [ 115.12520303000008, -8.847677028999954 ], [ 115.12493100100005, -8.847386970999935 ], [ 115.125261995000074, -8.847385012999951 ], [ 115.12520303000008, -8.847677028999954 ] ] ], [ [ [ 115.188972999000043, -8.765235000999951 ], [ 115.187720028000058, -8.764960985999949 ], [ 115.188504015000035, -8.76397198899997 ], [ 115.188972999000043, -8.765235000999951 ] ] ], [ [ [ 115.214413951000097, -8.75882289599997 ], [ 115.213953944000082, -8.75774895099994 ], [ 115.214140954000072, -8.757158944999958 ], [ 115.214413951000097, -8.75882289599997 ] ] ], [ [ [ 115.230012479000038, -8.240216184999952 ], [ 115.251362071000017, -8.262531682999963 ], [ 115.243066103000046, -8.29674651199997 ], [ 115.251130696000018, -8.31353667299993 ], [ 115.243402839000055, -8.328352004999942 ], [ 115.249339609000117, -8.338306961999933 ], [ 115.234433282000055, -8.357822430999931 ], [ 115.225292902000092, -8.391443157999959 ], [ 115.229608365000104, -8.444887351999967 ], [ 115.244811981000112, -8.477916044999972 ], [ 115.229902425000091, -8.52517230899997 ], [ 115.246808384000019, -8.558998739999936 ], [ 115.249373326000068, -8.582271357999957 ], [ 115.244195995000041, -8.601382415999979 ], [ 115.227283345000046, -8.591739168999936 ], [ 115.180192976000058, -8.616197460999956 ], [ 115.180535036000038, -8.660080289999939 ], [ 115.173429868000085, -8.661854480999978 ], [ 115.179751799000087, -8.674896548999925 ], [ 115.172508437000033, -8.682325727999967 ], [ 115.187561989000073, -8.706966082999941 ], [ 115.18276103300002, -8.764645025999926 ], [ 115.197123016000091, -8.781606027999942 ], [ 115.220226010000033, -8.787132031999931 ], [ 115.213962977000051, -8.775824000999933 ], [ 115.221070032000057, -8.752966027999946 ], [ 115.227033267000024, -8.785573357999965 ], [ 115.240128993000098, -8.803792002999955 ], [ 115.217559011000048, -8.833118996999929 ], [ 115.198522984000078, -8.841687978999971 ], [ 115.17005020900001, -8.84908248399995 ], [ 115.127109326000095, -8.846821201999944 ], [ 115.124026908000019, -8.847474714999976 ], [ 115.123439558000086, -8.848048782999967 ], [ 115.088858980000055, -8.838201050999942 ], [ 115.085192604000099, -8.821249332999969 ], [ 115.141740786000014, -8.78019287199993 ], [ 115.163957976, -8.779572985999948 ], [ 115.168562992000034, -8.759387042999947 ], [ 115.151974263000056, -8.744300732999932 ], [ 115.160164719000022, -8.742147245999945 ], [ 115.169260016000067, -8.721988991999979 ], [ 115.143658017, -8.671689993999962 ], [ 115.099178765000033, -8.637282336999931 ], [ 115.119758415000092, -8.610913184999959 ], [ 115.137407615000029, -8.608808117999956 ], [ 115.13819418300011, -8.618378757999949 ], [ 115.155884056000104, -8.60042335199995 ], [ 115.150044343000104, -8.580886419999956 ], [ 115.183670118, -8.495079532999966 ], [ 115.176653028000032, -8.487153029999945 ], [ 115.180272473000059, -8.465205755999932 ], [ 115.174598326000023, -8.464079898999955 ], [ 115.189019555000073, -8.442973068999947 ], [ 115.198435847000042, -8.445940286999928 ], [ 115.195431877000033, -8.489492043999974 ], [ 115.203248181000049, -8.488192939999976 ], [ 115.21741140600011, -8.438227968999968 ], [ 115.209037988000091, -8.37931767699996 ], [ 115.197995627000068, -8.358156659999963 ], [ 115.201869592000094, -8.333441979999975 ], [ 115.212348184, -8.329213557999935 ], [ 115.201648535000118, -8.293013242999962 ], [ 115.185829094000042, -8.275911957999938 ], [ 115.190067223000028, -8.261833244999934 ], [ 115.183928194000032, -8.245345153999949 ], [ 115.230012479000038, -8.240216184999952 ] ] ] ] } },
{ "type": "Feature", "properties": { "kemendagri_kab_code": 5104, "kemendagri_kab_name": "Kabupaten Gianyar", "kemendagri_prov_code": 51, "kemendagri_prov_name": "Bali" }, "geometry": { "type": "Polygon", "coordinates": [ [ [ 115.357626214000106, -8.520943172999978 ], [ 115.371054973000014, -8.57487698999995 ], [ 115.274271359000068, -8.650239925999927 ], [ 115.243334644000015, -8.609131507999962 ], [ 115.249155608000024, -8.566021882999962 ], [ 115.229902425000091, -8.52517230899997 ], [ 115.244811981000112, -8.477916044999972 ], [ 115.229608365000104, -8.444887351999967 ], [ 115.225292902000092, -8.391443157999959 ], [ 115.234433282000055, -8.357822430999931 ], [ 115.249312045000011, -8.338414540999963 ], [ 115.243402839000055, -8.328352004999942 ], [ 115.251039374000015, -8.314460981999957 ], [ 115.263253253000016, -8.320224891999942 ], [ 115.262477897000053, -8.332843308999941 ], [ 115.283231411000088, -8.314934475999962 ], [ 115.290732806000051, -8.317561123999951 ], [ 115.29493500600006, -8.338205708999965 ], [ 115.306651406000015, -8.328719577999948 ], [ 115.315633971000011, -8.336860449999961 ], [ 115.328175755000075, -8.330515783999942 ], [ 115.324741617000086, -8.366895215999932 ], [ 115.336445415000071, -8.369482006999931 ], [ 115.336833221, -8.384259425999971 ], [ 115.33106994100001, -8.41364224199998 ], [ 115.317463893000081, -8.43366690299996 ], [ 115.326990881000029, -8.464916209999956 ], [ 115.323983467000062, -8.490611620999971 ], [ 115.336363747000064, -8.523723941999947 ], [ 115.357626214000106, -8.520943172999978 ] ] ] } },
{ "type": "Feature", "properties": { "kemendagri_kab_code": 5105, "kemendagri_kab_name": "Kabupaten Klungkung", "kemendagri_prov_code": 51, "kemendagri_prov_name": "Bali" }, "geometry": { "type": "MultiPolygon", "coordinates": [ [ [ [ 115.492008983, -8.77345897999993 ], [ 115.492240030000062, -8.773204964999934 ], [ 115.492186976000085, -8.773518000999957 ], [ 115.492008983, -8.77345897999993 ] ] ], [ [ [ 115.484310034000032, -8.772986979999928 ], [ 115.484124026000018, -8.772244022999928 ], [ 115.484554010000011, -8.772780031999957 ], [ 115.484310034000032, -8.772986979999928 ] ] ], [ [ [ 115.486912992000043, -8.770628040999952 ], [ 115.487018014000114, -8.769808954999974 ], [ 115.487280995000106, -8.77064596799994 ], [ 115.486912992000043, -8.770628040999952 ] ] ], [ [ [ 115.477851980000082, -8.758302964999928 ], [ 115.478739964000056, -8.758279959999982 ], [ 115.478457006000099, -8.759026002999974 ], [ 115.477851980000082, -8.758302964999928 ] ] ], [ [ [ 115.472957963000113, -8.754616041999952 ], [ 115.473060976000056, -8.753742985999963 ], [ 115.473259021000104, -8.753677971999934 ], [ 115.472957963000113, -8.754616041999952 ] ] ], [ [ [ 115.45153102900008, -8.750332030999971 ], [ 115.451799999000059, -8.750333040999976 ], [ 115.451598998, -8.750441966999972 ], [ 115.45153102900008, -8.750332030999971 ] ] ], [ [ [ 115.45471602300006, -8.737672022999959 ], [ 115.454797004000056, -8.73782504199994 ], [ 115.454530033000083, -8.737814008999976 ], [ 115.45471602300006, -8.737672022999959 ] ] ], [ [ [ 115.456085021000035, -8.715070972999968 ], [ 115.456486971000118, -8.714106023999932 ], [ 115.456697015000032, -8.715002040999934 ], [ 115.456085021000035, -8.715070972999968 ] ] ], [ [ [ 115.465781012000093, -8.687243043999956 ], [ 115.444064016000084, -8.712285020999957 ], [ 115.437098999000114, -8.708465001999969 ], [ 115.465781012000093, -8.687243043999956 ] ] ], [ [ [ 115.468462972000111, -8.666355004999957 ], [ 115.470188021000013, -8.678245041999958 ], [ 115.450849007000102, -8.693816992999928 ], [ 115.429089008, -8.691149977999942 ], [ 115.427271006000069, -8.682973998999955 ], [ 115.445466027000066, -8.679258955999956 ], [ 115.450627017000102, -8.663281997999945 ], [ 115.468462972000111, -8.666355004999957 ] ] ], [ [ [ 115.400902555000016, -8.465174883999964 ], [ 115.390050584000051, -8.482341022999947 ], [ 115.414324883000063, -8.474162767999928 ], [ 115.415157236000027, -8.508542082999952 ], [ 115.405263006000041, -8.514172646999953 ], [ 115.409776015000034, -8.530127386999936 ], [ 115.462835372000086, -8.503699665999932 ], [ 115.476340491000087, -8.519976558999929 ], [ 115.479184150000037, -8.550722181999959 ], [ 115.433431112000108, -8.575025533999963 ], [ 115.371054973000014, -8.57487698999995 ], [ 115.35339839300002, -8.50984290699995 ], [ 115.375366525000118, -8.461148169999944 ], [ 115.38571201000002, -8.46696340799997 ], [ 115.394059165000044, -8.45884016399998 ], [ 115.400902555000016, -8.465174883999964 ] ] ], [ [ [ 115.594324026000095, -8.816674004999982 ], [ 115.5947449680001, -8.816288997999948 ], [ 115.594445002000043, -8.816816035999977 ], [ 115.594324026000095, -8.816674004999982 ] ] ], [ [ [ 115.525465024000027, -8.802646965999941 ], [ 115.526512967000031, -8.803620028999944 ], [ 115.525388987000042, -8.804565959999934 ], [ 115.525465024000027, -8.802646965999941 ] ] ], [ [ [ 115.527258986000106, -8.800651976999973 ], [ 115.527399990000049, -8.799360010999976 ], [ 115.528061015000048, -8.799762004999934 ], [ 115.527258986000106, -8.800651976999973 ] ] ], [ [ [ 115.528857972000083, -8.799567042999968 ], [ 115.529005008000013, -8.799726006999947 ], [ 115.528716978000034, -8.79975697499998 ], [ 115.528857972000083, -8.799567042999968 ] ] ], [ [ [ 115.528428021000082, -8.799074011999949 ], [ 115.528232003000085, -8.799056972999949 ], [ 115.528371994000054, -8.798987998999962 ], [ 115.528428021000082, -8.799074011999949 ] ] ], [ [ [ 115.527913968, -8.79905600099994 ], [ 115.528122002000032, -8.799161954999931 ], [ 115.527881026000045, -8.799102972999947 ], [ 115.527913968, -8.79905600099994 ] ] ], [ [ [ 115.629069986000104, -8.780276034999929 ], [ 115.629706014000021, -8.780165967999949 ], [ 115.629824008000014, -8.780448019999938 ], [ 115.629069986000104, -8.780276034999929 ] ] ], [ [ [ 115.619477972000027, -8.779233001999955 ], [ 115.619197986000017, -8.778490989999966 ], [ 115.619831026000043, -8.779309964999982 ], [ 115.619477972000027, -8.779233001999955 ] ] ], [ [ [ 115.6304820040001, -8.776903039999979 ], [ 115.629821965000019, -8.777082997999969 ], [ 115.629315037000083, -8.776023013999975 ], [ 115.6304820040001, -8.776903039999979 ] ] ], [ [ [ 115.625313979000111, -8.774468983999952 ], [ 115.629155003000051, -8.775084983999932 ], [ 115.622595035000018, -8.774340998999946 ], [ 115.625313979000111, -8.774468983999952 ] ] ], [ [ [ 115.566547986000046, -8.673998018999953 ], [ 115.596326019000117, -8.72387595999993 ], [ 115.62109198600001, -8.74869502599995 ], [ 115.628583033000041, -8.769957002999945 ], [ 115.616044037000052, -8.778368955999952 ], [ 115.605994975000044, -8.791219964999925 ], [ 115.607396993000066, -8.807936043999973 ], [ 115.587720991000083, -8.819541997999977 ], [ 115.547072994000018, -8.800135018999981 ], [ 115.528741037000032, -8.799415971999963 ], [ 115.52161499500005, -8.784642969999936 ], [ 115.485085026000093, -8.768953042999954 ], [ 115.475373012000091, -8.751908993999962 ], [ 115.451251970000044, -8.748330021999948 ], [ 115.45539296600009, -8.736435005999965 ], [ 115.44669396300003, -8.73322798099997 ], [ 115.447906981000074, -8.721813011999927 ], [ 115.459112986000036, -8.716574994999974 ], [ 115.491616036000096, -8.673086028999933 ], [ 115.566547986000046, -8.673998018999953 ] ] ] ] } },
{ "type": "Feature", "properties": { "kemendagri_kab_code": 5106, "kemendagri_kab_name": "Kabupaten Bangli", "kemendagri_prov_code": 51, "kemendagri_prov_name": "Bali" }, "geometry": { "type": "Polygon", "coordinates": [ [ [ 115.434376135000093, -8.180646922999927 ], [ 115.453744039000071, -8.198485008999967 ], [ 115.438103750000096, -8.21744592899995 ], [ 115.448005532000025, -8.245479820999947 ], [ 115.458982772000013, -8.243884048999973 ], [ 115.429905914000074, -8.26744660199995 ], [ 115.41931876600006, -8.32194222399994 ], [ 115.409002153000074, -8.322544023999967 ], [ 115.410522525000033, -8.338199424999971 ], [ 115.398610104000113, -8.344228887999975 ], [ 115.396572381000055, -8.363901779999935 ], [ 115.41624252500003, -8.403448523999941 ], [ 115.414447343, -8.434140123999953 ], [ 115.40310502400007, -8.462034609999932 ], [ 115.394059165000044, -8.45884016399998 ], [ 115.38571201000002, -8.46696340799997 ], [ 115.375225655, -8.461305664999941 ], [ 115.358151294000095, -8.492706660999943 ], [ 115.357626214000106, -8.520943172999978 ], [ 115.336363747000064, -8.523723941999947 ], [ 115.323983467000062, -8.490611620999971 ], [ 115.326990881000029, -8.464916209999956 ], [ 115.317463893000081, -8.43366690299996 ], [ 115.33106994100001, -8.41364224199998 ], [ 115.336805180000056, -8.384849504999977 ], [ 115.336445415000071, -8.369482006999931 ], [ 115.324741617000086, -8.366895215999932 ], [ 115.328175755000075, -8.330515783999942 ], [ 115.315633971000011, -8.336860449999961 ], [ 115.306651406000015, -8.328719577999948 ], [ 115.29493500600006, -8.338205708999965 ], [ 115.290732806000051, -8.317561123999951 ], [ 115.283231411000088, -8.314934475999962 ], [ 115.262477897000053, -8.332843308999941 ], [ 115.263253253000016, -8.320224891999942 ], [ 115.251039374000015, -8.314460981999957 ], [ 115.243066103000046, -8.29674651199997 ], [ 115.250064171000076, -8.25667619799998 ], [ 115.232320161000075, -8.240274022999927 ], [ 115.24339704700003, -8.210775859999956 ], [ 115.242436414000053, -8.185227482999949 ], [ 115.245481699000038, -8.175878876999946 ], [ 115.254916907000052, -8.178347840999947 ], [ 115.279227626000079, -8.160708376999935 ], [ 115.284785787000033, -8.170357529999933 ], [ 115.302948884000102, -8.172695025999928 ], [ 115.319588099000043, -8.154730754999946 ], [ 115.319998726000108, -8.141765630999942 ], [ 115.329024824000044, -8.161657518999959 ], [ 115.343965458000071, -8.148968189999948 ], [ 115.347368172000074, -8.157459912999968 ], [ 115.355855931000065, -8.152001291999966 ], [ 115.358516920000056, -8.164479474999951 ], [ 115.37616884900001, -8.163536341999929 ], [ 115.397402666000062, -8.176782603999925 ], [ 115.40304122200007, -8.170761117999973 ], [ 115.415991082, -8.173878376999937 ], [ 115.41522528500002, -8.185157094999965 ], [ 115.434376135000093, -8.180646922999927 ] ] ] } },
{ "type": "Feature", "properties": { "kemendagri_kab_code": 5107, "kemendagri_kab_name": "Kabupaten Karangasem", "kemendagri_prov_code": 51, "kemendagri_prov_name": "Bali" }, "geometry": { "type": "MultiPolygon", "coordinates": [ [ [ [ 115.585878009000112, -8.533045982999965 ], [ 115.584455020000064, -8.53121897699998 ], [ 115.585676, -8.531373960999929 ], [ 115.585878009000112, -8.533045982999965 ] ] ], [ [ [ 115.574958009000056, -8.527597997999976 ], [ 115.575239028000055, -8.527279979999946 ], [ 115.575238967000018, -8.527620003999971 ], [ 115.574958009000056, -8.527597997999976 ] ] ], [ [ [ 115.575735023000107, -8.526394989999972 ], [ 115.575588984000092, -8.526146012999959 ], [ 115.575881984000034, -8.52621299599997 ], [ 115.575735023000107, -8.526394989999972 ] ] ], [ [ [ 115.576679021000018, -8.525751041999968 ], [ 115.576721010000028, -8.525375008999958 ], [ 115.576951029000043, -8.525498987999981 ], [ 115.576679021000018, -8.525751041999968 ] ] ], [ [ [ 115.577277916000071, -8.525364711999941 ], [ 115.57719320800004, -8.525339964999944 ], [ 115.577218906000098, -8.525313315999938 ], [ 115.577277916000071, -8.525364711999941 ] ] ], [ [ [ 115.614421004000064, -8.50815896499995 ], [ 115.614783973000044, -8.50863897499994 ], [ 115.614127990000043, -8.509741982999969 ], [ 115.614421004000064, -8.50815896499995 ] ] ], [ [ [ 115.71157297000002, -8.400732044999927 ], [ 115.711808001, -8.399651018999975 ], [ 115.712436010000033, -8.400547982999967 ], [ 115.71157297000002, -8.400732044999927 ] ] ], [ [ [ 115.457634812000038, -8.167768618999958 ], [ 115.560508966000043, -8.233446988999958 ], [ 115.618451977000063, -8.300319026999944 ], [ 115.628925001000084, -8.323674043999972 ], [ 115.697802007000064, -8.358348995999961 ], [ 115.71152798300011, -8.390076958999941 ], [ 115.68808303000003, -8.432235000999981 ], [ 115.634226529000102, -8.461961834999954 ], [ 115.616231012000071, -8.485466022999958 ], [ 115.612115029000051, -8.505784007999978 ], [ 115.58102102700002, -8.517241998999964 ], [ 115.537850027000104, -8.500581027999942 ], [ 115.520959004000019, -8.503936002999978 ], [ 115.508159021000097, -8.513016992999951 ], [ 115.51480600900004, -8.52930097899997 ], [ 115.509179, -8.540357025999981 ], [ 115.479184150000037, -8.550722181999959 ], [ 115.476340491000087, -8.519976558999929 ], [ 115.465297459000112, -8.50512975099997 ], [ 115.409776015000034, -8.530127386999936 ], [ 115.405263006000041, -8.514172646999953 ], [ 115.415157236000027, -8.508542082999952 ], [ 115.414324883000063, -8.474162767999928 ], [ 115.389995433000081, -8.481873165999957 ], [ 115.41311845700011, -8.43868576999995 ], [ 115.416021927000088, -8.408830112999965 ], [ 115.395761599000025, -8.35722022899995 ], [ 115.398610104000113, -8.344228887999975 ], [ 115.410522525000033, -8.338199424999971 ], [ 115.409002153000074, -8.322544023999967 ], [ 115.41931876600006, -8.32194222399994 ], [ 115.429905914000074, -8.26744660199995 ], [ 115.458275166000021, -8.247734424999976 ], [ 115.458219625000083, -8.241656825999939 ], [ 115.448005532000025, -8.245479820999947 ], [ 115.438103750000096, -8.21744592899995 ], [ 115.453744039000071, -8.198485008999967 ], [ 115.43428214100004, -8.180561245999968 ], [ 115.457634812000038, -8.167768618999958 ] ] ] ] } },
{ "type": "Feature", "properties": { "kemendagri_kab_code": 5108, "kemendagri_kab_name": "Kabupaten Buleleng", "kemendagri_prov_code": 51, "kemendagri_prov_name": "Bali" }, "geometry": { "type": "MultiPolygon", "coordinates": [ [ [ [ 115.18378115500002, -8.061684439999965 ], [ 115.29377011400004, -8.104621011999939 ], [ 115.339005797000027, -8.111743846999957 ], [ 115.357563476000109, -8.128369432999932 ], [ 115.4571863970001, -8.166599266999981 ], [ 115.417490137000073, -8.185711563999973 ], [ 115.411794485000087, -8.171858503999943 ], [ 115.397402666000062, -8.176782603999925 ], [ 115.37616884900001, -8.163536341999929 ], [ 115.358516920000056, -8.164479474999951 ], [ 115.35485045900009, -8.151222897999958 ], [ 115.348089336000044, -8.157633885999928 ], [ 115.338003808000053, -8.14810852599993 ], [ 115.328717228000073, -8.161528321999981 ], [ 115.319998726000108, -8.141765630999942 ], [ 115.319588099000043, -8.154730754999946 ], [ 115.302948884000102, -8.172695025999928 ], [ 115.284785787000033, -8.170357529999933 ], [ 115.279556005000018, -8.160660276999977 ], [ 115.254916907000052, -8.178347840999947 ], [ 115.245481699000038, -8.175878876999946 ], [ 115.242535090000047, -8.21531809399994 ], [ 115.232341197000096, -8.23988004499995 ], [ 115.174527997000041, -8.245893261999981 ], [ 115.138577388000044, -8.271052699999927 ], [ 115.12580240200009, -8.308379355999932 ], [ 115.105922689000067, -8.29827288499996 ], [ 115.10239548100003, -8.308506247999958 ], [ 115.082041238000102, -8.314033704999929 ], [ 115.032905206, -8.301578197999959 ], [ 115.02670794900007, -8.310867020999979 ], [ 115.012897815000088, -8.312511855999958 ], [ 114.981263279000018, -8.28925864799993 ], [ 114.983440886000039, -8.296561715999928 ], [ 114.961758285000087, -8.314453137999976 ], [ 114.950050109000017, -8.36054760899998 ], [ 114.934376539000027, -8.358906127999944 ], [ 114.927462006000042, -8.38281324999997 ], [ 114.901699019000034, -8.371314231999975 ], [ 114.896368137000081, -8.357384832999969 ], [ 114.870261970000115, -8.337357802999975 ], [ 114.858349005000036, -8.342070201999945 ], [ 114.823949296000023, -8.333088473999965 ], [ 114.811610811000037, -8.251111358999935 ], [ 114.771958657000027, -8.257957626999939 ], [ 114.751742161000038, -8.223447230999966 ], [ 114.731248215000051, -8.222375686999953 ], [ 114.701540202000047, -8.201078102999929 ], [ 114.68426510300003, -8.231655867999962 ], [ 114.669856793, -8.222011595999959 ], [ 114.654919089000032, -8.227472295999974 ], [ 114.632163176000063, -8.214229730999932 ], [ 114.610821150000106, -8.183113765999963 ], [ 114.597322292000058, -8.176579881999942 ], [ 114.553087174000098, -8.197903100999952 ], [ 114.547744336000051, -8.190422444999967 ], [ 114.532177727000089, -8.192902273999948 ], [ 114.504441225000051, -8.209731235999925 ], [ 114.491182871000092, -8.191841856999929 ], [ 114.459930743000086, -8.195019079999952 ], [ 114.455852987000071, -8.177470590999974 ], [ 114.470559154000057, -8.166048388999968 ], [ 114.444934659000069, -8.157619247999946 ], [ 114.444101270000033, -8.13579004199994 ], [ 114.432246264000014, -8.119094337999968 ], [ 114.438812196000072, -8.094735238999931 ], [ 114.489050730000031, -8.093754543999978 ], [ 114.522604005000062, -8.133781329999977 ], [ 114.516476952000062, -8.14502642399998 ], [ 114.522195562000093, -8.154581715999939 ], [ 114.55507912600001, -8.131109682999977 ], [ 114.562516889000108, -8.143434817999946 ], [ 114.568436759000065, -8.141166035999959 ], [ 114.561769330000061, -8.13200958699997 ], [ 114.579900645000066, -8.120884357999955 ], [ 114.594772124000087, -8.123709063999968 ], [ 114.586512896000045, -8.129485640999974 ], [ 114.595001922000051, -8.139634393999927 ], [ 114.618021431000102, -8.122912103999965 ], [ 114.638734390000081, -8.137893596999959 ], [ 114.645283741000071, -8.130916690999925 ], [ 114.657442584000023, -8.144179776999977 ], [ 114.693758445000071, -8.144340572999965 ], [ 114.823261048000063, -8.192162946999929 ], [ 114.832093988000111, -8.187233988999935 ], [ 114.835773087, -8.193884780999952 ], [ 114.867859651000117, -8.196251049999944 ], [ 114.906464285000084, -8.182520722999925 ], [ 115.00128526200001, -8.17561547899993 ], [ 115.048047267000015, -8.144134848999954 ], [ 115.077118332000055, -8.109831348999933 ], [ 115.116353264000054, -8.081251642999973 ], [ 115.18378115500002, -8.061684439999965 ] ] ], [ [ [ 114.609134524000069, -8.12312808799993 ], [ 114.60921066700007, -8.122880623999947 ], [ 114.609761324000033, -8.123226693999925 ], [ 114.609134524000069, -8.12312808799993 ] ] ], [ [ [ 114.501244004000114, -8.095620303999965 ], [ 114.528373234000014, -8.095246173999953 ], [ 114.517743511000049, -8.100449348999973 ], [ 114.501244004000114, -8.095620303999965 ] ] ] ] } },
{ "type": "Feature", "properties": { "kemendagri_kab_code": 5171, "kemendagri_kab_name": "Kota Denpasar", "kemendagri_prov_code": 51, "kemendagri_prov_name": "Bali" }, "geometry": { "type": "MultiPolygon", "coordinates": [ [ [ [ 115.218163745000084, -8.729578211999979 ], [ 115.211767028000054, -8.746707037999954 ], [ 115.207869875000029, -8.738045967999938 ], [ 115.200539934000062, -8.741422978999935 ], [ 115.218163745000084, -8.729578211999979 ] ] ], [ [ [ 115.240072898000108, -8.721854527999938 ], [ 115.244808026000101, -8.729052396999975 ], [ 115.236299073000055, -8.736835613999972 ], [ 115.24859136900011, -8.728305245999934 ], [ 115.246435577000057, -8.736228851999954 ], [ 115.236713099000099, -8.743902612999932 ], [ 115.229403977000061, -8.73493001199995 ], [ 115.234730096000021, -8.746779857999968 ], [ 115.229447693000111, -8.752276411999958 ], [ 115.218371302000037, -8.748183739999945 ], [ 115.22213858300006, -8.731411513999944 ], [ 115.240072898000108, -8.721854527999938 ] ] ], [ [ [ 115.233843995000029, -8.723167964999959 ], [ 115.232353016000047, -8.724332962999938 ], [ 115.23159703500005, -8.723760962999961 ], [ 115.233843995000029, -8.723167964999959 ] ] ], [ [ [ 115.235165663000089, -8.591542801999935 ], [ 115.255574668, -8.632170076999955 ], [ 115.274880993000011, -8.650443024999959 ], [ 115.261454990000061, -8.665629044999946 ], [ 115.264594023000086, -8.704308966999974 ], [ 115.188763813000037, -8.73903805599997 ], [ 115.187561989000073, -8.706966082999941 ], [ 115.172508437000033, -8.682325727999967 ], [ 115.179751799000087, -8.674896548999925 ], [ 115.173429868000085, -8.661854480999978 ], [ 115.180535036000038, -8.660080289999939 ], [ 115.180192976000058, -8.616197460999956 ], [ 115.197399697000037, -8.611896874999957 ], [ 115.196754356000042, -8.605020570999955 ], [ 115.211724267000022, -8.596174214999962 ], [ 115.235165663000089, -8.591542801999935 ] ] ] ] } }
]
}
