{
"type": "FeatureCollection",
"name": "62",
"crs": { "type": "name", "properties": { "name": "urn:ogc:def:crs:OGC:1.3:CRS84" } },
"features": [
{ "type": "Feature", "properties": { "kemendagri_kab_code": 6201, "kemendagri_kab_name": "Kabupaten Kotawaringin Barat", "kemendagri_prov_code": 62, "kemendagri_prov_name": "Kalimantan Tengah" }, "geometry": { "type": "MultiPolygon", "coordinates": [ [ [ [ 111.41617855700008, -2.909318196999948 ], [ 111.412999135000064, -2.909591094999939 ], [ 111.415781406000065, -2.907607522999967 ], [ 111.41617855700008, -2.909318196999948 ] ] ], [ [ [ 111.917045568000049, -1.618013849999954 ], [ 111.955963208000071, -1.761879920999945 ], [ 111.95274241900006, -1.794459124999946 ], [ 111.933880918000057, -1.841706586999976 ], [ 111.937132860000077, -1.868852922999963 ], [ 111.968450017000066, -1.904127966999965 ], [ 112.057622400000014, -1.950011496999934 ], [ 112.074444444000051, -1.972 ], [ 112.06409133000011, -1.981882634999977 ], [ 112.058091079000064, -2.012259470999936 ], [ 112.056401234000077, -2.067355174999932 ], [ 112.045697803000053, -2.096162765999964 ], [ 112.02753674600001, -2.099805837999952 ], [ 112.018033585000012, -2.125369675999934 ], [ 112.024829881000073, -2.23200749199998 ], [ 112.042264558000056, -2.250937731999954 ], [ 112.037350337000021, -2.267875051999965 ], [ 112.063856907000059, -2.31403947299998 ], [ 112.072953132000066, -2.347353676999944 ], [ 112.039955718000101, -2.345502376999946 ], [ 112.040032257, -2.392987395999967 ], [ 112.062168065000037, -2.393486277999955 ], [ 112.061350730000072, -2.427763265999943 ], [ 112.050226750000093, -2.427513422999937 ], [ 112.049979262000079, -2.451680795999948 ], [ 112.024170405000064, -2.448400231999926 ], [ 112.010951929000043, -2.461996848999945 ], [ 112.015316373000019, -2.482454823999944 ], [ 112.023570435000011, -2.482666783999946 ], [ 112.022860939000111, -2.520205576999956 ], [ 112.034068669000021, -2.520285916999967 ], [ 112.032836108000083, -2.556935564999947 ], [ 112.041622578000101, -2.557607291999943 ], [ 112.03677441100001, -2.59183750699998 ], [ 112.061806921000084, -2.649239641999941 ], [ 112.042, -2.688311110999962 ], [ 112.129482710000048, -2.765670403999934 ], [ 112.139807595000093, -2.80336824099993 ], [ 112.098914705000084, -2.987999493999951 ], [ 112.096945935, -3.053845188999958 ], [ 112.132, -3.139819443999954 ], [ 112.131449245000113, -3.158972460999962 ], [ 112.118510503000039, -3.181615257999965 ], [ 111.794698459000074, -3.525744225999972 ], [ 111.768675724000047, -3.503744797999957 ], [ 111.77503286600006, -3.506905597999946 ], [ 111.796243179000044, -3.472404978999975 ], [ 111.816612751000036, -3.404979256999979 ], [ 111.818807862000085, -3.321944628999972 ], [ 111.797827227000084, -3.197158897999941 ], [ 111.825351926000053, -3.052714402999925 ], [ 111.814029402000074, -3.00118697299996 ], [ 111.769616144000054, -2.934982384999955 ], [ 111.751851205000037, -2.889822883999955 ], [ 111.726901330000089, -2.866899610999951 ], [ 111.731819792000067, -2.855701496999927 ], [ 111.712329429000079, -2.849300158999938 ], [ 111.669200819000082, -2.894526559999974 ], [ 111.688358806000053, -2.92005037399997 ], [ 111.698070075000089, -2.919590651999954 ], [ 111.703436734000036, -2.908714679999946 ], [ 111.706843906000074, -2.904946319999965 ], [ 111.690325177000034, -2.941978693999943 ], [ 111.636288513000068, -2.957348011999954 ], [ 111.599257154000043, -2.988047386999938 ], [ 111.559688106000067, -3.00666857799996 ], [ 111.548440628000037, -3.023198281999953 ], [ 111.526293513000041, -2.97916909099996 ], [ 111.457028750000063, -2.924939051999957 ], [ 111.42557669200005, -2.918069596999942 ], [ 111.412098577000052, -2.903452518999927 ], [ 111.38790352400008, -2.920344956999941 ], [ 111.361404694000043, -2.908604727999943 ], [ 111.379945464000059, -2.876816059999953 ], [ 111.382656219000069, -2.817476079999949 ], [ 111.382427652000047, -2.760037566999927 ], [ 111.362267126000063, -2.759832737999943 ], [ 111.399823065000078, -2.653390393999928 ], [ 111.343749078000087, -2.625743707999959 ], [ 111.308316481000077, -2.584221120999928 ], [ 111.279904832000057, -2.583313720999968 ], [ 111.225516992000053, -2.561995908999961 ], [ 111.217555059000063, -2.505137588999958 ], [ 111.255151368000043, -2.500412830999949 ], [ 111.287225224000053, -2.518029490999936 ], [ 111.275165106000088, -2.429929856999934 ], [ 111.295546654000077, -2.408343454999965 ], [ 111.284120391000044, -2.400208530999976 ], [ 111.283639604000086, -2.372771955999951 ], [ 111.264954578000072, -2.372564506999936 ], [ 111.265999440000087, -2.347012113999938 ], [ 111.274814776000085, -2.336029297999971 ], [ 111.31636280500004, -2.332492413999944 ], [ 111.316869267000072, -2.305167499999925 ], [ 111.346883965000075, -2.306171332999952 ], [ 111.352488796000046, -2.299745695999945 ], [ 111.348362476000034, -2.285913510999933 ], [ 111.36878682400004, -2.27526428799996 ], [ 111.373773919000087, -2.284113661999925 ], [ 111.418949925000049, -2.289862608999954 ], [ 111.419011622000085, -2.306212529999925 ], [ 111.460425428000065, -2.314402277999932 ], [ 111.540069106000033, -2.304418609999971 ], [ 111.584860158000083, -2.307143937999967 ], [ 111.585283802000049, -2.295502274999933 ], [ 111.597303257000078, -2.295362602999944 ], [ 111.596649518000049, -2.246982920999926 ], [ 111.605159876000073, -2.243500340999958 ], [ 111.608989213000086, -2.224639906999926 ], [ 111.594263785000066, -2.223742821999963 ], [ 111.602684113000066, -2.202049489999979 ], [ 111.612235144000067, -2.191529730999946 ], [ 111.624120552000079, -2.196469491999949 ], [ 111.660299170000087, -2.180578035999929 ], [ 111.649382270000046, -2.150252658999932 ], [ 111.66149882600007, -2.136507766999955 ], [ 111.67506175300008, -2.135651160999942 ], [ 111.68055608700007, -2.121490024999957 ], [ 111.723097149000068, -2.11362638199995 ], [ 111.74516208700004, -2.121831118999978 ], [ 111.739244644000053, -2.079809326999964 ], [ 111.770358300000055, -2.072216377999951 ], [ 111.776507129000038, -2.033162852999965 ], [ 111.803720426000041, -2.003013564999947 ], [ 111.822445332000086, -1.999432643999967 ], [ 111.824384838000071, -1.956731594999951 ], [ 111.810508815000048, -1.940183668999964 ], [ 111.809903685000052, -1.927095432999977 ], [ 111.834328270000071, -1.915231516999938 ], [ 111.834925025000075, -1.903570610999964 ], [ 111.826816840000049, -1.900715920999971 ], [ 111.829655423000077, -1.880098119999957 ], [ 111.816633933000048, -1.880912401999979 ], [ 111.835406023000075, -1.844221263999941 ], [ 111.823421624000048, -1.842703770999947 ], [ 111.827213260000065, -1.822944941999936 ], [ 111.811371783000084, -1.813037436999934 ], [ 111.820628213000077, -1.778557820999936 ], [ 111.832087265000041, -1.776119212999959 ], [ 111.831849309000063, -1.759076148999952 ], [ 111.843684129000053, -1.752573308999956 ], [ 111.84510266500007, -1.720904067999925 ], [ 111.838812219000033, -1.69668097999994 ], [ 111.816017188000046, -1.682090040999981 ], [ 111.805299388000037, -1.683612928999935 ], [ 111.788348574000054, -1.654387935999978 ], [ 111.792361111000048, -1.625661110999943 ], [ 111.806618228000048, -1.622340593999979 ], [ 111.817666068000051, -1.601439275999951 ], [ 111.804981247000057, -1.561657108999952 ], [ 111.797845100000075, -1.551268988999936 ], [ 111.775465312000051, -1.544408536999924 ], [ 111.75, -1.483161110999959 ], [ 111.872, -1.544430555999952 ], [ 111.917045568000049, -1.618013849999954 ] ] ] ] } },
{ "type": "Feature", "properties": { "kemendagri_kab_code": 6202, "kemendagri_kab_name": "Kabupaten Kotawaringin Timur", "kemendagri_prov_code": 62, "kemendagri_prov_name": "Kalimantan Tengah" }, "geometry": { "type": "MultiPolygon", "coordinates": [ [ [ [ 113.153082859000051, -3.062880277999966 ], [ 113.152711266000097, -3.062680099999966 ], [ 113.153192198000056, -3.062822648999941 ], [ 113.153082859000051, -3.062880277999966 ] ] ], [ [ [ 113.148554685000022, -3.061011613999938 ], [ 113.150661582000112, -3.062153143999979 ], [ 113.152218622000078, -3.062594917999945 ], [ 113.150353630000041, -3.062842666999927 ], [ 113.148554685000022, -3.061011613999938 ] ] ], [ [ [ 112.998841301000084, -3.043611367999972 ], [ 112.998296175000064, -3.044355023999969 ], [ 112.998322360000088, -3.043319913999937 ], [ 112.998841301000084, -3.043611367999972 ] ] ], [ [ [ 113.000154285, -3.043710783999927 ], [ 112.999715939000112, -3.043755110999939 ], [ 113.000132102000066, -3.043373321999979 ], [ 113.000154285, -3.043710783999927 ] ] ], [ [ [ 112.99970354200002, -3.043085363999978 ], [ 112.999833772000102, -3.043254265999963 ], [ 112.999651447000019, -3.043172221999953 ], [ 112.99970354200002, -3.043085363999978 ] ] ], [ [ [ 113.000248732000045, -3.043150166999965 ], [ 113.000131257000021, -3.042915062999953 ], [ 113.00033467500009, -3.042988995999963 ], [ 113.000248732000045, -3.043150166999965 ] ] ], [ [ [ 112.999907890000031, -3.042617453999981 ], [ 112.99957965100009, -3.042913748999979 ], [ 112.999495273000093, -3.042771580999954 ], [ 112.999907890000031, -3.042617453999981 ] ] ], [ [ [ 112.539842437000061, -1.192943585999956 ], [ 112.631956624000054, -1.207704410999952 ], [ 112.674927519000107, -1.255785222999975 ], [ 112.66958467500001, -1.272356574999947 ], [ 112.691188978000014, -1.306486918999951 ], [ 112.736372577000111, -1.321855416999938 ], [ 112.74951700500003, -1.33346040899994 ], [ 112.745964454000045, -1.378104096999948 ], [ 112.763473683000029, -1.389661500999978 ], [ 112.791359551000028, -1.392978380999978 ], [ 112.793663005000099, -1.407528429999957 ], [ 112.80665990500006, -1.410206058999961 ], [ 112.815630551000027, -1.423868610999932 ], [ 112.839260681000042, -1.423895353999967 ], [ 112.838265574000047, -1.504915235999931 ], [ 112.8515125670001, -1.51401986999997 ], [ 112.851913380000042, -1.524549290999971 ], [ 112.86228888900007, -1.524714652999933 ], [ 112.863801133000038, -1.591714885999977 ], [ 112.89892192700006, -1.594192278999969 ], [ 112.89659640800005, -1.640068362999955 ], [ 112.929908463000061, -1.640973824999946 ], [ 112.928688098000066, -1.704806418999965 ], [ 112.98146508800005, -1.70578906399993 ], [ 112.981121673000075, -1.715828678999969 ], [ 113.000109683, -1.716425585999957 ], [ 112.999212348000015, -1.748938301999942 ], [ 113.01754870100001, -1.749586570999952 ], [ 113.017168769000023, -1.765627331999951 ], [ 113.033722621000038, -1.765603391999946 ], [ 113.033930117000068, -1.778858432999925 ], [ 113.043853223000042, -1.778949445999956 ], [ 113.043417458000022, -1.797025018999932 ], [ 113.061756908, -1.813293297999962 ], [ 113.134165285000108, -1.815203020999945 ], [ 113.133381576000033, -1.84544143599993 ], [ 113.142506113000081, -1.845620834999977 ], [ 113.14232585000002, -1.89935019099994 ], [ 113.155653388000019, -1.899560811999947 ], [ 113.161801068000045, -1.922444256999938 ], [ 113.203623519000075, -1.952355698999952 ], [ 113.203416725000011, -1.97570424099996 ], [ 113.217373634000069, -1.975744782999925 ], [ 113.220125, -1.990980555999954 ], [ 113.269655560000047, -2.024438889999942 ], [ 113.22975335600006, -2.164573774999951 ], [ 113.1722, -2.32305 ], [ 113.213080560000094, -2.450461109999935 ], [ 113.135682932, -2.608332115999929 ], [ 113.094725776000018, -2.67527727199996 ], [ 113.097880560000021, -2.800019439999971 ], [ 113.222189571000058, -3.08423737399994 ], [ 113.234544791000076, -3.152110123999933 ], [ 113.191781626000079, -3.109902000999966 ], [ 113.190674021000063, -3.09392325999994 ], [ 113.17426088000002, -3.073599054999931 ], [ 113.148178879000056, -3.060022923999952 ], [ 113.132791166000061, -3.057214090999935 ], [ 113.087610377000033, -3.03367484599994 ], [ 113.057790407000084, -3.006335391999926 ], [ 113.046994590000054, -2.97400126399998 ], [ 113.0328652500001, -2.974921808999966 ], [ 113.014031709000051, -3.029436823999959 ], [ 112.983828269000014, -3.048411706999957 ], [ 112.945386921000022, -3.102304191999963 ], [ 112.942158154000026, -3.117680041999961 ], [ 112.963292040000056, -3.144855634999942 ], [ 112.996510410000042, -3.156540419999942 ], [ 113.015169597000067, -3.15426242999996 ], [ 113.041873481000039, -3.130088564999937 ], [ 112.96697176300006, -3.201409768999952 ], [ 112.918980812000086, -3.241138386999978 ], [ 112.812636957000109, -3.299590743999943 ], [ 112.814068117000033, -3.050157326999965 ], [ 112.845, -2.997980555999959 ], [ 112.843788962000076, -2.845750449999969 ], [ 112.821953207000092, -2.805718246999959 ], [ 112.744759042000055, -2.754803636999952 ], [ 112.636349328000051, -2.728686606999929 ], [ 112.609054638000089, -2.704424667999945 ], [ 112.604202243000032, -2.666818655999975 ], [ 112.511838323, -2.628982230999952 ], [ 112.495387922000077, -2.545328358999939 ], [ 112.520920558000057, -2.547324239999966 ], [ 112.524873521000018, -2.545395435999978 ], [ 112.505056732000071, -2.544135998999934 ], [ 112.505212438000058, -2.537485905999972 ], [ 112.492784063000045, -2.542988359999924 ], [ 112.495406649000074, -2.535389151999937 ], [ 112.489, -2.534430555999961 ], [ 112.486751284000093, -2.518209412999965 ], [ 112.478897903000075, -2.518205117999969 ], [ 112.474281121000104, -2.496549323999943 ], [ 112.450483371000018, -2.490993868999965 ], [ 112.452078913000037, -2.432898928999975 ], [ 112.443744131000017, -2.43251158399994 ], [ 112.443273285000032, -2.429437048999944 ], [ 112.448364974000015, -2.428208790999975 ], [ 112.448030950000089, -2.426853444999949 ], [ 112.442372516000091, -2.429196020999939 ], [ 112.444658652000044, -2.434869615999958 ], [ 112.434830581000028, -2.434964898999965 ], [ 112.43619444400008, -2.36202777799997 ], [ 112.430750000000103, -2.331277777999958 ], [ 112.408666667000034, -2.331027777999964 ], [ 112.408221839000021, -2.267035110999927 ], [ 112.373450775000038, -2.267135047999943 ], [ 112.373685404000071, -2.19671492699996 ], [ 112.33615119500007, -2.182202985999936 ], [ 112.313971403000096, -2.156421456999965 ], [ 112.305838007000034, -2.062229539999976 ], [ 112.310797912000112, -2.052250518999926 ], [ 112.331151901000112, -2.052254643999959 ], [ 112.340838925000071, -2.012668799999972 ], [ 112.312111111000036, -1.995944443999974 ], [ 112.31266666700003, -1.98405555599993 ], [ 112.338472222000064, -1.956916666999973 ], [ 112.347444444000075, -1.938277777999929 ], [ 112.344638889000066, -1.926972221999961 ], [ 112.31817580400002, -1.901700299999959 ], [ 112.251612274000081, -1.860112898999944 ], [ 112.25097977300004, -1.831361754999932 ], [ 112.236756329000059, -1.827374969999937 ], [ 112.227897275000032, -1.809886845999927 ], [ 112.218700673000058, -1.809881849999954 ], [ 112.218528287000026, -1.796954351999943 ], [ 112.200953588000061, -1.789544709999973 ], [ 112.192125023000017, -1.758003537999969 ], [ 112.09116601900007, -1.64432321299995 ], [ 112.067, -1.594711110999924 ], [ 112.069131408000089, -1.567557209999961 ], [ 112.107762396000112, -1.500349841999935 ], [ 112.126718051000012, -1.447856570999932 ], [ 112.132765931000108, -1.41223770199997 ], [ 112.127, -1.312830555999938 ], [ 112.151473309000039, -1.302125923999938 ], [ 112.173978214000044, -1.312946060999934 ], [ 112.201969731000077, -1.302732940999931 ], [ 112.224062263000064, -1.316907242999946 ], [ 112.257922701000098, -1.320727484999964 ], [ 112.279085080000073, -1.303722003999951 ], [ 112.322944497000094, -1.299593430999948 ], [ 112.328589930000021, -1.290621485999964 ], [ 112.323425302000032, -1.275253568999972 ], [ 112.336993928000084, -1.257866621999938 ], [ 112.333869033000042, -1.24597801799996 ], [ 112.350251586000013, -1.231458936999957 ], [ 112.375575451000032, -1.231039317999944 ], [ 112.392228565000096, -1.239622213999951 ], [ 112.426798521000023, -1.206293226999946 ], [ 112.461772343, -1.197950391999939 ], [ 112.510983116000034, -1.208006157999932 ], [ 112.515415895000046, -1.199140601999943 ], [ 112.539842437000061, -1.192943585999956 ] ] ] ] } },
{ "type": "Feature", "properties": { "kemendagri_kab_code": 6203, "kemendagri_kab_name": "Kabupaten Kapuas", "kemendagri_prov_code": 62, "kemendagri_prov_name": "Kalimantan Tengah" }, "geometry": { "type": "MultiPolygon", "coordinates": [ [ [ [ 114.256740321000052, -3.378639154999973 ], [ 114.260009701000058, -3.379481483999939 ], [ 114.256226686000105, -3.381920325999943 ], [ 114.256740321000052, -3.378639154999973 ] ] ], [ [ [ 113.983225513000093, -0.381860330999928 ], [ 114.009518557000092, -0.422251681999967 ], [ 114.003837594000061, -0.446462697999948 ], [ 114.014783114000011, -0.454374404999953 ], [ 114.014872344000082, -0.479210029999933 ], [ 114.047096195000108, -0.509726616999956 ], [ 114.051855117000059, -0.533140512999978 ], [ 114.078314723000062, -0.552081022999971 ], [ 114.063000000000102, -0.577269443999967 ], [ 114.09575, -0.629222221999953 ], [ 114.121, -0.729527777999976 ], [ 114.152972222000017, -0.795722221999938 ], [ 114.173444444000097, -0.811638888999937 ], [ 114.219, -0.80875 ], [ 114.217861111000047, -0.837944443999959 ], [ 114.23425, -0.859972221999953 ], [ 114.275833333000037, -0.86475 ], [ 114.363722222000092, -0.85572222199994 ], [ 114.393222200000082, -0.835888887999943 ], [ 114.468333333000032, -0.834416666999971 ], [ 114.528083333000041, -0.849694443999965 ], [ 114.636, -0.862697221999952 ], [ 114.569737558000043, -0.875313386999949 ], [ 114.551022972000055, -0.917167706999976 ], [ 114.521559976000049, -0.903444376999971 ], [ 114.518, -0.918333332999964 ], [ 114.499576908000108, -0.927637146999928 ], [ 114.5044585710001, -0.950375416999975 ], [ 114.472597379000035, -0.965197458999967 ], [ 114.482995072000108, -0.97863380299998 ], [ 114.454462612000043, -1.024402705999933 ], [ 114.483192344000031, -1.043315205999932 ], [ 114.478154492000044, -1.064837572999977 ], [ 114.488933832000043, -1.081736297999953 ], [ 114.523589425000068, -1.094541668999966 ], [ 114.511480506000112, -1.105893402999925 ], [ 114.510058764000064, -1.125951389999955 ], [ 114.536979751000104, -1.129732933999946 ], [ 114.54706386700002, -1.145399327999939 ], [ 114.562460151000096, -1.142158004999942 ], [ 114.580770991, -1.15903796799995 ], [ 114.61171025100009, -1.158004471999959 ], [ 114.626710542000069, -1.170998560999976 ], [ 114.652528111000038, -1.171447602999933 ], [ 114.677191217000086, -1.155945840999948 ], [ 114.697378765000053, -1.164277210999956 ], [ 114.685843408000096, -1.196554509999942 ], [ 114.68356751400006, -1.24283102499993 ], [ 114.661810228000036, -1.26537517099996 ], [ 114.658243016000029, -1.291782431999934 ], [ 114.668080555000074, -1.319308329999956 ], [ 114.661888889000011, -1.408166666999932 ], [ 114.613771171000053, -1.55151310399998 ], [ 114.624164836000091, -1.604052936999949 ], [ 114.596805363000044, -1.669898601999932 ], [ 114.620468193000079, -1.907636553999964 ], [ 114.616837015000101, -2.016664110999955 ], [ 114.650614347000101, -2.088159157999939 ], [ 114.694083333000094, -2.155083332999936 ], [ 114.693833333000043, -2.198333332999937 ], [ 114.681663437000111, -2.232193756999948 ], [ 114.680538758000012, -2.324531379999939 ], [ 114.644336328, -2.404765586999929 ], [ 114.736851898000054, -2.439356825999937 ], [ 114.726816935000102, -2.462650875999941 ], [ 114.758842577000109, -2.457760958999927 ], [ 114.769761136000056, -2.493164320999938 ], [ 114.717344478000086, -2.567492007999931 ], [ 114.779478806000043, -2.606204616999946 ], [ 114.786757745000045, -2.584855714999946 ], [ 114.79730138900004, -2.591546110999957 ], [ 114.791868973000078, -2.664279002999933 ], [ 114.761790173, -2.720599076999974 ], [ 114.718034389000081, -2.740820305999932 ], [ 114.691662009000083, -2.735607783999967 ], [ 114.676297456000043, -2.74112830599995 ], [ 114.670554511000091, -2.756222277999939 ], [ 114.679397108000103, -2.778811686999973 ], [ 114.664372290000074, -2.800558227999943 ], [ 114.597681373000114, -2.815599379999981 ], [ 114.615289998000094, -2.884460002999958 ], [ 114.598889999000107, -2.890839998999979 ], [ 114.567239996000012, -2.863969997999959 ], [ 114.538390004, -2.927310002999945 ], [ 114.516869997000072, -2.919609996999952 ], [ 114.544225688000097, -2.949001358999965 ], [ 114.536104862000116, -2.959482858999934 ], [ 114.525912112000015, -2.952717006999933 ], [ 114.530150002000028, -2.969800000999953 ], [ 114.50521999800003, -2.9997 ], [ 114.52258297700007, -3.004298431999928 ], [ 114.519059997000113, -3.009800001999963 ], [ 114.53303, -3.034560001999978 ], [ 114.528059996000025, -3.04486 ], [ 114.545810004000032, -3.067829998999969 ], [ 114.53353000200002, -3.081329995999965 ], [ 114.52413999800001, -3.072470001999932 ], [ 114.518230001, -3.07775000099997 ], [ 114.52611, -3.086670000999959 ], [ 114.42366000200002, -3.179919997999946 ], [ 114.44949000400004, -3.209560001999932 ], [ 114.435929998, -3.242609994999953 ], [ 114.374787144000038, -3.287009463999937 ], [ 114.359939997000083, -3.316440001999979 ], [ 114.362149997000074, -3.329879998999957 ], [ 114.349550003000104, -3.34876999599993 ], [ 114.360460003000071, -3.359120003999976 ], [ 114.35147, -3.368369998999981 ], [ 114.362829999000041, -3.387119996999957 ], [ 114.347097760000111, -3.420092760999978 ], [ 114.347591169000111, -3.436623625999971 ], [ 114.354629999000053, -3.441510000999926 ], [ 114.352046700000074, -3.463548333999938 ], [ 114.311683819000109, -3.449237577999952 ], [ 114.25462738300007, -3.40339176599997 ], [ 114.247508974000084, -3.388152465999951 ], [ 114.259942306000084, -3.380650181999954 ], [ 114.262636626000017, -3.37375412199998 ], [ 114.245485471000052, -3.363232144999927 ], [ 114.183193756000037, -3.393385533999947 ], [ 114.152867331000039, -3.384031013999959 ], [ 114.1719888, -3.334041996999929 ], [ 114.141419444, -3.266888888999972 ], [ 114.146688889000075, -3.18746944399993 ], [ 114.166419444000098, -3.174580555999967 ], [ 114.225922677000085, -3.191853259999959 ], [ 114.281143298000075, -3.04433212899994 ], [ 114.212283333000073, -2.937419443999943 ], [ 114.283719444000099, -2.865333332999967 ], [ 114.291422772000033, -2.829623947999949 ], [ 114.281495562000032, -2.814686824999967 ], [ 114.284692199, -2.803667564999955 ], [ 114.348750000000109, -2.744188888999929 ], [ 114.348254037000061, -2.729388164999932 ], [ 114.338058341000078, -2.717436001999943 ], [ 114.325265665000074, -2.373292483999933 ], [ 114.262426296000058, -2.377906131999964 ], [ 114.261899456000037, -2.231630843999937 ], [ 114.227803959000084, -2.229292035999947 ], [ 114.18440609400011, -2.188722723999945 ], [ 114.171148745000096, -2.143368634999945 ], [ 114.171111111000073, -2.090488888999971 ], [ 114.081409350000058, -1.974296567999943 ], [ 114.072919444000036, -1.938138888999958 ], [ 114.031968524000035, -1.906700179999973 ], [ 113.985902924000015, -1.802630879999924 ], [ 113.974416667000014, -1.734538888999964 ], [ 113.986334623000062, -1.707384443999956 ], [ 113.981492399000103, -1.667085380999936 ], [ 114.023409711000113, -1.612374030999945 ], [ 114.030938889000026, -1.5872 ], [ 114.019020066000053, -1.572109313999931 ], [ 113.9984424270001, -1.563106596999944 ], [ 113.983111111000085, -1.532119443999932 ], [ 113.995191543000033, -1.522648854999943 ], [ 114.008000046, -1.473529824999957 ], [ 114.000029783000059, -1.393687922999959 ], [ 114.004794402000016, -1.290349230999936 ], [ 113.97, -1.11169 ], [ 113.985448067000107, -1.066484680999963 ], [ 113.928000000000111, -0.999733 ], [ 113.809, -0.958728 ], [ 113.784000000000106, -0.930596 ], [ 113.748, -0.842138888999955 ], [ 113.732093279000082, -0.826888519999954 ], [ 113.703924626000116, -0.817350916999942 ], [ 113.681928706, -0.787836390999928 ], [ 113.687134637000099, -0.77110621099996 ], [ 113.67963510200002, -0.757782569999961 ], [ 113.699261790000037, -0.702280581999958 ], [ 113.678229450000117, -0.675414693999926 ], [ 113.691658977000088, -0.657717018999961 ], [ 113.696389382, -0.634199810999974 ], [ 113.736000000000104, -0.600581 ], [ 113.728005605000021, -0.59147390399994 ], [ 113.727108055000031, -0.567539218999968 ], [ 113.735584922000044, -0.550086843999964 ], [ 113.755000000000109, -0.545434 ], [ 113.76037602100007, -0.478665767999928 ], [ 113.787780752000117, -0.461039565999954 ], [ 113.814618980000091, -0.462716193999938 ], [ 113.822997566000026, -0.44930734299993 ], [ 113.852324423000027, -0.444667393999964 ], [ 113.880937441000015, -0.451508344999979 ], [ 113.90003261600009, -0.467569705999949 ], [ 113.922102117, -0.466915354999969 ], [ 113.916811782000082, -0.441077381999946 ], [ 113.928471141000045, -0.434367301999941 ], [ 113.927662124000108, -0.411762422999971 ], [ 113.937896780000074, -0.394560703999957 ], [ 113.960323200000062, -0.398159638999971 ], [ 113.983225513000093, -0.381860330999928 ] ] ] ] } },
{ "type": "Feature", "properties": { "kemendagri_kab_code": 6204, "kemendagri_kab_name": "Kabupaten Barito Selatan", "kemendagri_prov_code": 62, "kemendagri_prov_name": "Kalimantan Tengah" }, "geometry": { "type": "Polygon", "coordinates": [ [ [ 115.45454574900009, -1.461578909999957 ], [ 115.433576354000024, -1.452169986999934 ], [ 115.428613027000097, -1.473137905999977 ], [ 115.435420781000062, -1.496410866999952 ], [ 115.390994049000028, -1.520490110999958 ], [ 115.359350370000016, -1.587940339999932 ], [ 115.362063631000069, -1.62042697399994 ], [ 115.331976822000115, -1.609257617999958 ], [ 115.314486674000023, -1.64466161799993 ], [ 115.145110857000077, -1.640506540999979 ], [ 115.103163047000066, -1.631158012999947 ], [ 115.046916755000098, -1.658954231999928 ], [ 114.991755, -1.720559166999976 ], [ 114.986722222000026, -1.740611110999964 ], [ 114.944333333000031, -1.78925 ], [ 114.936333333000107, -1.838811110999927 ], [ 114.941322636000109, -1.98358172099995 ], [ 114.933721259000095, -1.988280177999968 ], [ 114.939555556000073, -1.999788888999944 ], [ 114.925166667000099, -2.089330555999936 ], [ 114.933869624000067, -2.114909259999934 ], [ 114.913398229000109, -2.168370853999932 ], [ 114.932034892000047, -2.192148408999969 ], [ 114.917101351000042, -2.226852611999959 ], [ 114.945202420000101, -2.220536949999939 ], [ 114.914276111000049, -2.241438888999937 ], [ 114.925916667000024, -2.251319443999932 ], [ 114.979673056000024, -2.368762777999962 ], [ 115.001364360000025, -2.395722854999974 ], [ 114.88257714100007, -2.488648026999954 ], [ 114.833164355, -2.56246346699993 ], [ 114.79730138900004, -2.591546110999957 ], [ 114.786757745000045, -2.584855714999946 ], [ 114.779478806000043, -2.606204616999946 ], [ 114.717344478000086, -2.567492007999931 ], [ 114.769761136000056, -2.493164320999938 ], [ 114.758842577000109, -2.457760958999927 ], [ 114.726816935000102, -2.462650875999941 ], [ 114.736851898000054, -2.439356825999937 ], [ 114.644336328, -2.404765586999929 ], [ 114.680538758000012, -2.324531379999939 ], [ 114.681663437000111, -2.232193756999948 ], [ 114.693833333000043, -2.198333332999937 ], [ 114.694083333000094, -2.155083332999936 ], [ 114.650614347000101, -2.088159157999939 ], [ 114.616837015000101, -2.016664110999955 ], [ 114.620468193000079, -1.907636553999964 ], [ 114.596805363000044, -1.669898601999932 ], [ 114.624164836000091, -1.604052936999949 ], [ 114.613771171000053, -1.55151310399998 ], [ 114.661888889000011, -1.408166666999932 ], [ 114.668080555000074, -1.319308329999956 ], [ 114.748202226000103, -1.341095447999976 ], [ 114.767015437000055, -1.337922502999959 ], [ 114.790835884000103, -1.347097574999964 ], [ 114.833871746000113, -1.341807040999925 ], [ 114.847101302000056, -1.353550181999935 ], [ 114.894619854000098, -1.35355483099994 ], [ 114.991040819000091, -1.318602945999942 ], [ 115.037716798000019, -1.320013031999963 ], [ 115.053810492000025, -1.327445519999969 ], [ 115.073185574000036, -1.320725981999942 ], [ 115.084261735000041, -1.305716883999935 ], [ 115.127689279000037, -1.313728928999979 ], [ 115.145633527000086, -1.296728557999927 ], [ 115.177288586000032, -1.291184499999929 ], [ 115.189497505000077, -1.296139659999938 ], [ 115.191298853000035, -1.313833353999939 ], [ 115.244305685000086, -1.320410780999964 ], [ 115.241570645000024, -1.367513516999963 ], [ 115.300767072000099, -1.334275647999959 ], [ 115.30778539500011, -1.296758779999948 ], [ 115.319439673000034, -1.287152078999952 ], [ 115.352261788000078, -1.271105510999973 ], [ 115.364984357000026, -1.255920558999946 ], [ 115.397877302000097, -1.250894316999961 ], [ 115.413097367000091, -1.27061995899993 ], [ 115.400997302000064, -1.355315698999959 ], [ 115.422712630000092, -1.377767138999957 ], [ 115.413603234000107, -1.400586634999968 ], [ 115.44758970700002, -1.404295506999972 ], [ 115.437710927000012, -1.444845414999975 ], [ 115.45454574900009, -1.461578909999957 ] ] ] } },
{ "type": "Feature", "properties": { "kemendagri_kab_code": 6205, "kemendagri_kab_name": "Kabupaten Barito Utara", "kemendagri_prov_code": 62, "kemendagri_prov_name": "Kalimantan Tengah" }, "geometry": { "type": "Polygon", "coordinates": [ [ [ 115.291577820000043, -0.049550053999951 ], [ 115.29125848700005, -0.078069564999964 ], [ 115.308966619000103, -0.080457716999945 ], [ 115.316530783000076, -0.097065783999938 ], [ 115.309634168000116, -0.117833214999962 ], [ 115.287122968000062, -0.128077077999933 ], [ 115.286023458000045, -0.145156487999941 ], [ 115.270942897000054, -0.142688736999958 ], [ 115.257038820000048, -0.160684297999978 ], [ 115.240430981000031, -0.167079433999959 ], [ 115.256013081000106, -0.182329778999929 ], [ 115.286830983000073, -0.19339548399995 ], [ 115.298471378000045, -0.210432072999936 ], [ 115.274836855000103, -0.228116536999948 ], [ 115.273241003000066, -0.24333460899993 ], [ 115.257886726000038, -0.239639466999961 ], [ 115.246509074000073, -0.252308389999939 ], [ 115.254150410000079, -0.270436147999931 ], [ 115.253237542000079, -0.302627 ], [ 115.224904593000019, -0.311739870999929 ], [ 115.232811111000046, -0.323233008999978 ], [ 115.229348476000041, -0.335862805999966 ], [ 115.23721172, -0.341660232999971 ], [ 115.232465827000055, -0.360473481999975 ], [ 115.246388303000117, -0.367437443999961 ], [ 115.246038239000086, -0.379134686999976 ], [ 115.262618005000036, -0.400908817999948 ], [ 115.247897469, -0.409844482999972 ], [ 115.267305949000047, -0.43195048299998 ], [ 115.268833272000052, -0.449088901999971 ], [ 115.284535964000042, -0.458651655999972 ], [ 115.29854759300008, -0.455886205999946 ], [ 115.297494577000066, -0.478837812999927 ], [ 115.307102002000079, -0.486022468999977 ], [ 115.297474640000019, -0.494144442999925 ], [ 115.307106427, -0.511031905999971 ], [ 115.293607224000084, -0.516474449999976 ], [ 115.282879979000086, -0.548772466999935 ], [ 115.29044285000009, -0.555449161999945 ], [ 115.305978788000061, -0.545985365999968 ], [ 115.336741418000088, -0.543528456999979 ], [ 115.356673335000096, -0.549200027999973 ], [ 115.380933347000109, -0.572243784999955 ], [ 115.374125511000102, -0.598407835999978 ], [ 115.356519752000054, -0.613381472999947 ], [ 115.369773887000065, -0.632531501999949 ], [ 115.377737638000099, -0.629488797999954 ], [ 115.372701428000028, -0.653686276999963 ], [ 115.357067755000116, -0.670455367999978 ], [ 115.325649631000033, -0.671523109999953 ], [ 115.336183404000053, -0.678502463999962 ], [ 115.333038909000038, -0.685514241999954 ], [ 115.341937782000059, -0.68623066899994 ], [ 115.337277729000107, -0.693051833999959 ], [ 115.346586286000047, -0.720445201999951 ], [ 115.322691564000024, -0.726626371999942 ], [ 115.300799608000034, -0.74497949199997 ], [ 115.300921869000035, -0.761200273999975 ], [ 115.285964650000096, -0.771298114999979 ], [ 115.289464906000035, -0.799423210999976 ], [ 115.299991017000025, -0.797235175999958 ], [ 115.308603463000054, -0.815386090999937 ], [ 115.321124879000081, -0.816747422999924 ], [ 115.325409720000039, -0.832209932999945 ], [ 115.341716979000012, -0.83908256899997 ], [ 115.336784745000045, -0.841331891999971 ], [ 115.348427821000087, -0.863158351999971 ], [ 115.349941489000116, -0.891193534999957 ], [ 115.360251547000075, -0.876602559999981 ], [ 115.357248981000112, -0.863574125999946 ], [ 115.37530852000009, -0.877157667999938 ], [ 115.381586371000026, -0.851803212999926 ], [ 115.39766084200005, -0.864879641999948 ], [ 115.399203304000025, -0.845259403999933 ], [ 115.416059167000071, -0.864714900999957 ], [ 115.40795520000006, -0.868686226999955 ], [ 115.413651106000088, -0.87354823499993 ], [ 115.446432934000086, -0.878425833999927 ], [ 115.473889018000023, -0.872512624999956 ], [ 115.477598599000089, -0.881958379999958 ], [ 115.486826641000107, -0.871393259999934 ], [ 115.492935386000113, -0.874965463999956 ], [ 115.547258108000051, -0.854420822999941 ], [ 115.591394369000113, -0.934955278999951 ], [ 115.630891980000115, -0.976322241999981 ], [ 115.624620159000074, -1.01659581499996 ], [ 115.6792388, -1.008946560999959 ], [ 115.699931191000019, -1.029714360999947 ], [ 115.710937871000056, -1.074963240999978 ], [ 115.74959942800001, -1.104897016999928 ], [ 115.756469237000033, -1.133512610999958 ], [ 115.766438207000078, -1.137696479999931 ], [ 115.819750246000012, -1.088581221999959 ], [ 115.841993708000018, -1.096339780999926 ], [ 115.849358830000028, -1.171768564999979 ], [ 115.824875962000078, -1.178614918999926 ], [ 115.777217958000051, -1.231157128999939 ], [ 115.760918666000066, -1.274614213999939 ], [ 115.766817978000063, -1.294310885999948 ], [ 115.758758735000015, -1.31257953599993 ], [ 115.709282311000038, -1.33894752499998 ], [ 115.667602897000052, -1.334786562999966 ], [ 115.641267221000021, -1.351223821999952 ], [ 115.625597721000076, -1.350664714999937 ], [ 115.597926361000077, -1.379872262999925 ], [ 115.576028374000089, -1.380931062999935 ], [ 115.56452825100007, -1.399350228999936 ], [ 115.556683376000024, -1.397964196999965 ], [ 115.524109409000062, -1.429583298999944 ], [ 115.5125377600001, -1.45201244499998 ], [ 115.488346641000021, -1.449197352999931 ], [ 115.471378066000057, -1.429614717999925 ], [ 115.455363551, -1.461577274999968 ], [ 115.437710927000012, -1.444845414999975 ], [ 115.44758970700002, -1.404295506999972 ], [ 115.413603234000107, -1.400586634999968 ], [ 115.422712630000092, -1.377767138999957 ], [ 115.400997302000064, -1.355315698999959 ], [ 115.413097367000091, -1.27061995899993 ], [ 115.397877302000097, -1.250894316999961 ], [ 115.364984357000026, -1.255920558999946 ], [ 115.352261788000078, -1.271105510999973 ], [ 115.319439673000034, -1.287152078999952 ], [ 115.30778539500011, -1.296758779999948 ], [ 115.300767072000099, -1.334275647999959 ], [ 115.241570645000024, -1.367513516999963 ], [ 115.244305685000086, -1.320410780999964 ], [ 115.191298853000035, -1.313833353999939 ], [ 115.189497505000077, -1.296139659999938 ], [ 115.177288586000032, -1.291184499999929 ], [ 115.145633527000086, -1.296728557999927 ], [ 115.127689279000037, -1.313728928999979 ], [ 115.084261735000041, -1.305716883999935 ], [ 115.073185574000036, -1.320725981999942 ], [ 115.053810492000025, -1.327445519999969 ], [ 115.037716798000019, -1.320013031999963 ], [ 114.991040819000091, -1.318602945999942 ], [ 114.894619854000098, -1.35355483099994 ], [ 114.847101302000056, -1.353550181999935 ], [ 114.833871746000113, -1.341807040999925 ], [ 114.790835884000103, -1.347097574999964 ], [ 114.767015437000055, -1.337922502999959 ], [ 114.748202226000103, -1.341095447999976 ], [ 114.668080555000074, -1.319308329999956 ], [ 114.658243016000029, -1.291782431999934 ], [ 114.661810228000036, -1.26537517099996 ], [ 114.68356751400006, -1.24283102499993 ], [ 114.685843408000096, -1.196554509999942 ], [ 114.697378765000053, -1.164277210999956 ], [ 114.677191217000086, -1.155945840999948 ], [ 114.652528111000038, -1.171447602999933 ], [ 114.626710542000069, -1.170998560999976 ], [ 114.61171025100009, -1.158004471999959 ], [ 114.580770991, -1.15903796799995 ], [ 114.562460151000096, -1.142158004999942 ], [ 114.54706386700002, -1.145399327999939 ], [ 114.536979751000104, -1.129732933999946 ], [ 114.510058764000064, -1.125951389999955 ], [ 114.511480506000112, -1.105893402999925 ], [ 114.523589425000068, -1.094541668999966 ], [ 114.488933832000043, -1.081736297999953 ], [ 114.478154492000044, -1.064837572999977 ], [ 114.483192344000031, -1.043315205999932 ], [ 114.453627769000036, -1.018593199999941 ], [ 114.482995072000108, -0.97863380299998 ], [ 114.472597379000035, -0.965197458999967 ], [ 114.5044585710001, -0.950375416999975 ], [ 114.499576908000108, -0.927637146999928 ], [ 114.518, -0.918333332999964 ], [ 114.521559976000049, -0.903444376999971 ], [ 114.555430195000099, -0.915593698999942 ], [ 114.558071607000102, -0.889435327999934 ], [ 114.569737558000043, -0.875313386999949 ], [ 114.6534300510001, -0.859865572999979 ], [ 114.731061480000108, -0.784710307999944 ], [ 114.736528170000042, -0.768333821999931 ], [ 114.764879834000112, -0.758389977999968 ], [ 114.773960156000044, -0.768616708999957 ], [ 114.792050404000065, -0.763793927999927 ], [ 114.789803968000115, -0.750625990999936 ], [ 114.830152445000067, -0.743313160999946 ], [ 114.85609648500008, -0.718123060999972 ], [ 114.872922057000096, -0.712585240999942 ], [ 114.88864133300001, -0.676299911999934 ], [ 114.928353507000111, -0.637168461999977 ], [ 114.923017694, -0.617232076999926 ], [ 114.947799533000079, -0.613025893999975 ], [ 114.97770360800007, -0.588804324999955 ], [ 114.982427330000064, -0.56523118399997 ], [ 114.999710594000021, -0.556841796999947 ], [ 115.009928124000112, -0.526451195999925 ], [ 115.000234570000089, -0.516888636999965 ], [ 115.018835714000033, -0.501169359999949 ], [ 115.011107069000104, -0.463181109999937 ], [ 115.02116946600006, -0.41322854799995 ], [ 115.013202973000034, -0.402661896999973 ], [ 115.02027664700006, -0.392182378999962 ], [ 115.008094209000092, -0.364149669999961 ], [ 115.038746797000044, -0.338081870999929 ], [ 115.013026204000084, -0.266186822999941 ], [ 115.039208469000073, -0.240005734999954 ], [ 115.036785480000049, -0.226969099999963 ], [ 115.019775755000069, -0.21379202199995 ], [ 115.028060248000088, -0.202385384999957 ], [ 115.037705361, -0.207674531999942 ], [ 115.046479759000022, -0.20251469599998 ], [ 115.039709799000093, -0.199154395999926 ], [ 115.055842546, -0.177765631999932 ], [ 115.050521844000059, -0.160735360999979 ], [ 115.070256917000052, -0.147930767999981 ], [ 115.087109009000073, -0.154386220999925 ], [ 115.105694960000051, -0.144772566999961 ], [ 115.120043889000044, -0.149145118999968 ], [ 115.126385538000022, -0.136400500999969 ], [ 115.133696893000092, -0.142618682999966 ], [ 115.150402259000089, -0.139024761999963 ], [ 115.146265563000043, -0.121097470999928 ], [ 115.165192761000071, -0.087406373999954 ], [ 115.181425857000022, -0.094650186999957 ], [ 115.183700870000052, -0.081113627999969 ], [ 115.228416865000099, -0.072359803999973 ], [ 115.240163788000018, -0.057109411999932 ], [ 115.261740759000077, -0.047947268999962 ], [ 115.291577820000043, -0.049550053999951 ] ] ] } },
{ "type": "Feature", "properties": { "kemendagri_kab_code": 6206, "kemendagri_kab_name": "Kabupaten Katingan", "kemendagri_prov_code": 62, "kemendagri_prov_name": "Kalimantan Tengah" }, "geometry": { "type": "MultiPolygon", "coordinates": [ [ [ [ 113.364995812000075, -3.296619193999959 ], [ 113.36490093000009, -3.296335122999949 ], [ 113.365130970000109, -3.296482228999935 ], [ 113.364995812000075, -3.296619193999959 ] ] ], [ [ [ 113.364888180000094, -3.294062787999962 ], [ 113.364849063000065, -3.293872863999979 ], [ 113.364966490000029, -3.293970761999958 ], [ 113.364888180000094, -3.294062787999962 ] ] ], [ [ [ 113.363310893000062, -3.288209784999935 ], [ 113.36319134200005, -3.287967913999978 ], [ 113.363426561000097, -3.288066010999955 ], [ 113.363310893000062, -3.288209784999935 ] ] ], [ [ [ 113.363037467000026, -3.28770117199997 ], [ 113.362912748000099, -3.28748765399996 ], [ 113.36313283000004, -3.287574665999955 ], [ 113.363037467000026, -3.28770117199997 ] ] ], [ [ [ 113.362220139000101, -3.286702883999965 ], [ 113.361975438000059, -3.286468125999932 ], [ 113.362219585000048, -3.286467545999926 ], [ 113.362220139000101, -3.286702883999965 ] ] ], [ [ [ 113.362236876000111, -3.286340945999939 ], [ 113.36205914300001, -3.286148839999953 ], [ 113.362279405000095, -3.286211694999963 ], [ 113.362236876000111, -3.286340945999939 ] ] ], [ [ [ 113.36192139000002, -3.28616016899997 ], [ 113.361801046000096, -3.285985384999947 ], [ 113.361973842000111, -3.286000759999979 ], [ 113.36192139000002, -3.28616016899997 ] ] ], [ [ [ 113.361039187000074, -3.285043492999932 ], [ 113.360994800000071, -3.284787211999969 ], [ 113.361168228000111, -3.284869073999971 ], [ 113.361039187000074, -3.285043492999932 ] ] ], [ [ [ 113.330519920000029, -3.266493534999938 ], [ 113.329990774000066, -3.26621948199994 ], [ 113.329893053000092, -3.265874163999968 ], [ 113.330519920000029, -3.266493534999938 ] ] ], [ [ [ 113.142580916000043, -0.471721606999949 ], [ 113.167026128000089, -0.478226315999962 ], [ 113.169451108000089, -0.48905741699997 ], [ 113.192168648, -0.503548322999961 ], [ 113.211155555, -0.506133329999955 ], [ 113.194067967000024, -0.508137981999937 ], [ 113.184489750000012, -0.52647675999998 ], [ 113.158324867000033, -0.544581925999978 ], [ 113.157559591000108, -0.559185305999961 ], [ 113.175387587000046, -0.59080400199997 ], [ 113.172627378000016, -0.602007207999975 ], [ 113.192273579000016, -0.613535143999968 ], [ 113.192679493000014, -0.627985656999954 ], [ 113.220379171000104, -0.65976812599996 ], [ 113.226910140000086, -0.680814667999925 ], [ 113.223816686000077, -0.704420625999944 ], [ 113.184695109000018, -0.744154998999932 ], [ 113.197882365000055, -0.784128865999946 ], [ 113.190134853000018, -0.80226134399993 ], [ 113.20056167700011, -0.835416618999943 ], [ 113.213056767000012, -0.852384122999979 ], [ 113.23420679000003, -0.862567467999952 ], [ 113.219584552000015, -0.892856388999974 ], [ 113.229867875000082, -0.942447949999973 ], [ 113.286304378000068, -1.064407141999936 ], [ 113.248869383000056, -1.107781649999936 ], [ 113.238691931000062, -1.154578467999954 ], [ 113.203659121000101, -1.167696175999936 ], [ 113.183727461000103, -1.216501241999936 ], [ 113.191113464000068, -1.24183407299995 ], [ 113.185739505000015, -1.251702120999937 ], [ 113.199162938000086, -1.283528666999928 ], [ 113.338983516000098, -1.479877341999952 ], [ 113.36128954000003, -1.52551662299993 ], [ 113.399817236000104, -1.541074377999962 ], [ 113.43373672700011, -1.577440111999977 ], [ 113.490055885000061, -1.617820722999966 ], [ 113.50202945400008, -1.644479319999959 ], [ 113.475689660000057, -1.680572419999976 ], [ 113.489381490000028, -1.786471149999954 ], [ 113.556919600000015, -1.903271289999964 ], [ 113.566602633000116, -1.907836900999939 ], [ 113.563401475000092, -1.916450376999933 ], [ 113.694690264000087, -2.086529313999961 ], [ 113.699671131000059, -2.157046310999931 ], [ 113.689916850000031, -2.243241539999929 ], [ 113.762, -2.401880555999981 ], [ 113.750950000000103, -2.52165 ], [ 113.665027776000102, -2.618288885999959 ], [ 113.584119444000066, -2.737788888999944 ], [ 113.627791506000108, -2.810806953999929 ], [ 113.66034328, -2.913885363999952 ], [ 113.708378985000081, -2.963263943999948 ], [ 113.713597870000058, -3.021619237999971 ], [ 113.663902482000026, -3.054245358999935 ], [ 113.657753415000116, -3.069453889999977 ], [ 113.665656550000108, -3.085373260999972 ], [ 113.646103733000018, -3.08801912399997 ], [ 113.631549136000103, -3.141319492999969 ], [ 113.61446977300011, -3.141506066999966 ], [ 113.601118248000034, -3.167150098999969 ], [ 113.543715055, -3.161913790999961 ], [ 113.472478354000032, -3.180612469999971 ], [ 113.449535602000083, -3.191099232999932 ], [ 113.449712552000051, -3.19348075399995 ], [ 113.443876817000046, -3.19840899299993 ], [ 113.438112961000115, -3.206422440999972 ], [ 113.427926573000036, -3.236286114999928 ], [ 113.393173991000026, -3.246883833999959 ], [ 113.372476180000035, -3.260474220999924 ], [ 113.366849381000065, -3.271193082999957 ], [ 113.352789105000056, -3.268146170999955 ], [ 113.344543460000068, -3.280630777999932 ], [ 113.234544791000076, -3.152110123999933 ], [ 113.222189571000058, -3.08423737399994 ], [ 113.097258087000114, -2.797540954999931 ], [ 113.094725776000018, -2.67527727199996 ], [ 113.135682932, -2.608332115999929 ], [ 113.213080560000094, -2.450461109999935 ], [ 113.1722, -2.32305 ], [ 113.22975335600006, -2.164573774999951 ], [ 113.269655560000047, -2.024438889999942 ], [ 113.220125, -1.990980555999954 ], [ 113.217373634000069, -1.975744782999925 ], [ 113.203416725000011, -1.97570424099996 ], [ 113.203623519000075, -1.952355698999952 ], [ 113.161801068000045, -1.922444256999938 ], [ 113.155653388000019, -1.899560811999947 ], [ 113.14232585000002, -1.89935019099994 ], [ 113.142506113000081, -1.845620834999977 ], [ 113.133381576000033, -1.84544143599993 ], [ 113.134165285000108, -1.815203020999945 ], [ 113.061756908, -1.813293297999962 ], [ 113.043417458000022, -1.797025018999932 ], [ 113.043853223000042, -1.778949445999956 ], [ 113.033930117000068, -1.778858432999925 ], [ 113.033722621000038, -1.765603391999946 ], [ 113.017168769000023, -1.765627331999951 ], [ 113.01754870100001, -1.749586570999952 ], [ 112.999212348000015, -1.748938301999942 ], [ 113.000109683, -1.716425585999957 ], [ 112.981121673000075, -1.715828678999969 ], [ 112.98146508800005, -1.70578906399993 ], [ 112.928688098000066, -1.704806418999965 ], [ 112.929908463000061, -1.640973824999946 ], [ 112.89659640800005, -1.640068362999955 ], [ 112.89892192700006, -1.594192278999969 ], [ 112.863801133000038, -1.591714885999977 ], [ 112.86228888900007, -1.524714652999933 ], [ 112.851913380000042, -1.524549290999971 ], [ 112.8515125670001, -1.51401986999997 ], [ 112.838265574000047, -1.504915235999931 ], [ 112.839260681000042, -1.423895353999967 ], [ 112.815630551000027, -1.423868610999932 ], [ 112.80665990500006, -1.410206058999961 ], [ 112.793663005000099, -1.407528429999957 ], [ 112.791359551000028, -1.392978380999978 ], [ 112.763473683000029, -1.389661500999978 ], [ 112.745964454000045, -1.378104096999948 ], [ 112.74951700500003, -1.33346040899994 ], [ 112.736372577000111, -1.321855416999938 ], [ 112.691188978000014, -1.306486918999951 ], [ 112.66958467500001, -1.272356574999947 ], [ 112.674927519000107, -1.255785222999975 ], [ 112.631956624000054, -1.207704410999952 ], [ 112.539842437000061, -1.192943585999956 ], [ 112.515415895000046, -1.199140601999943 ], [ 112.510983116000034, -1.208006157999932 ], [ 112.461772343, -1.197950391999939 ], [ 112.426798521000023, -1.206293226999946 ], [ 112.392228565000096, -1.239622213999951 ], [ 112.375575451000032, -1.231039317999944 ], [ 112.350251586000013, -1.231458936999957 ], [ 112.333869033000042, -1.24597801799996 ], [ 112.336993928000084, -1.257866621999938 ], [ 112.323425302000032, -1.275253568999972 ], [ 112.328589930000021, -1.290621485999964 ], [ 112.322944497000094, -1.299593430999948 ], [ 112.279085080000073, -1.303722003999951 ], [ 112.257922701000098, -1.320727484999964 ], [ 112.224062263000064, -1.316907242999946 ], [ 112.201969731000077, -1.302732940999931 ], [ 112.173978214000044, -1.312946060999934 ], [ 112.151473309000039, -1.302125923999938 ], [ 112.127, -1.312830555999938 ], [ 112.126097947000062, -1.23313070599994 ], [ 112.096340006000105, -1.211437755999953 ], [ 112.108522915000094, -1.200668294999957 ], [ 112.118685698000036, -1.139792459999967 ], [ 112.138042989000041, -1.128310600999953 ], [ 112.162230467000086, -1.087132532999931 ], [ 112.158009019000019, -1.03911001299997 ], [ 112.116934592, -1.045185621999963 ], [ 112.100177715000086, -1.02075515699994 ], [ 112.113955172000033, -0.988500948999956 ], [ 112.113223395000091, -0.929778486999965 ], [ 112.131205063000039, -0.900271540999938 ], [ 112.172312079000108, -0.866313917999946 ], [ 112.146546464000039, -0.830152953999971 ], [ 112.194224220000024, -0.76544238799994 ], [ 112.163542234000033, -0.688192895999975 ], [ 112.174424167000097, -0.684175745999937 ], [ 112.176052908000088, -0.643615850999936 ], [ 112.205318220000095, -0.631763859999978 ], [ 112.209506396000052, -0.615032713999938 ], [ 112.232763445000046, -0.612947992999977 ], [ 112.2444676020001, -0.630558644999951 ], [ 112.259990699000014, -0.631756550999967 ], [ 112.315116239000076, -0.723339095999961 ], [ 112.348658046000082, -0.703558294999937 ], [ 112.35641737900005, -0.71500829799993 ], [ 112.38568108700008, -0.713637411999969 ], [ 112.434281891000069, -0.673622405999936 ], [ 112.460957980000103, -0.669256619999942 ], [ 112.47867717400004, -0.690230675999942 ], [ 112.496742165000114, -0.684659769999939 ], [ 112.502855236000073, -0.700162506999959 ], [ 112.522289548000117, -0.691791504999969 ], [ 112.532462963000057, -0.698394428999961 ], [ 112.561273283000105, -0.696165290999943 ], [ 112.576388777000034, -0.681665530999965 ], [ 112.593290639000088, -0.690065870999945 ], [ 112.608764504000078, -0.683996104999949 ], [ 112.616373545000101, -0.66874526099997 ], [ 112.638179442000023, -0.65733109699994 ], [ 112.688095547000103, -0.659100108999951 ], [ 112.702381933000083, -0.638629992999938 ], [ 112.704654906000087, -0.620098857999949 ], [ 112.734390415, -0.63075972799993 ], [ 112.729513347000079, -0.588056636999966 ], [ 112.74459615, -0.57188714199998 ], [ 112.777400168000099, -0.573840674999929 ], [ 112.787452147000067, -0.585818884999981 ], [ 112.832363237000095, -0.577597391999973 ], [ 112.86584085700008, -0.547830384999941 ], [ 112.88927938900008, -0.538567993999948 ], [ 112.911639752000042, -0.540547896999954 ], [ 112.923042712000097, -0.522020526999938 ], [ 112.975680793000038, -0.511139195999931 ], [ 112.991463152000051, -0.492791244999978 ], [ 112.998084345000052, -0.503441669999972 ], [ 113.03, -0.5025 ], [ 113.037659609000116, -0.495924141999978 ], [ 113.054601028000093, -0.513846096999941 ], [ 113.096925320000082, -0.489481557999966 ], [ 113.130786264000108, -0.452164487999937 ], [ 113.142580916000043, -0.471721606999949 ] ] ], [ [ [ 113.420784508000111, -3.360325362999959 ], [ 113.420432348000077, -3.359678149999979 ], [ 113.420527527000104, -3.359559176999937 ], [ 113.420784508000111, -3.360325362999959 ] ] ], [ [ [ 113.434548981000034, -3.34784923999996 ], [ 113.434001705000014, -3.348315613999944 ], [ 113.434410973000013, -3.347466146999977 ], [ 113.434548981000034, -3.34784923999996 ] ] ], [ [ [ 113.396410270000047, -3.249563743999943 ], [ 113.400587011000084, -3.269025716999977 ], [ 113.405866243000105, -3.269313121999971 ], [ 113.387655281000093, -3.290811850999944 ], [ 113.366313346000084, -3.301741496999966 ], [ 113.365213471000061, -3.287117378999938 ], [ 113.359392940000021, -3.277293210999972 ], [ 113.396410270000047, -3.249563743999943 ] ] ], [ [ [ 113.404242074000081, -3.265400255999964 ], [ 113.404599520000033, -3.266126226999972 ], [ 113.404113577000089, -3.26590497799998 ], [ 113.404242074000081, -3.265400255999964 ] ] ], [ [ [ 113.440646969000113, -3.204525212999954 ], [ 113.440698203000011, -3.204458127999942 ], [ 113.440702118000104, -3.204504034999957 ], [ 113.440646969000113, -3.204525212999954 ] ] ], [ [ [ 113.440669366000066, -3.204337663999979 ], [ 113.440730066000015, -3.204249509999954 ], [ 113.440720722000037, -3.204322235999939 ], [ 113.440669366000066, -3.204337663999979 ] ] ], [ [ [ 113.440963977000024, -3.203758926999967 ], [ 113.440794978000099, -3.203980547999947 ], [ 113.440779952000071, -3.203914815999951 ], [ 113.440963977000024, -3.203758926999967 ] ] ], [ [ [ 113.441031906000035, -3.203558473999976 ], [ 113.440492796000058, -3.20322196099994 ], [ 113.440656094000019, -3.203104982999946 ], [ 113.441031906000035, -3.203558473999976 ] ] ], [ [ [ 113.442038111000102, -3.202959378999935 ], [ 113.441624013000023, -3.202664419999962 ], [ 113.441998520000084, -3.202567861999967 ], [ 113.442038111000102, -3.202959378999935 ] ] ] ] } },
{ "type": "Feature", "properties": { "kemendagri_kab_code": 6207, "kemendagri_kab_name": "Kabupaten Seruyan", "kemendagri_prov_code": 62, "kemendagri_prov_name": "Kalimantan Tengah" }, "geometry": { "type": "Polygon", "coordinates": [ [ [ 112.175416666000046, -0.725569443999973 ], [ 112.192258166000101, -0.748792373999947 ], [ 112.194224220000024, -0.76544238799994 ], [ 112.146546464000039, -0.830152953999971 ], [ 112.172312079000108, -0.866313917999946 ], [ 112.131205063000039, -0.900271540999938 ], [ 112.113223395000091, -0.929778486999965 ], [ 112.113955172000033, -0.988500948999956 ], [ 112.100177715000086, -1.02075515699994 ], [ 112.116934592, -1.045185621999963 ], [ 112.146725502000095, -1.035871224999937 ], [ 112.160411990000057, -1.043811477999952 ], [ 112.162230467000086, -1.087132532999931 ], [ 112.138042989000041, -1.128310600999953 ], [ 112.118685698000036, -1.139792459999967 ], [ 112.108522915000094, -1.200668294999957 ], [ 112.096340006000105, -1.211437755999953 ], [ 112.126097947000062, -1.23313070599994 ], [ 112.132765931000108, -1.41223770199997 ], [ 112.114727505000019, -1.485675434999962 ], [ 112.069131408000089, -1.567557209999961 ], [ 112.067, -1.594711110999924 ], [ 112.09116601900007, -1.64432321299995 ], [ 112.192125023000017, -1.758003537999969 ], [ 112.200953588000061, -1.789544709999973 ], [ 112.218528287000026, -1.796954351999943 ], [ 112.218700673000058, -1.809881849999954 ], [ 112.227897275000032, -1.809886845999927 ], [ 112.236756329000059, -1.827374969999937 ], [ 112.25097977300004, -1.831361754999932 ], [ 112.251612274000081, -1.860112898999944 ], [ 112.31817580400002, -1.901700299999959 ], [ 112.344638889000066, -1.926972221999961 ], [ 112.347444444000075, -1.938277777999929 ], [ 112.338472222000064, -1.956916666999973 ], [ 112.31266666700003, -1.98405555599993 ], [ 112.312111111000036, -1.995944443999974 ], [ 112.340838925000071, -2.012668799999972 ], [ 112.331151901000112, -2.052254643999959 ], [ 112.310797912000112, -2.052250518999926 ], [ 112.305838007000034, -2.062229539999976 ], [ 112.313971403000096, -2.156421456999965 ], [ 112.33615119500007, -2.182202985999936 ], [ 112.373685404000071, -2.19671492699996 ], [ 112.373450775000038, -2.267135047999943 ], [ 112.408221839000021, -2.267035110999927 ], [ 112.408666667000034, -2.331027777999964 ], [ 112.430750000000103, -2.331277777999958 ], [ 112.43619444400008, -2.36202777799997 ], [ 112.434830581000028, -2.434964898999965 ], [ 112.444658652000044, -2.434869615999958 ], [ 112.442726355000104, -2.432519371999945 ], [ 112.442372516000091, -2.429196020999939 ], [ 112.448030950000089, -2.426853444999949 ], [ 112.443744131000017, -2.43251158399994 ], [ 112.452078913000037, -2.432898928999975 ], [ 112.450483371000018, -2.490993868999965 ], [ 112.474281121000104, -2.496549323999943 ], [ 112.478897903000075, -2.518205117999969 ], [ 112.486751284000093, -2.518209412999965 ], [ 112.489, -2.534430555999961 ], [ 112.495406649000074, -2.535389151999937 ], [ 112.492784063000045, -2.542988359999924 ], [ 112.505212438000058, -2.537485905999972 ], [ 112.505056732000071, -2.544135998999934 ], [ 112.524873521000018, -2.545395435999978 ], [ 112.495387922000077, -2.545328358999939 ], [ 112.511838323, -2.628982230999952 ], [ 112.604202243000032, -2.666818655999975 ], [ 112.609054638000089, -2.704424667999945 ], [ 112.636349328000051, -2.728686606999929 ], [ 112.744759042000055, -2.754803636999952 ], [ 112.821953207000092, -2.805718246999959 ], [ 112.843788962000076, -2.845750449999969 ], [ 112.845, -2.997980555999959 ], [ 112.814068117000033, -3.050157326999965 ], [ 112.809662631000037, -3.299847725999939 ], [ 112.816558383000029, -3.298742851999975 ], [ 112.684588656000074, -3.362217861999966 ], [ 112.636921957000027, -3.406403092999938 ], [ 112.568111649000116, -3.430328290999967 ], [ 112.562468828000078, -3.446891643999948 ], [ 112.535049967000077, -3.441126767999947 ], [ 112.479882701000065, -3.410972626999978 ], [ 112.431271147000075, -3.374041284999976 ], [ 112.420877335000114, -3.352781241999935 ], [ 112.380935503000046, -3.331974508999963 ], [ 112.308973914000035, -3.310668822999958 ], [ 112.256428317000086, -3.313594368999929 ], [ 112.192440331000057, -3.336802474999956 ], [ 112.081639519000078, -3.403661467999939 ], [ 111.992041608000079, -3.465778806999936 ], [ 111.906708627000057, -3.53801421199995 ], [ 111.85304652700006, -3.541269494999938 ], [ 111.794698459000074, -3.525744225999972 ], [ 112.118510503000039, -3.181615257999965 ], [ 112.131449245000113, -3.158972460999962 ], [ 112.132, -3.139819443999954 ], [ 112.096945935, -3.053845188999958 ], [ 112.098914705000084, -2.987999493999951 ], [ 112.139807595000093, -2.80336824099993 ], [ 112.129482710000048, -2.765670403999934 ], [ 112.042, -2.688311110999962 ], [ 112.061806921000084, -2.649239641999941 ], [ 112.03677441100001, -2.59183750699998 ], [ 112.041622578000101, -2.557607291999943 ], [ 112.032836108000083, -2.556935564999947 ], [ 112.034068669000021, -2.520285916999967 ], [ 112.022860939000111, -2.520205576999956 ], [ 112.023570435000011, -2.482666783999946 ], [ 112.015316373000019, -2.482454823999944 ], [ 112.010951929000043, -2.461996848999945 ], [ 112.024170405000064, -2.448400231999926 ], [ 112.049979262000079, -2.451680795999948 ], [ 112.050226750000093, -2.427513422999937 ], [ 112.061350730000072, -2.427763265999943 ], [ 112.062168065000037, -2.393486277999955 ], [ 112.040032257, -2.392987395999967 ], [ 112.039955718000101, -2.345502376999946 ], [ 112.072953132000066, -2.347353676999944 ], [ 112.063856907000059, -2.31403947299998 ], [ 112.037350337000021, -2.267875051999965 ], [ 112.042264558000056, -2.250937731999954 ], [ 112.024829881000073, -2.23200749199998 ], [ 112.018033585000012, -2.125369675999934 ], [ 112.02753674600001, -2.099805837999952 ], [ 112.045697803000053, -2.096162765999964 ], [ 112.056401234000077, -2.067355174999932 ], [ 112.058091079000064, -2.012259470999936 ], [ 112.06409133000011, -1.981882634999977 ], [ 112.074444444000051, -1.972 ], [ 112.057622400000014, -1.950011496999934 ], [ 111.968450017000066, -1.904127966999965 ], [ 111.937132860000077, -1.868852922999963 ], [ 111.933880918000057, -1.841706586999976 ], [ 111.95274241900006, -1.794459124999946 ], [ 111.955417834000059, -1.750478068999939 ], [ 111.917045568000049, -1.618013849999954 ], [ 111.872, -1.544430555999952 ], [ 111.703432053000085, -1.454200731999947 ], [ 111.677852500000085, -1.42099276099998 ], [ 111.644832989000065, -1.419325108999942 ], [ 111.638709267000081, -1.401210300999935 ], [ 111.610294444000033, -1.392244443999971 ], [ 111.609128922000082, -1.377735464999944 ], [ 111.589614590000053, -1.347482850999938 ], [ 111.568717335000088, -1.334319720999929 ], [ 111.57719013600007, -1.31395779199994 ], [ 111.560585727000046, -1.311047137999935 ], [ 111.544204033000085, -1.285723464999933 ], [ 111.516084996000075, -1.269675983999946 ], [ 111.504042865000088, -1.253545104999944 ], [ 111.487788445000035, -1.258870956999942 ], [ 111.463234948000036, -1.252924406999966 ], [ 111.45245467500007, -1.259744442999931 ], [ 111.445983330000047, -1.245263887999954 ], [ 111.486564722000082, -1.231151069999953 ], [ 111.526017005000085, -1.202667962999953 ], [ 111.549390735000088, -1.207265427999971 ], [ 111.568689160000076, -1.184704780999937 ], [ 111.577392361000079, -1.167556197999943 ], [ 111.557089743000063, -1.15270775099998 ], [ 111.561173777000079, -1.129849068999931 ], [ 111.543360140000061, -1.115393753999967 ], [ 111.544309227000042, -1.098521307999931 ], [ 111.558245364000072, -1.101275278999935 ], [ 111.571252093000055, -1.05810486799993 ], [ 111.584672253000065, -1.06524325099997 ], [ 111.616149695000047, -1.056265261999954 ], [ 111.624649527000088, -1.036958122999977 ], [ 111.616126487000088, -1.026053536999939 ], [ 111.625227602000052, -1.011183839999944 ], [ 111.625086342000088, -0.991061055999978 ], [ 111.639566552000076, -0.967992180999943 ], [ 111.655596277000086, -0.969334405999973 ], [ 111.701639114000045, -0.952969504999942 ], [ 111.705254201000059, -0.941066171999978 ], [ 111.723906355000054, -0.942618240999934 ], [ 111.74813137600006, -0.911564167999927 ], [ 111.838179092000075, -0.906449616999964 ], [ 111.843095967000068, -0.891890650999926 ], [ 111.88552244300007, -0.858163600999944 ], [ 111.886934303000089, -0.841700819999971 ], [ 111.917250572000057, -0.841093956999941 ], [ 111.923440805000041, -0.792732095999952 ], [ 111.951743710000073, -0.792600058999938 ], [ 111.964305920000072, -0.811265761999948 ], [ 111.976755532000084, -0.813258201999929 ], [ 111.984390727000061, -0.799355709999929 ], [ 112.022604716000046, -0.791086457999938 ], [ 112.027401343000065, -0.779342570999972 ], [ 112.054877296000086, -0.770577488999947 ], [ 112.054040649000058, -0.751591751999968 ], [ 112.074266067000053, -0.734043226999972 ], [ 112.07237658300005, -0.720489156999975 ], [ 112.085173427000086, -0.699663280999971 ], [ 112.097814248000077, -0.698450738999952 ], [ 112.102287335000028, -0.709845677999965 ], [ 112.113861033000035, -0.708278405999977 ], [ 112.146848089000059, -0.730551582999965 ], [ 112.175416666000046, -0.725569443999973 ] ] ] } },
{ "type": "Feature", "properties": { "kemendagri_kab_code": 6208, "kemendagri_kab_name": "Kabupaten Sukamara", "kemendagri_prov_code": 62, "kemendagri_prov_name": "Kalimantan Tengah" }, "geometry": { "type": "Polygon", "coordinates": [ [ [ 111.15608190100005, -2.019411687999934 ], [ 111.156073407000065, -2.028384252999956 ], [ 111.17156011600008, -2.035754345999976 ], [ 111.205235334000065, -2.03762889199993 ], [ 111.193933495000067, -2.055985875999966 ], [ 111.204548635000037, -2.064246487999981 ], [ 111.25, -2.062980555999957 ], [ 111.267590932000076, -2.072722032999934 ], [ 111.269859800000063, -2.083771709999951 ], [ 111.259968349000076, -2.085578795999936 ], [ 111.268468031000054, -2.098076960999947 ], [ 111.26479303800005, -2.140359739999951 ], [ 111.293962978000081, -2.149373514999979 ], [ 111.355248390000042, -2.152312885999947 ], [ 111.36694433100007, -2.19215722499996 ], [ 111.357805591000044, -2.214716003999968 ], [ 111.389431002000038, -2.214784305999956 ], [ 111.390382403000046, -2.266979555999967 ], [ 111.382, -2.282088888999965 ], [ 111.373773919000087, -2.284113661999925 ], [ 111.36878682400004, -2.27526428799996 ], [ 111.355678562000037, -2.281725201999961 ], [ 111.348362476000034, -2.285913510999933 ], [ 111.352488796000046, -2.299745695999945 ], [ 111.346883965000075, -2.306171332999952 ], [ 111.316869267000072, -2.305167499999925 ], [ 111.31636280500004, -2.332492413999944 ], [ 111.274814776000085, -2.336029297999971 ], [ 111.265999440000087, -2.347012113999938 ], [ 111.264954578000072, -2.372564506999936 ], [ 111.283639604000086, -2.372771955999951 ], [ 111.284120391000044, -2.400208530999976 ], [ 111.295546654000077, -2.408343454999965 ], [ 111.275165106000088, -2.429929856999934 ], [ 111.287225224000053, -2.518029490999936 ], [ 111.255151368000043, -2.500412830999949 ], [ 111.217555059000063, -2.505137588999958 ], [ 111.225516992000053, -2.561995908999961 ], [ 111.279904832000057, -2.583313720999968 ], [ 111.308316481000077, -2.584221120999928 ], [ 111.343749078000087, -2.625743707999959 ], [ 111.377562176000083, -2.645584063999934 ], [ 111.39772152200004, -2.648111789999973 ], [ 111.362267126000063, -2.759832737999943 ], [ 111.382427652000047, -2.760037566999927 ], [ 111.379945464000059, -2.876816059999953 ], [ 111.361404694000043, -2.908604727999943 ], [ 111.340516985000079, -2.908762534999937 ], [ 111.300082910000071, -2.92693077399997 ], [ 111.133735622000074, -3.018228310999973 ], [ 111.047764964000066, -3.05149451799997 ], [ 110.982690149000064, -3.065425467999944 ], [ 110.951150055000085, -3.062788505999947 ], [ 110.849687622000033, -2.996439819999978 ], [ 110.810483623000039, -2.978996704999929 ], [ 110.770941286000038, -2.978069943999969 ], [ 110.733212499000047, -2.996447115999956 ], [ 110.753192833000071, -2.944988477999971 ], [ 110.793397346000063, -2.912440157999924 ], [ 110.827403433000086, -2.905407459999935 ], [ 110.846478144000059, -2.886046419999957 ], [ 110.86131303500008, -2.888915671999939 ], [ 110.894501351000088, -2.869617142999971 ], [ 110.969630799000072, -2.855953107999937 ], [ 110.97552091700004, -2.842606710999974 ], [ 110.999315119000073, -2.825524429999973 ], [ 111.011753038000052, -2.795206288999964 ], [ 111.101308188000075, -2.768632957999955 ], [ 111.147171120000053, -2.741816599999936 ], [ 111.170363922000035, -2.706954827999937 ], [ 111.175941438000052, -2.688397324999926 ], [ 111.159676623000053, -2.661189056999945 ], [ 111.156531562000055, -2.63666587299997 ], [ 111.13161843000006, -2.598848612999973 ], [ 111.127291577000051, -2.56210336099997 ], [ 111.142562982000072, -2.560727474999965 ], [ 111.146964016000084, -2.541756762999967 ], [ 111.125882559000047, -2.538888674999953 ], [ 111.11318353300004, -2.522727551999935 ], [ 111.099127538000062, -2.465738920999968 ], [ 111.099840380000046, -2.450651111999946 ], [ 111.113583912000081, -2.445587283999942 ], [ 111.117208144000074, -2.431960380999953 ], [ 111.106550693000088, -2.411827908999953 ], [ 111.116395516000068, -2.372625322999966 ], [ 111.106277487000057, -2.372669360999964 ], [ 111.106684500000085, -2.352279419999945 ], [ 111.115582681000035, -2.327479682999979 ], [ 111.10246647200006, -2.303375117999963 ], [ 111.084142659000065, -2.295357321999973 ], [ 111.056468116000076, -2.252750943999956 ], [ 111.041978598000071, -2.250841892999972 ], [ 111.03904609600005, -2.237425490999954 ], [ 111.022915377000061, -2.223963071999947 ], [ 111.029426301000058, -2.20609478199998 ], [ 111.040067122000039, -2.205752618999952 ], [ 111.036473175000083, -2.168362527999932 ], [ 111.050321287000088, -2.161420288999977 ], [ 111.069530017000034, -2.114542315999927 ], [ 111.058386557000063, -2.05928064699998 ], [ 111.110306169000069, -2.024926634999929 ], [ 111.15608190100005, -2.019411687999934 ] ] ] } },
{ "type": "Feature", "properties": { "kemendagri_kab_code": 6209, "kemendagri_kab_name": "Kabupaten Lamandau", "kemendagri_prov_code": 62, "kemendagri_prov_name": "Kalimantan Tengah" }, "geometry": { "type": "Polygon", "coordinates": [ [ [ 111.445983330000047, -1.245263887999954 ], [ 111.45245467500007, -1.259744442999931 ], [ 111.463234948000036, -1.252924406999966 ], [ 111.487788445000035, -1.258870956999942 ], [ 111.504042865000088, -1.253545104999944 ], [ 111.516084996000075, -1.269675983999946 ], [ 111.544204033000085, -1.285723464999933 ], [ 111.560585727000046, -1.311047137999935 ], [ 111.57719013600007, -1.31395779199994 ], [ 111.568717335000088, -1.334319720999929 ], [ 111.589614590000053, -1.347482850999938 ], [ 111.609128922000082, -1.377735464999944 ], [ 111.610294444000033, -1.392244443999971 ], [ 111.638709267000081, -1.401210300999935 ], [ 111.644832989000065, -1.419325108999942 ], [ 111.677852500000085, -1.42099276099998 ], [ 111.692277691000072, -1.44559062899998 ], [ 111.732882479000068, -1.465419941999926 ], [ 111.75, -1.483161110999959 ], [ 111.775465312000051, -1.544408536999924 ], [ 111.797845100000075, -1.551268988999936 ], [ 111.804981247000057, -1.561657108999952 ], [ 111.817666068000051, -1.601439275999951 ], [ 111.806618228000048, -1.622340593999979 ], [ 111.792361111000048, -1.625661110999943 ], [ 111.788348574000054, -1.654387935999978 ], [ 111.805299388000037, -1.683612928999935 ], [ 111.816017188000046, -1.682090040999981 ], [ 111.838812219000033, -1.69668097999994 ], [ 111.846057089000055, -1.72813158699995 ], [ 111.843684129000053, -1.752573308999956 ], [ 111.831849309000063, -1.759076148999952 ], [ 111.832087265000041, -1.776119212999959 ], [ 111.820628213000077, -1.778557820999936 ], [ 111.811371783000084, -1.813037436999934 ], [ 111.827213260000065, -1.822944941999936 ], [ 111.823421624000048, -1.842703770999947 ], [ 111.835406023000075, -1.844221263999941 ], [ 111.816633933000048, -1.880912401999979 ], [ 111.829655423000077, -1.880098119999957 ], [ 111.826816840000049, -1.900715920999971 ], [ 111.834925025000075, -1.903570610999964 ], [ 111.834328270000071, -1.915231516999938 ], [ 111.809903685000052, -1.927095432999977 ], [ 111.810508815000048, -1.940183668999964 ], [ 111.824384838000071, -1.956731594999951 ], [ 111.822445332000086, -1.999432643999967 ], [ 111.803720426000041, -2.003013564999947 ], [ 111.776507129000038, -2.033162852999965 ], [ 111.770358300000055, -2.072216377999951 ], [ 111.739244644000053, -2.079809326999964 ], [ 111.74516208700004, -2.121831118999978 ], [ 111.723097149000068, -2.11362638199995 ], [ 111.68055608700007, -2.121490024999957 ], [ 111.67506175300008, -2.135651160999942 ], [ 111.66149882600007, -2.136507766999955 ], [ 111.649382270000046, -2.150252658999932 ], [ 111.660299170000087, -2.180578035999929 ], [ 111.624120552000079, -2.196469491999949 ], [ 111.612235144000067, -2.191529730999946 ], [ 111.602684113000066, -2.202049489999979 ], [ 111.594263785000066, -2.223742821999963 ], [ 111.608989213000086, -2.224639906999926 ], [ 111.605159876000073, -2.243500340999958 ], [ 111.596649518000049, -2.246982920999926 ], [ 111.597303257000078, -2.295362602999944 ], [ 111.585283802000049, -2.295502274999933 ], [ 111.584860158000083, -2.307143937999967 ], [ 111.540069106000033, -2.304418609999971 ], [ 111.460425428000065, -2.314402277999932 ], [ 111.419011622000085, -2.306212529999925 ], [ 111.418949925000049, -2.289862608999954 ], [ 111.382, -2.282088888999965 ], [ 111.390382403000046, -2.266979555999967 ], [ 111.389431002000038, -2.214784305999956 ], [ 111.357805591000044, -2.214716003999968 ], [ 111.366952945000037, -2.192385942999977 ], [ 111.355479696000089, -2.15251384499993 ], [ 111.293962978000081, -2.149373514999979 ], [ 111.26479303800005, -2.140359739999951 ], [ 111.268468031000054, -2.098076960999947 ], [ 111.259968349000076, -2.085578795999936 ], [ 111.269859800000063, -2.083771709999951 ], [ 111.267590932000076, -2.072722032999934 ], [ 111.25, -2.062980555999957 ], [ 111.204548635000037, -2.064246487999981 ], [ 111.193933495000067, -2.055985875999966 ], [ 111.205235334000065, -2.03762889199993 ], [ 111.17156011600008, -2.035754345999976 ], [ 111.156073407000065, -2.028384252999956 ], [ 111.156888192000054, -2.015654285999972 ], [ 111.110306169000069, -2.024926634999929 ], [ 111.087114998000061, -2.040994639999951 ], [ 111.078861922000044, -2.009443422999937 ], [ 111.101446518000046, -1.988621031999969 ], [ 111.098174689000075, -1.980602198999975 ], [ 111.089193451000085, -1.982098797999924 ], [ 111.093459510000059, -1.97392010599998 ], [ 111.086891696000066, -1.965742451999972 ], [ 111.055037406000054, -1.957174240999962 ], [ 111.010661939000045, -1.969744624999976 ], [ 110.999969944000043, -1.947364122999943 ], [ 110.988514463000058, -1.954808631999924 ], [ 110.987719302000073, -1.940374775999942 ], [ 110.964724157000035, -1.909805884999969 ], [ 110.964128745000039, -1.894772449999948 ], [ 110.950433322000038, -1.887948051999956 ], [ 110.949870211000075, -1.852408884999932 ], [ 110.977830461000053, -1.828499806999957 ], [ 110.970955292000042, -1.810989425999935 ], [ 110.991979128000082, -1.798482301999968 ], [ 110.995101479000084, -1.78791989299998 ], [ 111.01407159200005, -1.78181714599998 ], [ 111.026291539000056, -1.752244874999974 ], [ 111.020577363000086, -1.730013464999956 ], [ 111.025802742000053, -1.719862014999933 ], [ 111.014838290000057, -1.709756396999978 ], [ 111.010140191000062, -1.715710885999954 ], [ 110.994360792000066, -1.706945987999973 ], [ 110.984464545000037, -1.689124762999938 ], [ 110.997577549000084, -1.683685021999963 ], [ 110.994308993000061, -1.650086337999937 ], [ 110.939952694000056, -1.657304951999947 ], [ 110.916965126000036, -1.693036369999959 ], [ 110.903127931000085, -1.687448447999941 ], [ 110.892892198000084, -1.656822960999932 ], [ 110.873336694000045, -1.665496067999925 ], [ 110.87084506900004, -1.63612315599994 ], [ 110.863136042000065, -1.628679544999954 ], [ 110.887006294000059, -1.59863949399994 ], [ 110.903778139000053, -1.60164894199994 ], [ 110.935042189000058, -1.557309300999975 ], [ 110.952644998000039, -1.549190348999957 ], [ 110.969701288000067, -1.55202402499998 ], [ 110.966192955000054, -1.544244265999964 ], [ 111.006306514000073, -1.503625790999934 ], [ 111.024882235000064, -1.504828804999931 ], [ 111.022848657000054, -1.513733600999956 ], [ 111.034943942000041, -1.528814100999966 ], [ 111.049775473000068, -1.516505482999946 ], [ 111.067375957000081, -1.527592507999941 ], [ 111.079649367000059, -1.525042737999968 ], [ 111.083808968000085, -1.501879369999926 ], [ 111.095953382000062, -1.49843550199995 ], [ 111.098709487000065, -1.486978851999936 ], [ 111.119583669000065, -1.486831818999974 ], [ 111.119249874000047, -1.471846949999929 ], [ 111.111067455000068, -1.465767242999959 ], [ 111.156047500000057, -1.431817556999931 ], [ 111.176144340000064, -1.444739965999929 ], [ 111.180726767000067, -1.476768352999954 ], [ 111.200014476000035, -1.474869987999966 ], [ 111.203771564000078, -1.442799142999945 ], [ 111.227560484000037, -1.435334833999946 ], [ 111.254218569000045, -1.438126251999961 ], [ 111.261779356000034, -1.413852937999934 ], [ 111.282107970000084, -1.400148011999931 ], [ 111.284105571000055, -1.383489892999933 ], [ 111.305730088000075, -1.389451809999969 ], [ 111.311018788000069, -1.373493555999971 ], [ 111.326704590000077, -1.367115575999946 ], [ 111.331879836000041, -1.333706149999955 ], [ 111.343642594000073, -1.317008389999955 ], [ 111.364765208000051, -1.309565415999941 ], [ 111.371547840000062, -1.290328264999971 ], [ 111.383857615000068, -1.29636383299993 ], [ 111.38040393700004, -1.283077782999953 ], [ 111.390823709000074, -1.252859572999967 ], [ 111.40225238000005, -1.25253199399998 ], [ 111.400097981000044, -1.262904375999938 ], [ 111.40674092900008, -1.265858001999959 ], [ 111.413344793000078, -1.259449203999964 ], [ 111.423508364000043, -1.267389604999948 ], [ 111.427779738000083, -1.252923802999931 ], [ 111.445983330000047, -1.245263887999954 ] ] ] } },
{ "type": "Feature", "properties": { "kemendagri_kab_code": 6210, "kemendagri_kab_name": "Kabupaten Gunung Mas", "kemendagri_prov_code": 62, "kemendagri_prov_name": "Kalimantan Tengah" }, "geometry": { "type": "Polygon", "coordinates": [ [ [ 113.760000000000105, -0.481661110999937 ], [ 113.755000000000109, -0.545434 ], [ 113.735584922000044, -0.550086843999964 ], [ 113.727108055000031, -0.567539218999968 ], [ 113.728005605000021, -0.59147390399994 ], [ 113.736000000000104, -0.600581 ], [ 113.696389382, -0.634199810999974 ], [ 113.691658977000088, -0.657717018999961 ], [ 113.678229450000117, -0.675414693999926 ], [ 113.699261790000037, -0.702280581999958 ], [ 113.67963510200002, -0.757782569999961 ], [ 113.687134637000099, -0.77110621099996 ], [ 113.683464421000053, -0.796266826999954 ], [ 113.691718890000061, -0.797082675999945 ], [ 113.703924626000116, -0.817350916999942 ], [ 113.732093279000082, -0.826888519999954 ], [ 113.748, -0.842138888999955 ], [ 113.784000000000106, -0.930596 ], [ 113.809, -0.958728 ], [ 113.928000000000111, -0.999733 ], [ 113.985448067000107, -1.066484680999963 ], [ 113.97, -1.11169 ], [ 114.004794402000016, -1.290349230999936 ], [ 114.000029783000059, -1.393687922999959 ], [ 114.008000046, -1.473529824999957 ], [ 113.995191543000033, -1.522648854999943 ], [ 113.983111111000085, -1.532119443999932 ], [ 113.973566747000064, -1.520599213999958 ], [ 113.924439150000012, -1.537813288999928 ], [ 113.891668206000077, -1.538077004999934 ], [ 113.864738963000036, -1.527357352999957 ], [ 113.84433101400009, -1.582953371999963 ], [ 113.797984639000106, -1.604060756999957 ], [ 113.74950121300003, -1.60574999499994 ], [ 113.729890055000055, -1.590461107999943 ], [ 113.6481676840001, -1.58471923899998 ], [ 113.634862050000038, -1.608969802999979 ], [ 113.610282825000013, -1.629939038999964 ], [ 113.563834186, -1.653411105999965 ], [ 113.531056355000032, -1.654980554999952 ], [ 113.50202945400008, -1.644479319999959 ], [ 113.477614150000022, -1.605026301999942 ], [ 113.43373672700011, -1.577440111999977 ], [ 113.399817236000104, -1.541074377999962 ], [ 113.36128954000003, -1.52551662299993 ], [ 113.338983516000098, -1.479877341999952 ], [ 113.199162938000086, -1.283528666999928 ], [ 113.185739505000015, -1.251702120999937 ], [ 113.191113464000068, -1.24183407299995 ], [ 113.183727461000103, -1.216501241999936 ], [ 113.203659121000101, -1.167696175999936 ], [ 113.238691931000062, -1.154578467999954 ], [ 113.248869383000056, -1.107781649999936 ], [ 113.286304378000068, -1.064407141999936 ], [ 113.229867875000082, -0.942447949999973 ], [ 113.219584552000015, -0.892856388999974 ], [ 113.23420679000003, -0.862567467999952 ], [ 113.213056767000012, -0.852384122999979 ], [ 113.20056167700011, -0.835416618999943 ], [ 113.190134853000018, -0.80226134399993 ], [ 113.197882365000055, -0.784128865999946 ], [ 113.184695109000018, -0.744154998999932 ], [ 113.223816686000077, -0.704420625999944 ], [ 113.226910140000086, -0.680814667999925 ], [ 113.220379171000104, -0.65976812599996 ], [ 113.192679493000014, -0.627985656999954 ], [ 113.192273579000016, -0.613535143999968 ], [ 113.172627378000016, -0.602007207999975 ], [ 113.175387587000046, -0.59080400199997 ], [ 113.157559591000108, -0.559185305999961 ], [ 113.158324867000033, -0.544581925999978 ], [ 113.184489750000012, -0.52647675999998 ], [ 113.194067967000024, -0.508137981999937 ], [ 113.218164362000039, -0.506165731999943 ], [ 113.246492044000092, -0.450184441999966 ], [ 113.260941029000037, -0.449266707999925 ], [ 113.254727167000055, -0.435114932999966 ], [ 113.265958223000098, -0.436257073999968 ], [ 113.26422121600001, -0.423388948999957 ], [ 113.271102617000111, -0.424545366999951 ], [ 113.257283596000093, -0.405516710999962 ], [ 113.26236149500005, -0.38963683299994 ], [ 113.255856667000103, -0.384228610999969 ], [ 113.324068751000027, -0.397112925999977 ], [ 113.360849256000051, -0.377579776999937 ], [ 113.373900728000081, -0.378066719999936 ], [ 113.404798842000105, -0.350461946999928 ], [ 113.415533257000106, -0.303733404999946 ], [ 113.429423079000117, -0.303395368999929 ], [ 113.443761241000061, -0.290823500999977 ], [ 113.454865525000059, -0.308889066999939 ], [ 113.491528756000093, -0.312883003999957 ], [ 113.478762463000066, -0.360968806999949 ], [ 113.46746336700005, -0.360838931999979 ], [ 113.468242615, -0.38057988099996 ], [ 113.493698049000045, -0.384346246999939 ], [ 113.500191783000105, -0.378761635999979 ], [ 113.51454585800002, -0.386421428999938 ], [ 113.540193179000084, -0.375904392999928 ], [ 113.582012821000035, -0.39135947799997 ], [ 113.582921943000088, -0.372008153999957 ], [ 113.632187059000103, -0.345188742999937 ], [ 113.649959998000099, -0.36327732899997 ], [ 113.7218780930001, -0.385843051999927 ], [ 113.733321431000036, -0.405245811999976 ], [ 113.717586529000073, -0.41858358099995 ], [ 113.751046775000077, -0.454389662999972 ], [ 113.760000000000105, -0.481661110999937 ] ] ] } },
{ "type": "Feature", "properties": { "kemendagri_kab_code": 6211, "kemendagri_kab_name": "Kabupaten Pulang Pisau", "kemendagri_prov_code": 62, "kemendagri_prov_name": "Kalimantan Tengah" }, "geometry": { "type": "Polygon", "coordinates": [ [ [ 113.973566747000064, -1.520599213999958 ], [ 113.9984424270001, -1.563106596999944 ], [ 114.019020066000053, -1.572109313999931 ], [ 114.030938889000026, -1.5872 ], [ 114.023409711000113, -1.612374030999945 ], [ 113.981492399000103, -1.667085380999936 ], [ 113.986334623000062, -1.707384443999956 ], [ 113.974416667000014, -1.734538888999964 ], [ 113.985902924000015, -1.802630879999924 ], [ 114.006161111000097, -1.85985 ], [ 114.031968524000035, -1.906700179999973 ], [ 114.072919444000036, -1.938138888999958 ], [ 114.081409350000058, -1.974296567999943 ], [ 114.171111111000073, -2.090488888999971 ], [ 114.171148745000096, -2.143368634999945 ], [ 114.18440609400011, -2.188722723999945 ], [ 114.227803959000084, -2.229292035999947 ], [ 114.261899456000037, -2.231630843999937 ], [ 114.262426296000058, -2.377906131999964 ], [ 114.325265665000074, -2.373292483999933 ], [ 114.338058341000078, -2.717436001999943 ], [ 114.348254037000061, -2.729388164999932 ], [ 114.348750000000109, -2.744188888999929 ], [ 114.284692199, -2.803667564999955 ], [ 114.281495562000032, -2.814686824999967 ], [ 114.291422772000033, -2.829623947999949 ], [ 114.283719444000099, -2.865333332999967 ], [ 114.212283333000073, -2.937419443999943 ], [ 114.281143298000075, -3.04433212899994 ], [ 114.225922677000085, -3.191853259999959 ], [ 114.166419444000098, -3.174580555999967 ], [ 114.146688889000075, -3.18746944399993 ], [ 114.141419444, -3.266888888999972 ], [ 114.1719888, -3.334041996999929 ], [ 114.151839404000043, -3.384411727999975 ], [ 114.13291601800006, -3.381884858999967 ], [ 114.077447935, -3.351232522999965 ], [ 114.06888325500006, -3.32167723799995 ], [ 114.053463158000113, -3.310881920999975 ], [ 114.039186630000017, -3.349632156999974 ], [ 113.949668927000062, -3.370390574999931 ], [ 113.820559121000088, -3.449849281999946 ], [ 113.739180203000046, -3.466601220999962 ], [ 113.62972499600005, -3.465430525999977 ], [ 113.581326759000035, -3.441902414999959 ], [ 113.611715332000017, -3.396168857999953 ], [ 113.632282104000069, -3.321040305999929 ], [ 113.6274607900001, -3.249402066999949 ], [ 113.601118248000034, -3.167150098999969 ], [ 113.61446977300011, -3.141506066999966 ], [ 113.631549136000103, -3.141319492999969 ], [ 113.646103733000018, -3.08801912399997 ], [ 113.665656550000108, -3.085373260999972 ], [ 113.657753415000116, -3.069453889999977 ], [ 113.663902482000026, -3.054245358999935 ], [ 113.713597870000058, -3.021619237999971 ], [ 113.71490738500006, -3.011962145999973 ], [ 113.708378985000081, -2.963263943999948 ], [ 113.66034328, -2.913885363999952 ], [ 113.627791506000108, -2.810806953999929 ], [ 113.584119444000066, -2.737788888999944 ], [ 113.665027776000102, -2.618288885999959 ], [ 113.750950000000103, -2.52165 ], [ 113.762, -2.401880555999981 ], [ 113.962940443000093, -2.401844553999979 ], [ 113.993918520000079, -2.394911103999959 ], [ 114.02492647400004, -2.403555118999975 ], [ 114.041782848000025, -2.310630007999976 ], [ 114.05636878200005, -2.298376323999946 ], [ 114.067098333000104, -2.272188882999956 ], [ 114.084967825000035, -2.268849994999925 ], [ 114.108287329000063, -2.187888888999964 ], [ 114.009198162000075, -2.162130554999976 ], [ 113.935700749000034, -2.163437439999939 ], [ 113.92750895100005, -2.154608757999938 ], [ 113.933519770000089, -2.150239119999981 ], [ 113.884770986000035, -2.081811106999965 ], [ 113.826056947000097, -2.011399997999945 ], [ 113.832362516000103, -1.806450000999973 ], [ 113.797972254000115, -1.604061158999968 ], [ 113.84433101400009, -1.582953371999963 ], [ 113.864738963000036, -1.527357352999957 ], [ 113.891668206000077, -1.538077004999934 ], [ 113.924439150000012, -1.537813288999928 ], [ 113.973566747000064, -1.520599213999958 ] ] ] } },
{ "type": "Feature", "properties": { "kemendagri_kab_code": 6212, "kemendagri_kab_name": "Kabupaten Murung Raya", "kemendagri_prov_code": 62, "kemendagri_prov_name": "Kalimantan Tengah" }, "geometry": { "type": "Polygon", "coordinates": [ [ [ 115.013026204000084, -0.266186822999941 ], [ 115.038746797000044, -0.338081870999929 ], [ 115.008094209000092, -0.364149669999961 ], [ 115.02027664700006, -0.392182378999962 ], [ 115.013202973000034, -0.402661896999973 ], [ 115.02116946600006, -0.41322854799995 ], [ 115.011107069000104, -0.463181109999937 ], [ 115.018835714000033, -0.501169359999949 ], [ 115.000234570000089, -0.516888636999965 ], [ 115.009928124000112, -0.526451195999925 ], [ 114.999710594000021, -0.556841796999947 ], [ 114.982427330000064, -0.56523118399997 ], [ 114.97770360800007, -0.588804324999955 ], [ 114.947799533000079, -0.613025893999975 ], [ 114.923017694, -0.617232076999926 ], [ 114.928353507000111, -0.637168461999977 ], [ 114.88864133300001, -0.676299911999934 ], [ 114.872922057000096, -0.712585240999942 ], [ 114.85609648500008, -0.718123060999972 ], [ 114.830152445000067, -0.743313160999946 ], [ 114.789803968000115, -0.750625990999936 ], [ 114.792050404000065, -0.763793927999927 ], [ 114.773960156000044, -0.768616708999957 ], [ 114.764879834000112, -0.758389977999968 ], [ 114.736528170000042, -0.768333821999931 ], [ 114.731061480000108, -0.784710307999944 ], [ 114.6534300510001, -0.859865572999979 ], [ 114.528083333000041, -0.849694443999965 ], [ 114.468333333000032, -0.834416666999971 ], [ 114.393222200000082, -0.835888887999943 ], [ 114.363722222000092, -0.85572222199994 ], [ 114.275833333000037, -0.86475 ], [ 114.23425, -0.859972221999953 ], [ 114.217861111000047, -0.837944443999959 ], [ 114.219, -0.80875 ], [ 114.173444444000097, -0.811638888999937 ], [ 114.152972222000017, -0.795722221999938 ], [ 114.121, -0.729527777999976 ], [ 114.09575, -0.629222221999953 ], [ 114.063000000000102, -0.577269443999967 ], [ 114.078314723000062, -0.552081022999971 ], [ 114.051855117000059, -0.533140512999978 ], [ 114.047096195000108, -0.509726616999956 ], [ 114.014872344000082, -0.479210029999933 ], [ 114.014783114000011, -0.454374404999953 ], [ 114.003837594000061, -0.446462697999948 ], [ 114.009518557000092, -0.422251681999967 ], [ 113.98685419100002, -0.382574168999952 ], [ 113.96122815700005, -0.397961228999975 ], [ 113.937896780000074, -0.394560703999957 ], [ 113.927662124000108, -0.411762422999971 ], [ 113.928471141000045, -0.434367301999941 ], [ 113.916811782000082, -0.441077381999946 ], [ 113.922102117, -0.466915354999969 ], [ 113.90003261600009, -0.467569705999949 ], [ 113.880937441000015, -0.451508344999979 ], [ 113.852324423000027, -0.444667393999964 ], [ 113.822997566000026, -0.44930734299993 ], [ 113.814618980000091, -0.462716193999938 ], [ 113.787780752000117, -0.461039565999954 ], [ 113.760000000000105, -0.481661110999937 ], [ 113.751046775000077, -0.454389662999972 ], [ 113.717586529000073, -0.41858358099995 ], [ 113.733321431000036, -0.405245811999976 ], [ 113.7218780930001, -0.385843051999927 ], [ 113.649959998000099, -0.36327732899997 ], [ 113.632187059000103, -0.345188742999937 ], [ 113.582921943000088, -0.372008153999957 ], [ 113.582012821000035, -0.39135947799997 ], [ 113.540193179000084, -0.375904392999928 ], [ 113.51454585800002, -0.386421428999938 ], [ 113.500191783000105, -0.378761635999979 ], [ 113.493698049000045, -0.384346246999939 ], [ 113.468242615, -0.38057988099996 ], [ 113.46746336700005, -0.360838931999979 ], [ 113.478762463000066, -0.360968806999949 ], [ 113.491528756000093, -0.312883003999957 ], [ 113.454865525000059, -0.308889066999939 ], [ 113.443761241000061, -0.290823500999977 ], [ 113.429423079000117, -0.303395368999929 ], [ 113.415533257000106, -0.303733404999946 ], [ 113.401785750000045, -0.353578938999931 ], [ 113.373900728000081, -0.378066719999936 ], [ 113.360849256000051, -0.377579776999937 ], [ 113.333004128000084, -0.395866128999955 ], [ 113.239083727000093, -0.377813077999974 ], [ 113.220252542000026, -0.33428300099996 ], [ 113.259949237000114, -0.293357542999956 ], [ 113.257445682000025, -0.281684385999938 ], [ 113.305443278000098, -0.254151688999968 ], [ 113.297040806000041, -0.239410927999927 ], [ 113.301688618000071, -0.230130944999928 ], [ 113.287493551000011, -0.223440135999965 ], [ 113.292289022000091, -0.205931910999936 ], [ 113.330212376000077, -0.151642525999932 ], [ 113.356479960000115, -0.136380840999948 ], [ 113.385280211, -0.131897527999968 ], [ 113.400710173000107, -0.110524766999959 ], [ 113.422482162000051, -0.110469126999931 ], [ 113.419906843000035, -0.091664879999939 ], [ 113.443780967000066, -0.061287787999959 ], [ 113.441534724, -0.054066254999952 ], [ 113.415676904000065, -0.047781086999976 ], [ 113.429550600000084, -0.025459291999937 ], [ 113.432752165000011, 0.009212429000058 ], [ 113.417841882000062, 0.012983388000066 ], [ 113.395770641000013, 0.03434651200007 ], [ 113.40520071800006, 0.064221988000043 ], [ 113.393268911000064, 0.083300665000024 ], [ 113.403990365000027, 0.089681348000056 ], [ 113.414213016000076, 0.11565504400005 ], [ 113.391696970000112, 0.140628677000052 ], [ 113.309434403000068, 0.17381771700002 ], [ 113.294283520000022, 0.207066603000044 ], [ 113.261791667000011, 0.23005 ], [ 113.317607710000061, 0.267945288000021 ], [ 113.349961623000013, 0.266167074000066 ], [ 113.359264007000093, 0.276382383000055 ], [ 113.407311787000026, 0.258958429000074 ], [ 113.414755534000051, 0.264695626000048 ], [ 113.442264206, 0.259823134000044 ], [ 113.49274842300008, 0.302413275000049 ], [ 113.513504060000059, 0.304495192000047 ], [ 113.54392224500009, 0.324693099000058 ], [ 113.556637608000074, 0.351955535000059 ], [ 113.586639034000086, 0.36174986900005 ], [ 113.58153074300003, 0.398442704000047 ], [ 113.628778490000059, 0.413133645000073 ], [ 113.654915233000111, 0.43958284100006 ], [ 113.647243377000109, 0.456574986000021 ], [ 113.655709401000081, 0.461250022000058 ], [ 113.663959043000091, 0.494473717000062 ], [ 113.685319320000076, 0.499474600000042 ], [ 113.692938615000116, 0.517605523000043 ], [ 113.714836596000055, 0.526310741000032 ], [ 113.719640728000059, 0.536210489000041 ], [ 113.737788711, 0.538943439000036 ], [ 113.751835927000116, 0.553203749000033 ], [ 113.755258781000066, 0.570005123000044 ], [ 113.797492627000111, 0.594939891000024 ], [ 113.812812522000058, 0.576966135000021 ], [ 113.826086584000109, 0.578510831000074 ], [ 113.838221835000013, 0.601978265000071 ], [ 113.85113041000011, 0.608343323000042 ], [ 113.82144663400004, 0.642667048000021 ], [ 113.845690158000025, 0.660419125000033 ], [ 113.921290771000031, 0.644001619000051 ], [ 113.941886527000065, 0.652829261000022 ], [ 113.961724700000104, 0.648160032000021 ], [ 113.974996231000091, 0.660723748000066 ], [ 114.003936829000054, 0.641074998000022 ], [ 114.02341638900009, 0.667219528000032 ], [ 114.045954723000023, 0.667921166000042 ], [ 114.06944777800004, 0.682890194000038 ], [ 114.06944777800004, 0.690166805000047 ], [ 114.081429612000079, 0.68930584800006 ], [ 114.090861667000013, 0.698275055000067 ], [ 114.123086666000063, 0.695364416000075 ], [ 114.158000634000018, 0.677743381000028 ], [ 114.164297327000099, 0.648526422000032 ], [ 114.177972167, 0.636668324000027 ], [ 114.176655, 0.610369361000039 ], [ 114.146501944000079, 0.594677417000071 ], [ 114.147202743000094, 0.586398446000032 ], [ 114.194684177000113, 0.582350503000043 ], [ 114.203080278000016, 0.540071473000069 ], [ 114.243843372000015, 0.522580049000055 ], [ 114.254608611000094, 0.531683111000063 ], [ 114.266570579000017, 0.52777242600007 ], [ 114.291939279000076, 0.536603462000073 ], [ 114.364103626000087, 0.530236019000029 ], [ 114.35870525200005, 0.547992699000019 ], [ 114.370876692000024, 0.558739019000029 ], [ 114.430307500000026, 0.541624444000036 ], [ 114.459943345000056, 0.556179557000064 ], [ 114.463379742000029, 0.565073762000054 ], [ 114.488950583000019, 0.57002621700002 ], [ 114.524457777000066, 0.562794834000044 ], [ 114.545651141, 0.585186794000037 ], [ 114.540597615000024, 0.620359333000067 ], [ 114.545868642000073, 0.630559650000066 ], [ 114.566812358000107, 0.624451067000052 ], [ 114.597878870000045, 0.631781367000031 ], [ 114.637933726000028, 0.660578976000068 ], [ 114.639433334000046, 0.671419444000037 ], [ 114.651983469000015, 0.674715984000045 ], [ 114.660362107000083, 0.701765573000046 ], [ 114.68976942300003, 0.70752780600003 ], [ 114.71612359900007, 0.701244691000056 ], [ 114.760978057000102, 0.731700344000046 ], [ 114.786808640000118, 0.730391363000024 ], [ 114.793575387000033, 0.741343400000062 ], [ 114.829907662000096, 0.755187754000076 ], [ 114.852761834000034, 0.740391143000068 ], [ 114.872247222000055, 0.741067889000021 ], [ 114.910812891000091, 0.770358953000027 ], [ 114.911810936000052, 0.791009028000076 ], [ 114.924124310000025, 0.772220587000049 ], [ 114.941597840000099, 0.77420406400006 ], [ 114.985558331000107, 0.73165741400004 ], [ 115.013537022000037, 0.599344750000057 ], [ 115.091621220000093, 0.480377076000025 ], [ 115.077193087000069, 0.469820998000046 ], [ 115.108614430000102, 0.441903577000062 ], [ 115.116735118000065, 0.448560321000059 ], [ 115.137387532000048, 0.425491371000021 ], [ 115.129319582000107, 0.374414169000033 ], [ 115.064930877000052, 0.325033017000067 ], [ 115.047616387000062, 0.298281245000055 ], [ 115.03955252600008, 0.299191591000067 ], [ 115.037134679000019, 0.314518804000045 ], [ 115.022874021, 0.330350551000038 ], [ 115.001699694000081, 0.327450078000027 ], [ 114.989796389000048, 0.334540889000039 ], [ 114.954350351000016, 0.320078043000024 ], [ 114.949561446000075, 0.332389860000035 ], [ 114.941591483000025, 0.333252777000041 ], [ 114.902593945000035, 0.317721352000035 ], [ 114.884859857000038, 0.296874260000038 ], [ 114.884301912000069, 0.27848718000007 ], [ 114.862890733000086, 0.275090950000049 ], [ 114.844910409000022, 0.243033224000044 ], [ 114.819642411000018, 0.236711139000022 ], [ 114.831563669000047, 0.217232111000044 ], [ 114.82975087300008, 0.191611268000031 ], [ 114.76245033500004, 0.146373076000032 ], [ 114.758388141000069, 0.135154476000025 ], [ 114.771109185000114, 0.119837760000053 ], [ 114.749261018000084, 0.110171669000067 ], [ 114.746981392000066, 0.093776458000036 ], [ 114.725189438000029, 0.079389387000049 ], [ 114.706708802000094, 0.084438452000029 ], [ 114.718349039000032, 0.053497089000075 ], [ 114.737339595000094, 0.031041295000023 ], [ 114.745466047000036, 0.034683660000042 ], [ 114.795266885000046, 0.011403135000023 ], [ 114.795848108000087, 0.000941114000057 ], [ 114.811193210000056, -0.007159666999939 ], [ 114.823810551000065, -0.036197903999948 ], [ 114.837362198000051, -0.046457765999946 ], [ 114.876096441000072, -0.015350926999929 ], [ 114.897676595, -0.031680710999979 ], [ 114.909916939000027, -0.060916476999978 ], [ 114.908086043000026, -0.091869672999962 ], [ 114.921027179000021, -0.100334171999975 ], [ 114.916415688000029, -0.136397810999938 ], [ 114.929029987000035, -0.165367376999939 ], [ 114.922126369000011, -0.18167514199996 ], [ 114.930649524000046, -0.192157599999973 ], [ 114.922822275000044, -0.192252960999951 ], [ 114.916948092000098, -0.20429603499997 ], [ 114.924125002000096, -0.217468844999928 ], [ 114.920413074000066, -0.23337718199997 ], [ 114.953626021000105, -0.244830389999947 ], [ 114.97109295000007, -0.272621353999966 ], [ 115.013026204000084, -0.266186822999941 ] ] ] } },
{ "type": "Feature", "properties": { "kemendagri_kab_code": 6213, "kemendagri_kab_name": "Kabupaten Barito Timur", "kemendagri_prov_code": 62, "kemendagri_prov_name": "Kalimantan Tengah" }, "geometry": { "type": "Polygon", "coordinates": [ [ [ 115.362063631000069, -1.62042697399994 ], [ 115.374142198000072, -1.65269458399996 ], [ 115.346878955000079, -1.674602817999926 ], [ 115.350142697000024, -1.68146053199996 ], [ 115.332920909000109, -1.722276692999969 ], [ 115.334447845000113, -1.747997436999981 ], [ 115.310973398000101, -1.797325498999953 ], [ 115.313509296, -1.825434387999962 ], [ 115.299935724000079, -1.824381555999935 ], [ 115.318345627000099, -1.85987584999998 ], [ 115.319539442000064, -1.892080213999975 ], [ 115.379061474000082, -1.889116643999955 ], [ 115.391830531000096, -1.890523448999943 ], [ 115.396586835000107, -1.899758389999931 ], [ 115.399504418000106, -1.886442508999949 ], [ 115.40917261300001, -1.899709924999968 ], [ 115.420243915000015, -1.892028293999942 ], [ 115.416997669000011, -1.912069581999958 ], [ 115.430978408000101, -1.924869387999934 ], [ 115.421291262000068, -1.933272579999937 ], [ 115.432761502000062, -1.933106869999961 ], [ 115.431737690000091, -1.946044866999955 ], [ 115.443292248000034, -1.946698226999956 ], [ 115.433885388000022, -1.969860195999956 ], [ 115.420056956000053, -1.97395764099997 ], [ 115.416111111000077, -2.012777777999929 ], [ 115.396944445000031, -2.013055555999927 ], [ 115.396878984000068, -2.039088203999938 ], [ 115.408582750000051, -2.058281286999943 ], [ 115.396241230000101, -2.046718234999958 ], [ 115.3775020060001, -2.050868350999963 ], [ 115.363611112000058, -2.044166666999956 ], [ 115.354888889000108, -2.064861110999971 ], [ 115.355017481000118, -2.09450134399998 ], [ 115.335819447000063, -2.09575495699994 ], [ 115.297275186000093, -2.143721279999966 ], [ 115.302350617000116, -2.182639829999971 ], [ 115.290271646000065, -2.223940719999973 ], [ 115.27133333300003, -2.21858333299997 ], [ 115.264708791000089, -2.226327384999934 ], [ 115.24370604, -2.191961680999952 ], [ 115.240583333000018, -2.198916666999935 ], [ 115.254152, -2.209390998999936 ], [ 115.107258456000068, -2.304929840999932 ], [ 115.088984127000117, -2.348757526999975 ], [ 115.0736147880001, -2.350742744999934 ], [ 115.001364360000025, -2.395722854999974 ], [ 114.979673056000024, -2.368762777999962 ], [ 114.925916667000024, -2.251319443999932 ], [ 114.914276111000049, -2.241438888999937 ], [ 114.945202420000101, -2.220536949999939 ], [ 114.917101351000042, -2.226852611999959 ], [ 114.932034892000047, -2.192148408999969 ], [ 114.913398229000109, -2.168370853999932 ], [ 114.933869624000067, -2.114909259999934 ], [ 114.925166667000099, -2.089330555999936 ], [ 114.939555556000073, -1.999788888999944 ], [ 114.933721259000095, -1.988280177999968 ], [ 114.941322636000109, -1.98358172099995 ], [ 114.936333333000107, -1.838811110999927 ], [ 114.944333333000031, -1.78925 ], [ 114.986722222000026, -1.740611110999964 ], [ 114.991755, -1.720559166999976 ], [ 115.046916755000098, -1.658954231999928 ], [ 115.103163047000066, -1.631158012999947 ], [ 115.145110857000077, -1.640506540999979 ], [ 115.314486674000023, -1.64466161799993 ], [ 115.331976822000115, -1.609257617999958 ], [ 115.362063631000069, -1.62042697399994 ] ] ] } },
{ "type": "Feature", "properties": { "kemendagri_kab_code": 6271, "kemendagri_kab_name": "Kota Palangkaraya", "kemendagri_prov_code": 62, "kemendagri_prov_name": "Kalimantan Tengah" }, "geometry": { "type": "Polygon", "coordinates": [ [ [ 113.797972254000115, -1.604061158999968 ], [ 113.832362516000103, -1.806450000999973 ], [ 113.826056947000097, -2.011399997999945 ], [ 113.884770986000035, -2.081811106999965 ], [ 113.933519770000089, -2.150239119999981 ], [ 113.92750895100005, -2.154608757999938 ], [ 113.935700749000034, -2.163437439999939 ], [ 114.009198162000075, -2.162130554999976 ], [ 114.108287329000063, -2.187888888999964 ], [ 114.084967825000035, -2.268849994999925 ], [ 114.067098333000104, -2.272188882999956 ], [ 114.05636878200005, -2.298376323999946 ], [ 114.041782848000025, -2.310630007999976 ], [ 114.02492647400004, -2.403555118999975 ], [ 113.993918520000079, -2.394911103999959 ], [ 113.962940443000093, -2.401844553999979 ], [ 113.762, -2.401880555999981 ], [ 113.689916850000031, -2.243241539999929 ], [ 113.699671131000059, -2.157046310999931 ], [ 113.694690264000087, -2.086529313999961 ], [ 113.563401475000092, -1.916450376999933 ], [ 113.566602633000116, -1.907836900999939 ], [ 113.556919600000015, -1.903271289999964 ], [ 113.489381490000028, -1.786471149999954 ], [ 113.475689660000057, -1.680572419999976 ], [ 113.50202945400008, -1.644479319999959 ], [ 113.531056355000032, -1.654980554999952 ], [ 113.563834186, -1.653411105999965 ], [ 113.61610401400003, -1.626435645999948 ], [ 113.6481676840001, -1.58471923899998 ], [ 113.729890055000055, -1.590461107999943 ], [ 113.74950121300003, -1.60574999499994 ], [ 113.797972254000115, -1.604061158999968 ] ] ] } }
]
}
