{
"type": "FeatureCollection",
"name": "63",
"crs": { "type": "name", "properties": { "name": "urn:ogc:def:crs:OGC:1.3:CRS84" } },
"features": [
{ "type": "Feature", "properties": { "kemendagri_kab_code": 6301, "kemendagri_kab_name": "Kabupaten Tanah Laut", "kemendagri_prov_code": 63, "kemendagri_prov_name": "Kalimantan Selatan" }, "geometry": { "type": "MultiPolygon", "coordinates": [ [ [ [ 114.615121355000042, -4.062209583999959 ], [ 114.617855774000077, -4.063208127999928 ], [ 114.61458393800001, -4.064019517999952 ], [ 114.615121355000042, -4.062209583999959 ] ] ], [ [ [ 114.976388544000088, -4.033792098999925 ], [ 114.976187135000032, -4.033493768999961 ], [ 114.976499319000027, -4.03363534999994 ], [ 114.976388544000088, -4.033792098999925 ] ] ], [ [ [ 114.603749508000078, -3.879852695999944 ], [ 114.603976119000095, -3.880013042999963 ], [ 114.603806046000045, -3.880068111999947 ], [ 114.603749508000078, -3.879852695999944 ] ] ], [ [ [ 114.738659224000116, -3.510654009999939 ], [ 114.773152784000104, -3.523264395999945 ], [ 114.808598722000056, -3.524298255999952 ], [ 114.811878565000029, -3.539535117999947 ], [ 114.847319075000087, -3.550278778999939 ], [ 114.844514012000104, -3.55786618999997 ], [ 114.85758304, -3.55953491799994 ], [ 114.856770458000028, -3.56921054399993 ], [ 114.868872436000061, -3.554280450999954 ], [ 114.882129976000101, -3.556968174999952 ], [ 114.894218446000082, -3.543246218999968 ], [ 114.884793350000109, -3.556107242999929 ], [ 114.894041754000114, -3.56657308399997 ], [ 114.905454250000048, -3.562104594999937 ], [ 114.910767194000073, -3.567570003999947 ], [ 114.934807467000041, -3.61256616999998 ], [ 114.932015008, -3.623255373999939 ], [ 114.956177608000075, -3.625814859999934 ], [ 114.963059478000105, -3.634130297999945 ], [ 114.960267108000039, -3.65092255999997 ], [ 114.926834737000036, -3.70426919099998 ], [ 114.930512103000069, -3.712161613999967 ], [ 114.923592154000062, -3.721810152999979 ], [ 114.931107021000116, -3.728753326999936 ], [ 114.950432673000023, -3.72640281799994 ], [ 114.992570216000104, -3.701148205999971 ], [ 115.027185149000047, -3.693061659999955 ], [ 115.031625609000116, -3.702330151999945 ], [ 115.042322148000039, -3.701748142999975 ], [ 115.089609615000086, -3.673586680999961 ], [ 115.111285009000085, -3.638450392999971 ], [ 115.15978545400003, -3.626967882999963 ], [ 115.196727413000076, -3.604698599999949 ], [ 115.215511120000087, -3.604374059999941 ], [ 115.22829050100006, -3.597065540999949 ], [ 115.236019214000066, -3.578208513999925 ], [ 115.261272344000076, -3.561829702999944 ], [ 115.250000004000071, -3.590833332999978 ], [ 115.269444442, -3.650000003999935 ], [ 115.26194444500004, -3.66666666499998 ], [ 115.283333335000066, -3.700000003999946 ], [ 115.304166665000025, -3.694999996999968 ], [ 115.324361107000072, -3.705527780999944 ], [ 115.325000004000117, -3.75499999699997 ], [ 115.344586107000055, -3.766647220999971 ], [ 115.353647231000082, -3.813356668999972 ], [ 115.366902339000035, -3.817257285999972 ], [ 115.371673034000082, -3.82789149599995 ], [ 115.366539507000084, -3.85371751699995 ], [ 115.377280140000039, -3.858931651999967 ], [ 115.020239892000063, -4.006754609999973 ], [ 114.709119290000103, -4.16954704099993 ], [ 114.670050848000074, -4.177939974999958 ], [ 114.6283280990001, -4.169404973999974 ], [ 114.619208403000016, -4.160693714999979 ], [ 114.630171082000061, -4.147663712999929 ], [ 114.624398509000116, -4.06553899599993 ], [ 114.635232195000071, -4.060518332999948 ], [ 114.637849602000074, -4.028835809999975 ], [ 114.60233947800009, -3.80869937999995 ], [ 114.609829558000115, -3.794342079999979 ], [ 114.611381430000051, -3.741517836999947 ], [ 114.62310741400006, -3.71139385999993 ], [ 114.620696728000098, -3.672313421999945 ], [ 114.604352008000092, -3.622488484999963 ], [ 114.572065304000034, -3.571043561999943 ], [ 114.557078159000071, -3.556284109999979 ], [ 114.513718487, -3.542855663999944 ], [ 114.605424912000103, -3.534968502999959 ], [ 114.692971944000078, -3.512611110999956 ], [ 114.738659224000116, -3.510654009999939 ] ] ] ] } },
{ "type": "Feature", "properties": { "kemendagri_kab_code": 6302, "kemendagri_kab_name": "Kabupaten Kotabaru", "kemendagri_prov_code": 63, "kemendagri_prov_name": "Kalimantan Selatan" }, "geometry": { "type": "MultiPolygon", "coordinates": [ [ [ [ 115.650994541000046, -4.941197237999972 ], [ 115.649384921000092, -4.94253602799995 ], [ 115.648853064000036, -4.940800671999966 ], [ 115.650994541000046, -4.941197237999972 ] ] ], [ [ [ 115.678823557000101, -4.895574378999925 ], [ 115.661237768000092, -4.926561934999938 ], [ 115.634125336000011, -4.937643922999939 ], [ 115.653235302000098, -4.91226407299996 ], [ 115.678823557000101, -4.895574378999925 ] ] ], [ [ [ 115.854628676000061, -4.75823263999996 ], [ 115.834206660000063, -4.777228440999977 ], [ 115.839712124000016, -4.784030283999925 ], [ 115.853723516000059, -4.782184156999961 ], [ 115.847157625000023, -4.792560753999965 ], [ 115.802850478000096, -4.824391588999958 ], [ 115.765002843000048, -4.837404225999933 ], [ 115.792678117000037, -4.797182928999973 ], [ 115.831483220000109, -4.766183249999926 ], [ 115.854628676000061, -4.75823263999996 ] ] ], [ [ [ 115.840857152000012, -4.777648238999973 ], [ 115.842652040000075, -4.77630869199993 ], [ 115.8428548280001, -4.77721936699993 ], [ 115.840857152000012, -4.777648238999973 ] ] ], [ [ [ 115.862482872000101, -4.775686257999951 ], [ 115.864021656000091, -4.775785108999969 ], [ 115.862030251000078, -4.777967786999966 ], [ 115.862482872000101, -4.775686257999951 ] ] ], [ [ [ 115.878946464000023, -4.751554092999925 ], [ 115.879722463, -4.749624077999954 ], [ 115.880765786000097, -4.750551922999932 ], [ 115.878946464000023, -4.751554092999925 ] ] ], [ [ [ 115.753129677000061, -4.688852292999968 ], [ 115.740652690000047, -4.708560194999961 ], [ 115.711104920000025, -4.72679674699998 ], [ 115.707423765000044, -4.719681340999955 ], [ 115.718809718000102, -4.706204273999958 ], [ 115.753129677000061, -4.688852292999968 ] ] ], [ [ [ 115.834849345000066, -4.38026918099996 ], [ 115.836509066000076, -4.385912218999977 ], [ 115.834012891000043, -4.380325042999971 ], [ 115.834849345000066, -4.38026918099996 ] ] ], [ [ [ 115.810471105000033, -4.364061471999946 ], [ 115.809499469000116, -4.376063945999931 ], [ 115.795372898000096, -4.368247716999974 ], [ 115.800263979000079, -4.362462465999954 ], [ 115.810471105000033, -4.364061471999946 ] ] ], [ [ [ 115.818751536000036, -4.328857289999974 ], [ 115.817056386000104, -4.335495070999968 ], [ 115.813159035000012, -4.335784797999963 ], [ 115.818751536000036, -4.328857289999974 ] ] ], [ [ [ 116.119460308000043, -4.228381142999979 ], [ 116.124085980000018, -4.228484648999938 ], [ 116.121127120000097, -4.229580390999956 ], [ 116.120226494, -4.233550997999942 ], [ 116.119460308000043, -4.228381142999979 ] ] ], [ [ [ 116.045743726000069, -4.076486625999962 ], [ 116.049141459000111, -4.088876123999967 ], [ 116.044210882000016, -4.098073105999958 ], [ 116.041289377000112, -4.087096616999929 ], [ 116.045743726000069, -4.076486625999962 ] ] ], [ [ [ 116.058017454000037, -4.077181785999926 ], [ 116.05888681600004, -4.079069223999966 ], [ 116.057451627000091, -4.078793150999957 ], [ 116.058017454000037, -4.077181785999926 ] ] ], [ [ [ 116.048043487000086, -4.063855288999946 ], [ 116.049421726000105, -4.071245832999978 ], [ 116.045784284000092, -4.075024624999969 ], [ 116.048043487000086, -4.063855288999946 ] ] ], [ [ [ 116.129154564000032, -4.035241533999965 ], [ 116.129406288000041, -4.034235627999976 ], [ 116.130626614000107, -4.034462961999964 ], [ 116.129154564000032, -4.035241533999965 ] ] ], [ [ [ 116.052314862000117, -3.909615812999959 ], [ 116.052225632000045, -3.90974370899994 ], [ 116.051874662000046, -3.909895398999936 ], [ 116.052314862000117, -3.909615812999959 ] ] ], [ [ [ 116.115300627000011, -2.995212368999944 ], [ 116.132330430000025, -2.99502677199996 ], [ 116.131188288000089, -3.000694647999978 ], [ 116.1430665580001, -3.011687756999947 ], [ 116.109687479000058, -3.006933593999975 ], [ 116.115300627000011, -2.995212368999944 ] ] ], [ [ [ 116.093827691000115, -2.998705293999933 ], [ 116.111846196000101, -3.000310639999952 ], [ 116.108233628000107, -3.009096523999972 ], [ 116.09979748, -2.999526380999953 ], [ 116.093827691000115, -2.998705293999933 ] ] ], [ [ [ 116.102945786000078, -2.988906672999974 ], [ 116.104672967000056, -2.985440678999964 ], [ 116.106693437000104, -2.986217881999949 ], [ 116.102945786000078, -2.988906672999974 ] ] ], [ [ [ 116.100768579000032, -2.984844932999977 ], [ 116.098672367000063, -2.982970987999977 ], [ 116.1023818540001, -2.982717694999963 ], [ 116.100768579000032, -2.984844932999977 ] ] ], [ [ [ 116.128906335000011, -2.83159801599993 ], [ 116.128896817000054, -2.831084052999927 ], [ 116.129153799000051, -2.831245855999953 ], [ 116.128906335000011, -2.83159801599993 ] ] ], [ [ [ 116.126683442000058, -2.827971241999933 ], [ 116.121600914000055, -2.826600671999927 ], [ 116.122671671000035, -2.82384525599997 ], [ 116.126683442000058, -2.827971241999933 ] ] ], [ [ [ 116.154493499000068, -2.308166530999927 ], [ 116.23582516700003, -2.309114116999979 ], [ 116.236310000000117, -2.32789 ], [ 116.267947037000113, -2.339231746999928 ], [ 116.327657790000103, -2.340760080999928 ], [ 116.46264, -2.38722 ], [ 116.546796635000078, -2.408711163999953 ], [ 116.547123122000016, -2.40230768899994 ], [ 116.555655227000102, -2.411701724999944 ], [ 116.546242949000089, -2.459228356999972 ], [ 116.523229822000076, -2.515539501999967 ], [ 116.530917133000116, -2.537102057999959 ], [ 116.512104299000043, -2.562052894999965 ], [ 116.480489322000039, -2.57125664199998 ], [ 116.478164589000016, -2.516835988999958 ], [ 116.448847743000101, -2.502286132999927 ], [ 116.418185598000036, -2.500875309999969 ], [ 116.398234436000052, -2.528649694999956 ], [ 116.361297140000033, -2.524950635999971 ], [ 116.35326645900011, -2.517633793999948 ], [ 116.335610858000109, -2.534349506999945 ], [ 116.301679744000012, -2.519727718999945 ], [ 116.288997217000087, -2.533445311999969 ], [ 116.317368324000086, -2.542328484999928 ], [ 116.323031441000012, -2.580728523999937 ], [ 116.332132879000028, -2.58063929399998 ], [ 116.357515304000117, -2.549588754999945 ], [ 116.359552122000082, -2.563275414999964 ], [ 116.378226132, -2.567748801999926 ], [ 116.391417864000118, -2.58729845299996 ], [ 116.414907903000085, -2.57806614499998 ], [ 116.380358129000115, -2.631556427999953 ], [ 116.367090255000107, -2.668333376999954 ], [ 116.358795454000074, -2.765396350999936 ], [ 116.371915802000103, -2.804429028999948 ], [ 116.35868123900002, -2.864814990999946 ], [ 116.363915939000094, -2.877865034999957 ], [ 116.344448890000081, -2.893731469999977 ], [ 116.315598163000118, -2.94733630199994 ], [ 116.269995555000037, -3.00253470399997 ], [ 116.220536079000112, -3.007840901999941 ], [ 116.210290120000082, -2.996647916999962 ], [ 116.207101642000111, -2.938455818999955 ], [ 116.181117918000041, -2.95038428099997 ], [ 116.148776294000072, -2.934862832999954 ], [ 116.144474228000036, -2.91620785799995 ], [ 116.148129080000103, -2.899485005999964 ], [ 116.155324570000062, -2.900151255999958 ], [ 116.155911504000073, -2.870996512999966 ], [ 116.134949690000099, -2.826424591999967 ], [ 116.144129651000071, -2.792407817999958 ], [ 116.11774618700008, -2.824687585999925 ], [ 116.133978453000054, -2.848893128999975 ], [ 116.132645955000044, -2.864764133999927 ], [ 116.121010391000027, -2.871831528999962 ], [ 116.130908949000059, -2.87632395199995 ], [ 116.131632305000039, -2.885784688999934 ], [ 116.103402380000034, -2.916984180999975 ], [ 116.100946776000114, -2.933621372999937 ], [ 116.10492523500011, -2.94890702999993 ], [ 116.122514210000077, -2.961699012999929 ], [ 116.117983717000016, -2.967923682999981 ], [ 116.111775207000051, -2.963643527999977 ], [ 116.113738262000084, -2.973310087999948 ], [ 116.088696370000093, -2.987677358999974 ], [ 116.092539128000112, -2.99960925299996 ], [ 116.10260586600009, -3.008533206999971 ], [ 116.107914729000072, -3.010089944999947 ], [ 116.118493812000111, -3.009697333999952 ], [ 116.121713223000029, -3.015224821999936 ], [ 116.158051876000059, -3.015006863999929 ], [ 116.153559453000071, -3.031834411999967 ], [ 116.172956819000092, -3.062044048999951 ], [ 116.212323505000086, -3.077917219999961 ], [ 116.218384616000094, -3.093016549999959 ], [ 116.236700523000081, -3.094025466999938 ], [ 116.267921822000062, -3.110115356999927 ], [ 116.274303536000048, -3.125491433999969 ], [ 116.211263727000073, -3.127609278999955 ], [ 116.180812496000044, -3.161021294999955 ], [ 116.171109054000112, -3.156638624999971 ], [ 116.167303502000095, -3.174460787999976 ], [ 116.183657538000034, -3.228929029999961 ], [ 116.176559326000074, -3.25088003299993 ], [ 116.092224171000112, -3.28300842799996 ], [ 116.084422154000094, -3.277535272999955 ], [ 116.081551575000049, -3.257360668999979 ], [ 116.070439999000087, -3.265040004999946 ], [ 116.060460628000101, -3.256880811999963 ], [ 116.04131, -3.26149 ], [ 115.990040284000088, -3.219950134999976 ], [ 115.97394208500009, -3.223733889999949 ], [ 115.963910399000042, -3.246911053999952 ], [ 115.946811005000086, -3.253910040999926 ], [ 115.928080775000012, -3.227272539999944 ], [ 115.95130967800003, -3.193333000999928 ], [ 115.93418, -3.152380001999973 ], [ 115.840533024000024, -3.170245370999965 ], [ 115.828907839000067, -3.186577774999932 ], [ 115.79228, -3.181800000999942 ], [ 115.768813674000057, -3.195165775999953 ], [ 115.748404381000114, -3.159023312999977 ], [ 115.740933195000025, -3.159294238999962 ], [ 115.730547671000068, -3.118402381999942 ], [ 115.710883955000099, -3.114070796999954 ], [ 115.716617258000042, -3.097701831999927 ], [ 115.706192199000043, -3.096073755999953 ], [ 115.711200785000074, -3.088340608999943 ], [ 115.703142469000113, -3.07856695299995 ], [ 115.687809999000024, -3.080410001999951 ], [ 115.681836245000113, -3.072091374999957 ], [ 115.67828445900011, -3.085655651999957 ], [ 115.664962604000038, -3.064898340999946 ], [ 115.651111886000081, -3.071090839999954 ], [ 115.637039999000081, -3.056540003999942 ], [ 115.62278, -3.069470001999946 ], [ 115.591600030000109, -3.035863291999931 ], [ 115.584502796000038, -3.004957167999976 ], [ 115.576775688000112, -3.020453485999951 ], [ 115.566891092000105, -3.012560587999928 ], [ 115.517855091000115, -3.026989532999949 ], [ 115.512109204000012, -3.008366249999938 ], [ 115.526047766000033, -2.998394526999959 ], [ 115.532899814000075, -2.979966750999949 ], [ 115.557258783000066, -2.984619260999978 ], [ 115.554212961000076, -2.944475077999925 ], [ 115.577196288000096, -2.930856977999952 ], [ 115.595811971000103, -2.891637120999974 ], [ 115.577255642000068, -2.883483079999962 ], [ 115.57158314000003, -2.851649153999972 ], [ 115.555638889000079, -2.834611110999958 ], [ 115.589574957000082, -2.760169768999958 ], [ 115.666749278000111, -2.765979930999947 ], [ 115.660813837000092, -2.748058524999976 ], [ 115.668731784000101, -2.739215939999951 ], [ 115.665229645000068, -2.721120431999964 ], [ 115.707666994000078, -2.702173733999928 ], [ 115.715548220000073, -2.691572546999964 ], [ 115.709421768000084, -2.676750638999977 ], [ 115.716551205000087, -2.664561779999929 ], [ 115.715163858000096, -2.676707072999932 ], [ 115.732031787000096, -2.684559265999951 ], [ 115.746895466000069, -2.666666312999951 ], [ 115.734138735000101, -2.657569924999962 ], [ 115.727167792000046, -2.638789831999929 ], [ 115.676716143000021, -2.613095165999937 ], [ 115.689625250000063, -2.590388348999966 ], [ 115.711590639000065, -2.590040655999928 ], [ 115.744498996000061, -2.616815535999933 ], [ 115.756944052000108, -2.600226404999944 ], [ 115.756944, -2.616666 ], [ 115.809040847, -2.616669058999946 ], [ 115.81957730900001, -2.601397876999954 ], [ 115.818672484000103, -2.561897347999945 ], [ 115.796017636000101, -2.567896935999954 ], [ 115.781241135000073, -2.545802095999932 ], [ 115.770828639000115, -2.554434889999925 ], [ 115.759366815000021, -2.552522508999971 ], [ 115.750583026000072, -2.532390555999939 ], [ 115.782031934000088, -2.514086259999942 ], [ 115.794681882000077, -2.478632093999977 ], [ 115.790700958000116, -2.435293248999926 ], [ 115.821374072000026, -2.395331598999974 ], [ 115.857281983, -2.386044466999977 ], [ 115.873973903000092, -2.370679097999925 ], [ 115.887513036000087, -2.374272083999927 ], [ 115.889827122000042, -2.337127309999971 ], [ 115.911609394000038, -2.336123494999924 ], [ 115.92602497200005, -2.325267302999976 ], [ 115.945963291000112, -2.329932603999964 ], [ 116.003953601000035, -2.31530803499993 ], [ 116.013978123000015, -2.322203747999936 ], [ 116.033041004000097, -2.307385592999935 ], [ 116.045144979000042, -2.328722149999976 ], [ 116.063068562000012, -2.325729678999949 ], [ 116.07966513000008, -2.336413025999946 ], [ 116.104879, -2.326985 ], [ 116.113609752000116, -2.337747651999962 ], [ 116.149694664000094, -2.324131337999972 ], [ 116.154493499000068, -2.308166530999927 ] ] ], [ [ [ 116.171043075000057, -4.40460385199998 ], [ 116.170100213000069, -4.40583522299994 ], [ 116.169377452000049, -4.405897683999967 ], [ 116.171043075000057, -4.40460385199998 ] ] ], [ [ [ 116.172590462000016, -4.403123588999961 ], [ 116.171244877000049, -4.403077189999976 ], [ 116.172244250000062, -4.401938617999974 ], [ 116.172590462000016, -4.403123588999961 ] ] ], [ [ [ 116.210301670000035, -4.085971299999926 ], [ 116.21360534900009, -4.096281889999943 ], [ 116.206495622000034, -4.10212211399994 ], [ 116.199749148000024, -4.088617832999944 ], [ 116.210301670000035, -4.085971299999926 ] ] ], [ [ [ 116.195038810000028, -4.098044736999952 ], [ 116.182890143, -4.099130180999964 ], [ 116.192209147000085, -4.082053822999967 ], [ 116.19712430800007, -4.088939693999976 ], [ 116.195038810000028, -4.098044736999952 ] ] ], [ [ [ 116.247550384000078, -4.089130771999976 ], [ 116.248030241000038, -4.089293922999957 ], [ 116.247382435000077, -4.089428281999972 ], [ 116.247550384000078, -4.089130771999976 ] ] ], [ [ [ 116.179197089000013, -4.044158018999951 ], [ 116.178624059000072, -4.050314813999933 ], [ 116.163340728000094, -4.057032615999958 ], [ 116.169922141000029, -4.045803731999968 ], [ 116.179197089000013, -4.044158018999951 ] ] ], [ [ [ 116.14384494400008, -4.038852449999979 ], [ 116.143005432000109, -4.039771726999959 ], [ 116.143385620000117, -4.03854770199996 ], [ 116.14384494400008, -4.038852449999979 ] ] ], [ [ [ 116.137424250000095, -4.03770757999996 ], [ 116.136973465000096, -4.038189096999929 ], [ 116.137549940000099, -4.036576097999955 ], [ 116.137424250000095, -4.03770757999996 ] ] ], [ [ [ 116.198796974000061, -4.025629432999949 ], [ 116.208604003, -4.026383093999925 ], [ 116.215072586000019, -4.03031079699997 ], [ 116.206299683000111, -4.037719895999942 ], [ 116.198796974000061, -4.025629432999949 ] ] ], [ [ [ 116.18273591500008, -4.011518964999937 ], [ 116.183189203000097, -4.01129410599998 ], [ 116.182925082000111, -4.011658162999936 ], [ 116.18273591500008, -4.011518964999937 ] ] ], [ [ [ 116.291693935000012, -3.92170591699994 ], [ 116.291341459000023, -3.919904663999944 ], [ 116.29269501400006, -3.921751111999924 ], [ 116.291693935000012, -3.92170591699994 ] ] ], [ [ [ 116.296130083000094, -3.846691659999976 ], [ 116.294654208000111, -3.845299550999925 ], [ 116.29603114300005, -3.844136788999947 ], [ 116.296130083000094, -3.846691659999976 ] ] ], [ [ [ 116.303453216000094, -3.682196101999978 ], [ 116.303649287000098, -3.682015958999955 ], [ 116.303704080000102, -3.682178417999978 ], [ 116.303453216000094, -3.682196101999978 ] ] ], [ [ [ 116.251720839000086, -3.212865964999935 ], [ 116.271524966000015, -3.221129489999953 ], [ 116.28033330300002, -3.214233415999956 ], [ 116.281335542000079, -3.222679045999939 ], [ 116.27233753400003, -3.238497726999981 ], [ 116.273854633000042, -3.28321455899993 ], [ 116.249365550000107, -3.37520957199996 ], [ 116.259382495000068, -3.397628465999958 ], [ 116.300878736000072, -3.43839345899994 ], [ 116.314186526000071, -3.477115908999963 ], [ 116.313326911000104, -3.504520434999961 ], [ 116.310576817000083, -3.507604049999941 ], [ 116.302345672000115, -3.505379139999945 ], [ 116.295643871000038, -3.505657458999963 ], [ 116.292894226000044, -3.506906701999981 ], [ 116.27358159500011, -3.524045288999957 ], [ 116.271493091000025, -3.546895394999979 ], [ 116.306153723000079, -3.590159909999954 ], [ 116.289369272000044, -3.61423809799993 ], [ 116.300941844000022, -3.640064393999978 ], [ 116.295079412000064, -3.670842575999927 ], [ 116.297536423000111, -3.680932997999946 ], [ 116.300936796000087, -3.682670607999967 ], [ 116.303916808000054, -3.682685977999938 ], [ 116.304586013000062, -3.681766841999945 ], [ 116.305067688, -3.682133160999967 ], [ 116.300519232000056, -3.713136446999954 ], [ 116.314695288000053, -3.728583146999938 ], [ 116.339138806000051, -3.728398169999934 ], [ 116.314797246000012, -3.773004198999956 ], [ 116.276219721000075, -3.797614697999961 ], [ 116.271194661000095, -3.816420443999959 ], [ 116.285931886000071, -3.84210578699998 ], [ 116.298470375000079, -3.848216977999925 ], [ 116.294824102, -3.862941719999981 ], [ 116.30559530700009, -3.870026864999943 ], [ 116.316701591000083, -3.862620409999977 ], [ 116.303995300000111, -3.885948025999937 ], [ 116.310210472000108, -3.916489012999932 ], [ 116.290125364, -3.919148380999957 ], [ 116.286531841000055, -3.909177332999946 ], [ 116.273372143000074, -3.90696793799998 ], [ 116.243504071000075, -3.942264439999974 ], [ 116.207488548000015, -3.951536363999935 ], [ 116.202280564000034, -3.970289484999967 ], [ 116.209985862000053, -3.985325601999932 ], [ 116.193580464000092, -3.98456921199994 ], [ 116.172441847000073, -3.996931711999935 ], [ 116.143320708000033, -4.034992153999951 ], [ 116.121348841000099, -4.027134692999937 ], [ 116.115862066000091, -4.039270457999976 ], [ 116.109074778000036, -4.034843874999979 ], [ 116.098167921000027, -4.076185087999932 ], [ 116.091010777000065, -4.08566785499994 ], [ 116.094721627000013, -4.070941105999964 ], [ 116.083693870000047, -4.070818049999957 ], [ 116.09689963400001, -4.055398507999939 ], [ 116.084950094000078, -4.057096576999925 ], [ 116.087044207000076, -4.050208787999964 ], [ 116.072207272000014, -4.048395558999971 ], [ 116.068735909000111, -4.037029191999977 ], [ 116.055758429000093, -4.042313864999926 ], [ 116.054889856000045, -4.052534502999947 ], [ 116.048334453000052, -4.062141478999933 ], [ 116.049471203000053, -4.035490658999947 ], [ 116.038889157000085, -4.022759593999979 ], [ 116.043359949000092, -4.01093482999994 ], [ 116.048213813000075, -4.014561481999976 ], [ 116.055968871000118, -4.006604429999925 ], [ 116.050020202000042, -3.989353804999951 ], [ 116.065024731000108, -3.96355935899993 ], [ 116.068541204000098, -3.937305318999961 ], [ 116.077468257000078, -3.93106731599994 ], [ 116.072606199, -3.907682714999964 ], [ 116.056973075000087, -3.903759374999936 ], [ 116.065138864, -3.894859564999933 ], [ 116.062202891000084, -3.849252543999967 ], [ 116.073964043000046, -3.848565506999932 ], [ 116.081365984000058, -3.825063042999943 ], [ 116.052941042000043, -3.760786165999946 ], [ 116.024223206000102, -3.729567196999938 ], [ 116.021115380000083, -3.707117660999927 ], [ 116.005748839000034, -3.681789991999949 ], [ 116.01174530600008, -3.643313808999949 ], [ 116.002359662000117, -3.637984556999925 ], [ 116.010626303000095, -3.627841596999929 ], [ 116.00997514900007, -3.612059473999977 ], [ 116.036614087000089, -3.582101660999967 ], [ 116.04117317400005, -3.563075797999943 ], [ 116.035681755000041, -3.55781680399997 ], [ 116.047058965000019, -3.543621535999932 ], [ 116.039319287000012, -3.480974164999964 ], [ 116.06948326600002, -3.439423782999938 ], [ 116.103783189000069, -3.355015541999933 ], [ 116.098124601000109, -3.348793135999927 ], [ 116.114237310000021, -3.307532673999958 ], [ 116.12341471600007, -3.298726858999942 ], [ 116.139198784000087, -3.301724425999964 ], [ 116.251720839000086, -3.212865964999935 ] ] ], [ [ [ 116.29928158000007, -3.507441425999957 ], [ 116.298873094000101, -3.505792011999972 ], [ 116.302320616000088, -3.506582508999941 ], [ 116.29928158000007, -3.507441425999957 ] ] ], [ [ [ 116.183678953000026, -3.235141802999976 ], [ 116.18529460700006, -3.24174004799994 ], [ 116.182325040000023, -3.242787010999962 ], [ 116.183678953000026, -3.235141802999976 ] ] ], [ [ [ 116.259786808000058, -3.094884061999949 ], [ 116.265949612000099, -3.093622947999961 ], [ 116.265426130000037, -3.097858388999953 ], [ 116.259786808000058, -3.094884061999949 ] ] ], [ [ [ 116.275575007000043, -3.07948502399995 ], [ 116.282380266000018, -3.082711572999926 ], [ 116.278344700000048, -3.093428664999976 ], [ 116.271805941000025, -3.089688151999951 ], [ 116.275575007000043, -3.07948502399995 ] ] ], [ [ [ 116.281423722000113, -3.072289533999935 ], [ 116.283113140000069, -3.069101055999965 ], [ 116.283708005000108, -3.070385964999957 ], [ 116.281423722000113, -3.072289533999935 ] ] ], [ [ [ 116.175561550000111, -3.037116179999941 ], [ 116.186454723000111, -3.043512170999975 ], [ 116.174690668000039, -3.060615736999978 ], [ 116.167452347000108, -3.04152770099995 ], [ 116.175561550000111, -3.037116179999941 ] ] ], [ [ [ 116.149376640000014, -2.990686101999927 ], [ 116.176779834000058, -2.998219130999928 ], [ 116.16952247800009, -3.038136968999936 ], [ 116.155450346000066, -3.029956381999966 ], [ 116.159819036000044, -3.013124074999951 ], [ 116.133835322000095, -2.997805104999941 ], [ 116.138560932000019, -2.989510303999964 ], [ 116.136479961000077, -2.976932817999966 ], [ 116.149376640000014, -2.990686101999927 ] ] ], [ [ [ 116.13452880300008, -2.97483889199998 ], [ 116.134819009000012, -2.99365681699993 ], [ 116.123354766000034, -2.988174538999942 ], [ 116.13452880300008, -2.97483889199998 ] ] ], [ [ [ 116.131314349000036, -2.833120870999949 ], [ 116.130067512000096, -2.832007283999928 ], [ 116.130400636000104, -2.831912104999958 ], [ 116.131314349000036, -2.833120870999949 ] ] ], [ [ [ 116.310113758000057, -3.882601061999935 ], [ 116.308832223000081, -3.882508947999952 ], [ 116.30782802300007, -3.881376239999952 ], [ 116.310113758000057, -3.882601061999935 ] ] ], [ [ [ 116.311387936000074, -3.882263626999929 ], [ 116.310451884000031, -3.881347987999959 ], [ 116.311471415000028, -3.881405830999938 ], [ 116.311387936000074, -3.882263626999929 ] ] ], [ [ [ 116.321279344000118, -3.816470852999942 ], [ 116.314249440000026, -3.844221296999933 ], [ 116.297265830000015, -3.846402807999937 ], [ 116.314048592000063, -3.819563500999948 ], [ 116.321279344000118, -3.816470852999942 ] ] ], [ [ [ 116.315156312000113, -3.785711018999962 ], [ 116.314094661000013, -3.782480073999977 ], [ 116.316481807000059, -3.783890280999969 ], [ 116.315156312000113, -3.785711018999962 ] ] ], [ [ [ 116.337593332000097, -3.723852376999957 ], [ 116.336894948, -3.722172024999963 ], [ 116.338257524000028, -3.72244182399993 ], [ 116.337593332000097, -3.723852376999957 ] ] ], [ [ [ 116.341826684000011, -3.703436972999953 ], [ 116.348412468000106, -3.708178114999953 ], [ 116.345478300000082, -3.711404330999926 ], [ 116.341826684000011, -3.703436972999953 ] ] ], [ [ [ 116.346970290000058, -3.701313705999951 ], [ 116.348883284000067, -3.700824065999939 ], [ 116.346566580000058, -3.702413724999928 ], [ 116.346970290000058, -3.701313705999951 ] ] ], [ [ [ 116.303671996000048, -3.682582792999938 ], [ 116.303672132000088, -3.682407201999979 ], [ 116.303844603000016, -3.68255014999994 ], [ 116.303671996000048, -3.682582792999938 ] ] ], [ [ [ 116.379483292000032, -3.668711286999951 ], [ 116.382023367000102, -3.671358436999981 ], [ 116.379727187000071, -3.673131134999949 ], [ 116.379483292000032, -3.668711286999951 ] ] ], [ [ [ 116.383436043000074, -3.664468548999935 ], [ 116.383489343000065, -3.664285805999953 ], [ 116.383536932000084, -3.664403827999934 ], [ 116.383436043000074, -3.664468548999935 ] ] ], [ [ [ 116.60674850800001, -3.65724357199997 ], [ 116.604320686000051, -3.66099265899993 ], [ 116.603448187000026, -3.655620940999938 ], [ 116.60674850800001, -3.65724357199997 ] ] ], [ [ [ 116.386743325000111, -3.656117294999945 ], [ 116.383097991000113, -3.656919172999949 ], [ 116.384911140000099, -3.654018610999969 ], [ 116.386743325000111, -3.656117294999945 ] ] ], [ [ [ 116.616085853000072, -3.658221692999973 ], [ 116.614492601000052, -3.654009649999978 ], [ 116.61704505900002, -3.65450892299998 ], [ 116.616085853000072, -3.658221692999973 ] ] ], [ [ [ 116.332232482000109, -3.59165491899995 ], [ 116.350592403000064, -3.603347590999931 ], [ 116.338899732000073, -3.618480962999968 ], [ 116.332232482000109, -3.59165491899995 ] ] ], [ [ [ 116.308335689000046, -3.593257967999932 ], [ 116.307669440000041, -3.593460221999976 ], [ 116.307550467000056, -3.592710691999969 ], [ 116.308335689000046, -3.593257967999932 ] ] ], [ [ [ 116.306479709000087, -3.590128976999949 ], [ 116.307514775000072, -3.591747009999949 ], [ 116.306301250000047, -3.592163415999948 ], [ 116.306479709000087, -3.590128976999949 ] ] ], [ [ [ 116.403436640000109, -3.585290131999955 ], [ 116.403453772000034, -3.58521303699996 ], [ 116.403474711000058, -3.58526633699995 ], [ 116.403436640000109, -3.585290131999955 ] ] ], [ [ [ 116.403484893000041, -3.585003971999924 ], [ 116.403420053000104, -3.585051560999943 ], [ 116.403411725000069, -3.58500218699993 ], [ 116.403484893000041, -3.585003971999924 ] ] ], [ [ [ 116.403342959000042, -3.584795510999925 ], [ 116.403381506000073, -3.584767671999941 ], [ 116.403398638000112, -3.584796224999934 ], [ 116.403342959000042, -3.584795510999925 ] ] ], [ [ [ 116.403486868000073, -3.584522967999931 ], [ 116.40351161500007, -3.584500124999977 ], [ 116.403526843, -3.584529629999963 ], [ 116.403486868000073, -3.584522967999931 ] ] ], [ [ [ 117.45601956500002, -3.510258084999975 ], [ 117.457797023000012, -3.510515066999972 ], [ 117.456747680000035, -3.511343118999946 ], [ 117.45601956500002, -3.510258084999975 ] ] ], [ [ [ 116.410241621000068, -3.361589263999974 ], [ 116.43138345300008, -3.367549604999965 ], [ 116.434671735000052, -3.421640017999948 ], [ 116.406301830000075, -3.534741391999944 ], [ 116.398788791000015, -3.627143073999946 ], [ 116.386853415000019, -3.627209698999934 ], [ 116.38185721100001, -3.650569620999931 ], [ 116.361444886000072, -3.652987430999929 ], [ 116.343067582000117, -3.568200554999976 ], [ 116.312624214000039, -3.554842838999946 ], [ 116.345238912000013, -3.451592698999946 ], [ 116.390987425000048, -3.412501835999933 ], [ 116.410241621000068, -3.361589263999974 ] ] ], [ [ [ 116.372282615000017, -3.370006358999944 ], [ 116.368784807000111, -3.368403791999981 ], [ 116.370180361000052, -3.366904731999966 ], [ 116.372282615000017, -3.370006358999944 ] ] ] ] } },
{ "type": "Feature", "properties": { "kemendagri_kab_code": 6303, "kemendagri_kab_name": "Kabupaten Banjar", "kemendagri_prov_code": 63, "kemendagri_prov_name": "Kalimantan Selatan" }, "geometry": { "type": "Polygon", "coordinates": [ [ [ 115.555741389000104, -2.831135 ], [ 115.57158314000003, -2.851649153999972 ], [ 115.577255642000068, -2.883483079999962 ], [ 115.595811971000103, -2.891637120999974 ], [ 115.577196288000096, -2.930856977999952 ], [ 115.554212961000076, -2.944475077999925 ], [ 115.557258783000066, -2.984619260999978 ], [ 115.532899814000075, -2.979966750999949 ], [ 115.526047766000033, -2.998394526999959 ], [ 115.512109204000012, -3.008366249999938 ], [ 115.51912225500007, -3.033163307999928 ], [ 115.499456689000112, -3.042366523999931 ], [ 115.495934739000063, -3.058875822999937 ], [ 115.48343442700002, -3.06281936299996 ], [ 115.480317543000069, -3.075494428999946 ], [ 115.49159596100003, -3.086752090999937 ], [ 115.487693834000083, -3.096179304999964 ], [ 115.478732111000113, -3.095162551999977 ], [ 115.471337250000033, -3.112829441999963 ], [ 115.460443653000084, -3.10824951099994 ], [ 115.44541827, -3.122829564999961 ], [ 115.434415330000093, -3.119235411999966 ], [ 115.4323438240001, -3.136623646999965 ], [ 115.423585461000016, -3.141927050999925 ], [ 115.418342841000026, -3.181910517999938 ], [ 115.424474003000114, -3.201344460999962 ], [ 115.414655803000073, -3.221886468999969 ], [ 115.420592408000061, -3.227966132999939 ], [ 115.445935551000048, -3.22514849199996 ], [ 115.447494846000041, -3.240824700999951 ], [ 115.437357960000099, -3.259597380999935 ], [ 115.424572686000033, -3.259596777999946 ], [ 115.402233781000064, -3.236282113999948 ], [ 115.392056810000099, -3.250351659999978 ], [ 115.428878687000065, -3.295993719999956 ], [ 115.41587210900002, -3.315850750999971 ], [ 115.416633686000068, -3.336905367999975 ], [ 115.403187959000093, -3.340962148999949 ], [ 115.396096959000033, -3.36237449999993 ], [ 115.390729676000092, -3.437426071999937 ], [ 115.411508112000092, -3.45166913099996 ], [ 115.351597576000017, -3.503392757999961 ], [ 115.304962882000041, -3.516692852999938 ], [ 115.270568007000065, -3.558217551999974 ], [ 115.236019214000066, -3.578208513999925 ], [ 115.225620182000057, -3.599013536999962 ], [ 115.186961534000034, -3.608142375999932 ], [ 115.12188991000005, -3.640669854999942 ], [ 115.111285009000085, -3.638450392999971 ], [ 115.089609615000086, -3.673586680999961 ], [ 115.041391331000113, -3.702198161999945 ], [ 115.031625609000116, -3.702330151999945 ], [ 115.027185149000047, -3.693061659999955 ], [ 114.992570216000104, -3.701148205999971 ], [ 114.950432673000023, -3.72640281799994 ], [ 114.931107021000116, -3.728753326999936 ], [ 114.923592154000062, -3.721810152999979 ], [ 114.930512103000069, -3.712161613999967 ], [ 114.926834737000036, -3.70426919099998 ], [ 114.960267108000039, -3.65092255999997 ], [ 114.963059478000105, -3.634130297999945 ], [ 114.956177608000075, -3.625814859999934 ], [ 114.932015008, -3.623255373999939 ], [ 114.934807467000041, -3.61256616999998 ], [ 114.910767194000073, -3.567570003999947 ], [ 114.905454250000048, -3.562104594999937 ], [ 114.894041754000114, -3.56657308399997 ], [ 114.884793350000109, -3.556107242999929 ], [ 114.905238, -3.532148 ], [ 114.906444444000044, -3.497333332999972 ], [ 114.890833333000046, -3.472222221999971 ], [ 114.901388888000042, -3.475 ], [ 114.904834651000101, -3.454455583999959 ], [ 114.873734, -3.439164 ], [ 114.865004000000113, -3.445764 ], [ 114.845063986000014, -3.437542403999942 ], [ 114.839968948000092, -3.425486241999977 ], [ 114.829449, -3.430513 ], [ 114.783814260000099, -3.421200311999939 ], [ 114.747619973000042, -3.39105825799993 ], [ 114.739160889000118, -3.389686162999965 ], [ 114.735805556000059, -3.398416665999946 ], [ 114.736569938000116, -3.384139359999949 ], [ 114.719252948000076, -3.377498233999972 ], [ 114.674579000000108, -3.460817 ], [ 114.682095305000075, -3.517774489999965 ], [ 114.605424912000103, -3.534968502999959 ], [ 114.512988046000032, -3.542466234999949 ], [ 114.498819110000113, -3.518871934999936 ], [ 114.51271991100009, -3.513178748999962 ], [ 114.515132114000039, -3.501720787999943 ], [ 114.519758724000098, -3.432788433999974 ], [ 114.506753786000104, -3.387968920999981 ], [ 114.522281286000066, -3.36341945099997 ], [ 114.549020774000041, -3.374026485999934 ], [ 114.569870645000037, -3.366780095999957 ], [ 114.566620268000065, -3.373580342999958 ], [ 114.586150021000094, -3.38214000399995 ], [ 114.595729963000053, -3.36678997599995 ], [ 114.615949854000064, -3.368429495999976 ], [ 114.632940069000028, -3.346482852999941 ], [ 114.6570197530001, -3.348350048999976 ], [ 114.659589075000099, -3.33559736199993 ], [ 114.628323557000044, -3.313124572999925 ], [ 114.638611111000046, -3.275611110999932 ], [ 114.76715945, -3.226951219999933 ], [ 114.78037190900011, -3.230544155999951 ], [ 114.789083943000037, -3.202769998999941 ], [ 114.798432369000011, -3.210093899999947 ], [ 114.821936131000029, -3.200656335999952 ], [ 114.82555555600004, -3.165138888999934 ], [ 114.869055556000035, -3.136555555999962 ], [ 114.869222222000076, -3.064027777999968 ], [ 114.830555556000036, -3.0945 ], [ 114.828361111000049, -3.015333332999944 ], [ 115.02575, -3.13425 ], [ 115.031277778000117, -3.144805555999937 ], [ 115.025138889000118, -3.16288888899993 ], [ 115.054666667000106, -3.17236111099993 ], [ 115.064583333000087, -3.167805555999962 ], [ 115.123055556000054, -3.196111110999936 ], [ 115.148555556000019, -3.185444443999927 ], [ 115.165582193000091, -3.188193376999948 ], [ 115.17475942100009, -3.16264177599993 ], [ 115.189926678, -3.162897008999948 ], [ 115.198574378000103, -3.175166386999933 ], [ 115.237638889000095, -3.166777777999926 ], [ 115.244361111000103, -3.155666666999934 ], [ 115.241944444000069, -3.13580555599998 ], [ 115.211444444000108, -3.125416666999968 ], [ 115.18116666700007, -3.130694443999971 ], [ 115.167972222000117, -3.114666666999938 ], [ 115.196916667000096, -3.085527777999971 ], [ 115.21633333300008, -3.047305555999969 ], [ 115.238555556000051, -3.047861110999975 ], [ 115.260361111000066, -3.028555555999958 ], [ 115.277805556000089, -2.997888888999967 ], [ 115.312833333000071, -2.981805555999927 ], [ 115.322527778000108, -2.96888888899997 ], [ 115.345055556000034, -2.965305555999976 ], [ 115.353611111000077, -2.983361110999965 ], [ 115.3875, -2.979027777999931 ], [ 115.398611111000037, -2.995861110999954 ], [ 115.4125, -2.98225 ], [ 115.435, -2.976944443999969 ], [ 115.446478991000049, -2.95706998199995 ], [ 115.465333333000103, -2.941111110999941 ], [ 115.477727945000083, -2.940267736999942 ], [ 115.485388889000092, -2.917277777999971 ], [ 115.523672508000118, -2.871567911999932 ], [ 115.542994344000022, -2.833553521999931 ], [ 115.555741389000104, -2.831135 ] ] ] } },
{ "type": "Feature", "properties": { "kemendagri_kab_code": 6304, "kemendagri_kab_name": "Kabupaten Barito Kuala", "kemendagri_prov_code": 63, "kemendagri_prov_name": "Kalimantan Selatan" }, "geometry": { "type": "Polygon", "coordinates": [ [ [ 114.859502664000047, -2.526507210999966 ], [ 114.804342225000028, -2.742284380999934 ], [ 114.811458329000061, -2.806774249999933 ], [ 114.839419455000098, -2.869968606999976 ], [ 114.799158164, -2.956758386999979 ], [ 114.81493300000011, -2.992209 ], [ 114.826626208000107, -2.99283171999997 ], [ 114.830555556000036, -3.0945 ], [ 114.869222222000076, -3.064027777999968 ], [ 114.869055556000035, -3.136555555999962 ], [ 114.82555555600004, -3.165138888999934 ], [ 114.821936131000029, -3.200656335999952 ], [ 114.798432369000011, -3.210093899999947 ], [ 114.789083943000037, -3.202769998999941 ], [ 114.78037190900011, -3.230544155999951 ], [ 114.76715945, -3.226951219999933 ], [ 114.625121051000065, -3.285062920999962 ], [ 114.607889194000109, -3.279878190999966 ], [ 114.601926996000088, -3.288921598999934 ], [ 114.568855340000027, -3.267411270999958 ], [ 114.561755409000057, -3.315206586999977 ], [ 114.506753786000104, -3.387968920999981 ], [ 114.519758724000098, -3.432788433999974 ], [ 114.51271991100009, -3.513178748999962 ], [ 114.498819110000113, -3.518871934999936 ], [ 114.485155020000093, -3.499405658999933 ], [ 114.429333869000061, -3.499659656999938 ], [ 114.370516911000095, -3.472256923999964 ], [ 114.365156893000062, -3.461532437999949 ], [ 114.353006270000037, -3.464373648999981 ], [ 114.347097760000111, -3.420092760999978 ], [ 114.362829999000041, -3.387119996999957 ], [ 114.35147, -3.368369998999981 ], [ 114.360460003000071, -3.359120003999976 ], [ 114.349550003000104, -3.34876999599993 ], [ 114.362149997000074, -3.329879998999957 ], [ 114.359939997000083, -3.316440001999979 ], [ 114.374787144000038, -3.287009463999937 ], [ 114.435929998, -3.242609994999953 ], [ 114.44949000400004, -3.209560001999932 ], [ 114.42366000200002, -3.179919997999946 ], [ 114.52611, -3.086670000999959 ], [ 114.518230001, -3.07775000099997 ], [ 114.52413999800001, -3.072470001999932 ], [ 114.53353000200002, -3.081329995999965 ], [ 114.545810004000032, -3.067829998999969 ], [ 114.528059996000025, -3.04486 ], [ 114.53303, -3.034560001999978 ], [ 114.519059997000113, -3.009800001999963 ], [ 114.52258297700007, -3.004298431999928 ], [ 114.50521999800003, -2.9997 ], [ 114.530150002000028, -2.969800000999953 ], [ 114.525912112000015, -2.952717006999933 ], [ 114.536104862000116, -2.959482858999934 ], [ 114.544225688000097, -2.949001358999965 ], [ 114.516869997000072, -2.919609996999952 ], [ 114.538390004, -2.927310002999945 ], [ 114.567239996000012, -2.863969997999959 ], [ 114.598889999000107, -2.890839998999979 ], [ 114.615289998000094, -2.884460002999958 ], [ 114.597681373000114, -2.815599379999981 ], [ 114.666672158000097, -2.798619324999947 ], [ 114.679397108000103, -2.778811686999973 ], [ 114.670500126000093, -2.754649278999977 ], [ 114.678515227000048, -2.739098706999926 ], [ 114.718034389000081, -2.740820305999932 ], [ 114.76202016000002, -2.720391580999944 ], [ 114.790757462000101, -2.669882032999965 ], [ 114.796485078000046, -2.592766855999969 ], [ 114.833164355, -2.56246346699993 ], [ 114.859502664000047, -2.526507210999966 ] ] ] } },
{ "type": "Feature", "properties": { "kemendagri_kab_code": 6305, "kemendagri_kab_name": "Kabupaten Tapin", "kemendagri_prov_code": 63, "kemendagri_prov_name": "Kalimantan Selatan" }, "geometry": { "type": "Polygon", "coordinates": [ [ [ 114.864554483, -2.528243949999933 ], [ 114.998093992, -2.757146772999931 ], [ 115.024598800000035, -2.779587614999969 ], [ 115.074129332000098, -2.786424233999981 ], [ 115.062809, -2.834002 ], [ 115.06879, -2.845223 ], [ 115.085504, -2.840958 ], [ 115.094396, -2.828867 ], [ 115.176009134000083, -2.856106761999968 ], [ 115.18858251000006, -2.870331518999933 ], [ 115.217347360000076, -2.875379229999965 ], [ 115.23168, -2.86832 ], [ 115.265996857, -2.930280536999931 ], [ 115.295696, -2.93291 ], [ 115.302158, -2.922113 ], [ 115.342602838000062, -2.937197651999952 ], [ 115.381246162000025, -2.915884886999947 ], [ 115.384565060000114, -2.904350200999943 ], [ 115.375218973000074, -2.895564598999954 ], [ 115.38240582100002, -2.881720331999929 ], [ 115.411855721000052, -2.892343002999951 ], [ 115.437414505000106, -2.883922793999943 ], [ 115.442968662000112, -2.889148680999938 ], [ 115.462011898000014, -2.872127153999941 ], [ 115.504814776000103, -2.883504443999925 ], [ 115.477727945000083, -2.940267736999942 ], [ 115.465333333000103, -2.941111110999941 ], [ 115.446478991000049, -2.95706998199995 ], [ 115.435, -2.976944443999969 ], [ 115.4125, -2.98225 ], [ 115.398611111000037, -2.995861110999954 ], [ 115.3875, -2.979027777999931 ], [ 115.353611111000077, -2.983361110999965 ], [ 115.345055556000034, -2.965305555999976 ], [ 115.322527778000108, -2.96888888899997 ], [ 115.312833333000071, -2.981805555999927 ], [ 115.277805556000089, -2.997888888999967 ], [ 115.260361111000066, -3.028555555999958 ], [ 115.238555556000051, -3.047861110999975 ], [ 115.21633333300008, -3.047305555999969 ], [ 115.196916667000096, -3.085527777999971 ], [ 115.167972222000117, -3.114666666999938 ], [ 115.18116666700007, -3.130694443999971 ], [ 115.211444444000108, -3.125416666999968 ], [ 115.241944444000069, -3.13580555599998 ], [ 115.244361111000103, -3.155666666999934 ], [ 115.237638889000095, -3.166777777999926 ], [ 115.198574378000103, -3.175166386999933 ], [ 115.189926678, -3.162897008999948 ], [ 115.17522967900004, -3.162479292999933 ], [ 115.165675739000108, -3.188159404999965 ], [ 115.148555556000019, -3.185444443999927 ], [ 115.123055556000054, -3.196111110999936 ], [ 115.064583333000087, -3.167805555999962 ], [ 115.054666667000106, -3.17236111099993 ], [ 115.025138889000118, -3.16288888899993 ], [ 115.031277778000117, -3.144805555999937 ], [ 115.02575, -3.13425 ], [ 114.826392535000082, -3.013207278999971 ], [ 114.826626208000107, -2.99283171999997 ], [ 114.81493300000011, -2.992209 ], [ 114.799158164, -2.956758386999979 ], [ 114.839419455000098, -2.869968606999976 ], [ 114.811458329000061, -2.806774249999933 ], [ 114.804342225000028, -2.742284380999934 ], [ 114.854275124000083, -2.545359171999962 ], [ 114.864554483, -2.528243949999933 ] ] ] } },
{ "type": "Feature", "properties": { "kemendagri_kab_code": 6306, "kemendagri_kab_name": "Kabupaten Hulu Sungai Selatan", "kemendagri_prov_code": 63, "kemendagri_prov_name": "Kalimantan Selatan" }, "geometry": { "type": "Polygon", "coordinates": [ [ [ 115.154722982000067, -2.554625066999961 ], [ 115.175151095000047, -2.557611313999928 ], [ 115.156753830000071, -2.567974636999963 ], [ 115.170400636000068, -2.600529284999936 ], [ 115.158147632, -2.611407504999931 ], [ 115.173377456000026, -2.636875621999934 ], [ 115.188508934000083, -2.63212257899994 ], [ 115.231300833000091, -2.682508055999961 ], [ 115.291390850000084, -2.690514238999981 ], [ 115.295009416000084, -2.700304531999961 ], [ 115.327024221000102, -2.696636028999933 ], [ 115.378236143000095, -2.74603528199998 ], [ 115.407504535000044, -2.75682768799993 ], [ 115.422979583000028, -2.77612045199993 ], [ 115.445211715000028, -2.779243017999931 ], [ 115.485343123, -2.728135608999935 ], [ 115.491916667000055, -2.735444443999938 ], [ 115.502333333000024, -2.727583332999927 ], [ 115.547797599000091, -2.729160947999958 ], [ 115.573676963000025, -2.71206217799994 ], [ 115.58807372800004, -2.713589555999931 ], [ 115.597942712000076, -2.72126448399996 ], [ 115.592145195000057, -2.754418842999939 ], [ 115.569460603000039, -2.814782071999957 ], [ 115.555742064000015, -2.831134692999967 ], [ 115.542994344000022, -2.833553521999931 ], [ 115.512323085000048, -2.885057513999925 ], [ 115.462011898000014, -2.872127153999941 ], [ 115.442968662000112, -2.889148680999938 ], [ 115.437414505000106, -2.883922793999943 ], [ 115.411855721000052, -2.892343002999951 ], [ 115.38240582100002, -2.881720331999929 ], [ 115.375218973000074, -2.895564598999954 ], [ 115.384565060000114, -2.904350200999943 ], [ 115.381246162000025, -2.915884886999947 ], [ 115.344434063000108, -2.937227509999957 ], [ 115.302158, -2.922113 ], [ 115.295696, -2.93291 ], [ 115.265996857, -2.930280536999931 ], [ 115.23168, -2.86832 ], [ 115.217347360000076, -2.875379229999965 ], [ 115.18858251000006, -2.870331518999933 ], [ 115.176009134000083, -2.856106761999968 ], [ 115.094396, -2.828867 ], [ 115.085504, -2.840958 ], [ 115.068018, -2.844774 ], [ 115.062809, -2.834002 ], [ 115.074129332000098, -2.786424233999981 ], [ 115.024598800000035, -2.779587614999969 ], [ 114.998093992, -2.757146772999931 ], [ 114.864554483, -2.528243949999933 ], [ 114.916433330000018, -2.52312496899998 ], [ 114.925090752000074, -2.50382876499998 ], [ 114.954749529000082, -2.509654591999947 ], [ 114.998462550000113, -2.499073321999958 ], [ 115.135095633000105, -2.540061176999927 ], [ 115.16115504600009, -2.552147662999971 ], [ 115.154722982000067, -2.554625066999961 ] ] ] } },
{ "type": "Feature", "properties": { "kemendagri_kab_code": 6307, "kemendagri_kab_name": "Kabupaten Hulu Sungai Tengah", "kemendagri_prov_code": 63, "kemendagri_prov_name": "Kalimantan Selatan" }, "geometry": { "type": "Polygon", "coordinates": [ [ [ 115.750583026000072, -2.532390555999939 ], [ 115.759366815000021, -2.552522508999971 ], [ 115.770828639000115, -2.554434889999925 ], [ 115.781241135000073, -2.545802095999932 ], [ 115.796017636000101, -2.567896935999954 ], [ 115.818672484000103, -2.561897347999945 ], [ 115.81957730900001, -2.601397876999954 ], [ 115.809040847, -2.616669058999946 ], [ 115.756944, -2.616666 ], [ 115.756944052000108, -2.600226404999944 ], [ 115.744498996000061, -2.616815535999933 ], [ 115.711590639000065, -2.590040655999928 ], [ 115.689625250000063, -2.590388348999966 ], [ 115.676716143000021, -2.613095165999937 ], [ 115.727167792000046, -2.638789831999929 ], [ 115.734138735000101, -2.657569924999962 ], [ 115.746895466000069, -2.666666312999951 ], [ 115.732031787000096, -2.684559265999951 ], [ 115.715163858000096, -2.676707072999932 ], [ 115.716551205000087, -2.664561779999929 ], [ 115.709421768000084, -2.676750638999977 ], [ 115.715548220000073, -2.691572546999964 ], [ 115.707666994000078, -2.702173733999928 ], [ 115.665229645000068, -2.721120431999964 ], [ 115.668731784000101, -2.739215939999951 ], [ 115.660869352000077, -2.749494424999966 ], [ 115.66768241300008, -2.760364123999977 ], [ 115.659624571000109, -2.768094610999981 ], [ 115.644001516000117, -2.759412220999934 ], [ 115.589574957000082, -2.760169768999958 ], [ 115.597942712000076, -2.72126448399996 ], [ 115.575065446000053, -2.711548295999933 ], [ 115.547797599000091, -2.729160947999958 ], [ 115.502333333000024, -2.727583332999927 ], [ 115.491916667000055, -2.735444443999938 ], [ 115.482481609000047, -2.72922458499994 ], [ 115.440882500000043, -2.782556388999978 ], [ 115.408544470000038, -2.766080693999925 ], [ 115.399489017000064, -2.751761528999964 ], [ 115.378236143000095, -2.74603528199998 ], [ 115.327024221000102, -2.696636028999933 ], [ 115.295009416000084, -2.700304531999961 ], [ 115.291390850000084, -2.690514238999981 ], [ 115.231300833000091, -2.682508055999961 ], [ 115.188508934000083, -2.63212257899994 ], [ 115.172011171, -2.635737167999935 ], [ 115.158147632, -2.611407504999931 ], [ 115.170400636000068, -2.600529284999936 ], [ 115.156753830000071, -2.567974636999963 ], [ 115.175151095000047, -2.557611313999928 ], [ 115.154722982000067, -2.554625066999961 ], [ 115.248509293000097, -2.532482033999941 ], [ 115.295603338000092, -2.50975888499994 ], [ 115.341394451000042, -2.468417674999955 ], [ 115.356456, -2.496345376999955 ], [ 115.382278428000063, -2.505067475999965 ], [ 115.402051537000034, -2.452358555999979 ], [ 115.431474411000067, -2.465416549999929 ], [ 115.438469369000018, -2.465886051999973 ], [ 115.442636867000033, -2.454387254999972 ], [ 115.495637399000088, -2.467471651999972 ], [ 115.528557318000026, -2.483553004999976 ], [ 115.530608762000043, -2.498668087999931 ], [ 115.54533101200002, -2.480587083999978 ], [ 115.571559631000014, -2.482279972999947 ], [ 115.570805017000112, -2.489948735999974 ], [ 115.589664822000032, -2.478916910999942 ], [ 115.603415132, -2.503640993999966 ], [ 115.750583026000072, -2.532390555999939 ] ] ] } },
{ "type": "Feature", "properties": { "kemendagri_kab_code": 6308, "kemendagri_kab_name": "Kabupaten Hulu Sungai Utara", "kemendagri_prov_code": 63, "kemendagri_prov_name": "Kalimantan Selatan" }, "geometry": { "type": "Polygon", "coordinates": [ [ [ 115.348673229000042, -2.33994331599996 ], [ 115.340611025000044, -2.350944028999947 ], [ 115.318657554000083, -2.355212366999979 ], [ 115.312551582000083, -2.400496553999972 ], [ 115.398245569000096, -2.444789851999928 ], [ 115.394118794000065, -2.476802852999924 ], [ 115.386866447000102, -2.481071593999957 ], [ 115.39262954600008, -2.488910380999926 ], [ 115.382278428000063, -2.505067475999965 ], [ 115.356456, -2.496345376999955 ], [ 115.341394451000042, -2.468417674999955 ], [ 115.295603338000092, -2.50975888499994 ], [ 115.248509293000097, -2.532482033999941 ], [ 115.154722982000067, -2.554625066999961 ], [ 115.16115504600009, -2.552147662999971 ], [ 115.135095633000105, -2.540061176999927 ], [ 114.998462550000113, -2.499073321999958 ], [ 114.954749529000082, -2.509654591999947 ], [ 114.925090752000074, -2.50382876499998 ], [ 114.915468239, -2.523476441999946 ], [ 114.859326169000042, -2.526345762999938 ], [ 114.874334649000048, -2.497119589999954 ], [ 114.919237359000022, -2.464232194999965 ], [ 114.934562628000094, -2.441847122999945 ], [ 114.986373229000037, -2.40203310499993 ], [ 115.0736147880001, -2.350742744999934 ], [ 115.088984127000117, -2.348757526999975 ], [ 115.107165794000025, -2.305038464999939 ], [ 115.125502850000089, -2.294635899999946 ], [ 115.154166667000027, -2.303055555999947 ], [ 115.213750000000118, -2.340194443999962 ], [ 115.281893614000069, -2.359639907999963 ], [ 115.286166667000089, -2.346916666999959 ], [ 115.301, -2.341138888999978 ], [ 115.348673229000042, -2.33994331599996 ] ] ] } },
{ "type": "Feature", "properties": { "kemendagri_kab_code": 6309, "kemendagri_kab_name": "Kabupaten Tabalong", "kemendagri_prov_code": 63, "kemendagri_prov_name": "Kalimantan Selatan" }, "geometry": { "type": "Polygon", "coordinates": [ [ [ 115.694888889000026, -2.040527777999955 ], [ 115.687562192000087, -2.076796402999946 ], [ 115.64422430500008, -2.127484562999939 ], [ 115.634408091000068, -2.128787932999956 ], [ 115.617831962000082, -2.113321663999955 ], [ 115.620049177000055, -2.125041529999976 ], [ 115.567500000000109, -2.16225 ], [ 115.551305556000102, -2.18658333299993 ], [ 115.492, -2.211388888999977 ], [ 115.474972222000019, -2.242388887999937 ], [ 115.47775, -2.25525 ], [ 115.457858333000104, -2.27158888799994 ], [ 115.442102778000049, -2.270058332999952 ], [ 115.40525, -2.298138888999972 ], [ 115.359569999000087, -2.295579996999948 ], [ 115.348083333000091, -2.307888888999969 ], [ 115.35725, -2.313416666999956 ], [ 115.355583333000027, -2.340861110999924 ], [ 115.301, -2.341138888999978 ], [ 115.286166667000089, -2.346916666999959 ], [ 115.281893614000069, -2.359639907999963 ], [ 115.213750000000118, -2.340194443999962 ], [ 115.154166667000027, -2.303055555999947 ], [ 115.125502850000089, -2.294635899999946 ], [ 115.254152, -2.209390998999936 ], [ 115.240583333000018, -2.198916666999935 ], [ 115.24370604, -2.191961680999952 ], [ 115.264708791000089, -2.226327384999934 ], [ 115.27133333300003, -2.21858333299997 ], [ 115.290271646000065, -2.223940719999973 ], [ 115.302350617000116, -2.182639829999971 ], [ 115.297275186000093, -2.143721279999966 ], [ 115.335819447000063, -2.09575495699994 ], [ 115.348373269000035, -2.095188209999947 ], [ 115.34917422400008, -2.094949783999937 ], [ 115.354888318, -2.094665926999937 ], [ 115.355017481000118, -2.09450134399998 ], [ 115.354888889000108, -2.064861110999971 ], [ 115.363611112000058, -2.044166666999956 ], [ 115.3775020060001, -2.050868350999963 ], [ 115.396241230000101, -2.046718234999958 ], [ 115.408582750000051, -2.058281286999943 ], [ 115.396878984000068, -2.039088203999938 ], [ 115.396944445000031, -2.013055555999927 ], [ 115.416111111000077, -2.012777777999929 ], [ 115.420056956000053, -1.97395764099997 ], [ 115.433885388000022, -1.969860195999956 ], [ 115.443292248000034, -1.946698226999956 ], [ 115.431737690000091, -1.946044866999955 ], [ 115.432761502000062, -1.933106869999961 ], [ 115.421291262000068, -1.933272579999937 ], [ 115.430978408000101, -1.924869387999934 ], [ 115.416997669000011, -1.912069581999958 ], [ 115.420243915000015, -1.892028293999942 ], [ 115.40917261300001, -1.899709924999968 ], [ 115.399504418000106, -1.886442508999949 ], [ 115.396586835000107, -1.899758389999931 ], [ 115.391830531000096, -1.890523448999943 ], [ 115.379061474000082, -1.889116643999955 ], [ 115.319539442000064, -1.892080213999975 ], [ 115.318345627000099, -1.85987584999998 ], [ 115.299935724000079, -1.824381555999935 ], [ 115.313509296, -1.825434387999962 ], [ 115.310973398000101, -1.797325498999953 ], [ 115.334447845000113, -1.747997436999981 ], [ 115.332920909000109, -1.722276692999969 ], [ 115.350142697000024, -1.68146053199996 ], [ 115.346878955000079, -1.674602817999926 ], [ 115.374142198000072, -1.65269458399996 ], [ 115.358023553000066, -1.611216524999975 ], [ 115.359350370000016, -1.587940339999932 ], [ 115.390994049000028, -1.520490110999958 ], [ 115.435420781000062, -1.496410866999952 ], [ 115.428613027000097, -1.473137905999977 ], [ 115.433576354000024, -1.452169986999934 ], [ 115.455363551, -1.461577274999968 ], [ 115.471378066000057, -1.429614717999925 ], [ 115.488346641000021, -1.449197352999931 ], [ 115.5125377600001, -1.45201244499998 ], [ 115.524109409000062, -1.429583298999944 ], [ 115.556683376000024, -1.397964196999965 ], [ 115.56452825100007, -1.399350228999936 ], [ 115.576028374000089, -1.380931062999935 ], [ 115.597926361000077, -1.379872262999925 ], [ 115.625597721000076, -1.350664714999937 ], [ 115.641267221000021, -1.351223821999952 ], [ 115.667602897000052, -1.334786562999966 ], [ 115.709282311000038, -1.33894752499998 ], [ 115.758758735000015, -1.31257953599993 ], [ 115.709142418000056, -1.411867843999971 ], [ 115.694787073000043, -1.416065655999944 ], [ 115.688802991000102, -1.44880470399994 ], [ 115.62796585000001, -1.467833330999952 ], [ 115.616880004000109, -1.499962009999933 ], [ 115.627490222, -1.503334494999933 ], [ 115.620564531000014, -1.510846177999952 ], [ 115.622911566000084, -1.51622922699994 ], [ 115.630021068000019, -1.510029135999957 ], [ 115.655487496000092, -1.512695248999933 ], [ 115.631421246000059, -1.53205375899995 ], [ 115.635999489000028, -1.54832805999996 ], [ 115.629222765, -1.562143877999972 ], [ 115.640156833000106, -1.561084991999962 ], [ 115.6299924220001, -1.575865109999938 ], [ 115.639782925000077, -1.586227727999926 ], [ 115.636139515000082, -1.603781013999935 ], [ 115.654467639000018, -1.612471607999964 ], [ 115.651658680000082, -1.622389795999936 ], [ 115.669921217000024, -1.629051914999934 ], [ 115.676857401, -1.656475307999926 ], [ 115.665236507000031, -1.706666492999943 ], [ 115.707135926000092, -1.733323528999961 ], [ 115.690086536000081, -1.750970898999981 ], [ 115.69, -1.78 ], [ 115.679492795000101, -1.793260410999949 ], [ 115.69131, -1.80478 ], [ 115.70753, -1.78849 ], [ 115.728442341000118, -1.799239480999972 ], [ 115.721401130000118, -1.828893301999926 ], [ 115.732381259000022, -1.861164635999955 ], [ 115.71930695900005, -1.91217766699998 ], [ 115.727549136000107, -1.924837747999959 ], [ 115.719240599000045, -1.927418343999932 ], [ 115.694163891000017, -1.977398001999973 ], [ 115.710583333000045, -1.98 ], [ 115.718980085000112, -1.998384714999929 ], [ 115.713339444000098, -2.022846763999951 ], [ 115.694888889000026, -2.040527777999955 ] ] ] } },
{ "type": "Feature", "properties": { "kemendagri_kab_code": 6310, "kemendagri_kab_name": "Kabupaten Tanah Bumbu", "kemendagri_prov_code": 63, "kemendagri_prov_name": "Kalimantan Selatan" }, "geometry": { "type": "MultiPolygon", "coordinates": [ [ [ [ 116.02632523300008, -3.457386141999962 ], [ 116.015501449000112, -3.437567934999947 ], [ 116.039587568000115, -3.420242065999958 ], [ 116.033001578000039, -3.438763562999952 ], [ 116.034804486000098, -3.448117847999924 ], [ 116.02632523300008, -3.457386141999962 ] ] ], [ [ [ 116.037675087000025, -3.439461607999931 ], [ 116.034748350000086, -3.438233805999971 ], [ 116.037689364000016, -3.435307068999975 ], [ 116.037675087000025, -3.439461607999931 ] ] ], [ [ [ 115.591982975000064, -3.032785786999966 ], [ 115.62278, -3.069470001999946 ], [ 115.637039999000081, -3.056540003999942 ], [ 115.651111886000081, -3.071090839999954 ], [ 115.664962604000038, -3.064898340999946 ], [ 115.67828445900011, -3.085655651999957 ], [ 115.681836245000113, -3.072091374999957 ], [ 115.687809999000024, -3.080410001999951 ], [ 115.703534869, -3.078890499999943 ], [ 115.711200785000074, -3.088340608999943 ], [ 115.706192199000043, -3.096073755999953 ], [ 115.716617258000042, -3.097701831999927 ], [ 115.710883955000099, -3.114070796999954 ], [ 115.730547671000068, -3.118402381999942 ], [ 115.740933195000025, -3.159294238999962 ], [ 115.748404381000114, -3.159023312999977 ], [ 115.768813674000057, -3.195165775999953 ], [ 115.79228, -3.181800000999942 ], [ 115.828907839000067, -3.186577774999932 ], [ 115.840533024000024, -3.170245370999965 ], [ 115.93418, -3.152380001999973 ], [ 115.95130967800003, -3.193333000999928 ], [ 115.928080775000012, -3.227272539999944 ], [ 115.946811005000086, -3.253910040999926 ], [ 115.963910399000042, -3.246911053999952 ], [ 115.97394208500009, -3.223733889999949 ], [ 115.990040284000088, -3.219950134999976 ], [ 116.04131, -3.26149 ], [ 116.060460628000101, -3.256880811999963 ], [ 116.070439999000087, -3.265040004999946 ], [ 116.081551575000049, -3.257360668999979 ], [ 116.085032726, -3.284875114999977 ], [ 116.07336860800001, -3.297281624999925 ], [ 116.050900548000072, -3.349688063999963 ], [ 116.035843318000047, -3.358749050999961 ], [ 116.030665611000018, -3.365240220999965 ], [ 116.022442194000064, -3.396934641999962 ], [ 116.024488530000099, -3.408836705999931 ], [ 116.006899555000018, -3.432688422999945 ], [ 116.014328930000033, -3.48329747899993 ], [ 115.990553355000088, -3.526870168999949 ], [ 115.995631125000045, -3.565978989999962 ], [ 115.967848538000112, -3.60997998299996 ], [ 115.833451822000029, -3.630593253999962 ], [ 115.801162536000106, -3.653757306999978 ], [ 115.786957154000106, -3.678824927999926 ], [ 115.731944015000067, -3.71104282999994 ], [ 115.715751044000058, -3.731577478999952 ], [ 115.632472730000018, -3.749714127999937 ], [ 115.609081439000079, -3.767575551999926 ], [ 115.529916771000103, -3.789621257999954 ], [ 115.525583338000047, -3.79878453799995 ], [ 115.486828698000068, -3.814802696999948 ], [ 115.478345919000049, -3.809651163999945 ], [ 115.375776675000111, -3.861251163999952 ], [ 115.366411028000016, -3.853306117999978 ], [ 115.371673034000082, -3.82789149599995 ], [ 115.366902339000035, -3.817257285999972 ], [ 115.353647231000082, -3.813356668999972 ], [ 115.344586107000055, -3.766647220999971 ], [ 115.325000004000117, -3.75499999699997 ], [ 115.324361107000072, -3.705527780999944 ], [ 115.304166665000025, -3.694999996999968 ], [ 115.283333335000066, -3.700000003999946 ], [ 115.26194444500004, -3.66666666499998 ], [ 115.269444442, -3.650000003999935 ], [ 115.250000004000071, -3.590833332999978 ], [ 115.261272344000076, -3.561829702999944 ], [ 115.304553319000092, -3.517035739999926 ], [ 115.351597576000017, -3.503392757999961 ], [ 115.411508112000092, -3.45166913099996 ], [ 115.390729676000092, -3.437426071999937 ], [ 115.396096959000033, -3.36237449999993 ], [ 115.403187959000093, -3.340962148999949 ], [ 115.416633686000068, -3.336905367999975 ], [ 115.41587210900002, -3.315850750999971 ], [ 115.428878687000065, -3.295993719999956 ], [ 115.392056810000099, -3.250351659999978 ], [ 115.402233781000064, -3.236282113999948 ], [ 115.424572686000033, -3.259596777999946 ], [ 115.436511403000054, -3.259874061999938 ], [ 115.447494846000041, -3.240824700999951 ], [ 115.44567160500003, -3.224992559999976 ], [ 115.420592408000061, -3.227966132999939 ], [ 115.414655803000073, -3.221886468999969 ], [ 115.424474003000114, -3.201344460999962 ], [ 115.419193936000056, -3.163181521999945 ], [ 115.434227495000073, -3.119520921999936 ], [ 115.44541827, -3.122829564999961 ], [ 115.460443653000084, -3.10824951099994 ], [ 115.47183997500008, -3.112447393999958 ], [ 115.478732111000113, -3.095162551999977 ], [ 115.483863191000069, -3.099122110999929 ], [ 115.490372266, -3.092212865999954 ], [ 115.480317543000069, -3.075494428999946 ], [ 115.48359481500006, -3.062512098999946 ], [ 115.49569116400005, -3.059164884999973 ], [ 115.499055266000028, -3.04276389599994 ], [ 115.533049848000019, -3.020227794999926 ], [ 115.566891092000105, -3.012560587999928 ], [ 115.576775688000112, -3.020453485999951 ], [ 115.584502796000038, -3.004957167999976 ], [ 115.591982975000064, -3.032785786999966 ] ] ], [ [ [ 116.041464577000056, -3.387625842999967 ], [ 116.039275473000089, -3.388539555999955 ], [ 116.040779292000025, -3.385417702999973 ], [ 116.041464577000056, -3.387625842999967 ] ] ], [ [ [ 116.044914334000055, -3.357356107999976 ], [ 116.03590943100005, -3.397520990999965 ], [ 116.02658098400002, -3.405391078999969 ], [ 116.032322227, -3.365251159999957 ], [ 116.044914334000055, -3.357356107999976 ] ] ], [ [ [ 116.058352553000077, -3.384074869999949 ], [ 116.053178202000026, -3.378800761999969 ], [ 116.057841946000053, -3.353911599999947 ], [ 116.070881392000047, -3.348652990999938 ], [ 116.068462738000107, -3.379515310999977 ], [ 116.058352553000077, -3.384074869999949 ] ] ], [ [ [ 116.064130351000017, -3.319921006999948 ], [ 116.065068369000073, -3.321347248999928 ], [ 116.063963788000024, -3.320016184999929 ], [ 116.064130351000017, -3.319921006999948 ] ] ] ] } },
{ "type": "Feature", "properties": { "kemendagri_kab_code": 6311, "kemendagri_kab_name": "Kabupaten Balangan", "kemendagri_prov_code": 63, "kemendagri_prov_name": "Kalimantan Selatan" }, "geometry": { "type": "Polygon", "coordinates": [ [ [ 115.694888889000026, -2.040527777999955 ], [ 115.721727954000016, -2.062669246999974 ], [ 115.748875401000078, -2.064445685999942 ], [ 115.781777778000105, -2.053444443999979 ], [ 115.802166667000051, -2.067222221999941 ], [ 115.807580556000062, -2.06135833299993 ], [ 115.813777778000031, -2.071583332999978 ], [ 115.814678109000056, -2.09806132999995 ], [ 115.797249320000105, -2.107945381999969 ], [ 115.791673030000084, -2.163079082999957 ], [ 115.7973611110001, -2.17244444399995 ], [ 115.785084710000092, -2.21552810999998 ], [ 115.811033200000111, -2.237556051999945 ], [ 115.809850017000031, -2.277209304999928 ], [ 115.83308283100007, -2.295563203999961 ], [ 115.817003808000095, -2.319320784999945 ], [ 115.831407995000063, -2.333090683999956 ], [ 115.83628319200011, -2.385195603999932 ], [ 115.790700958000116, -2.435293248999926 ], [ 115.794681882000077, -2.478632093999977 ], [ 115.782031934000088, -2.514086259999942 ], [ 115.750583026000072, -2.532390555999939 ], [ 115.679678331000105, -2.523628194999958 ], [ 115.657472443000074, -2.510309414999938 ], [ 115.603415132, -2.503640993999966 ], [ 115.589664822000032, -2.478916910999942 ], [ 115.570805017000112, -2.489948735999974 ], [ 115.571559631000014, -2.482279972999947 ], [ 115.54533101200002, -2.480587083999978 ], [ 115.530608762000043, -2.498668087999931 ], [ 115.528557318000026, -2.483553004999976 ], [ 115.499385447, -2.468886777999955 ], [ 115.442636867000033, -2.454387254999972 ], [ 115.438469369000018, -2.465886051999973 ], [ 115.431474411000067, -2.465416549999929 ], [ 115.314463216000036, -2.403291936999949 ], [ 115.318657554000083, -2.355212366999979 ], [ 115.355583333000027, -2.340861110999924 ], [ 115.35725, -2.313416666999956 ], [ 115.348083333000091, -2.307888888999969 ], [ 115.359569999000087, -2.295579996999948 ], [ 115.40525, -2.298138888999972 ], [ 115.442102778000049, -2.270058332999952 ], [ 115.457858333000104, -2.27158888799994 ], [ 115.47775, -2.25525 ], [ 115.474972222000019, -2.242388887999937 ], [ 115.492, -2.211388888999977 ], [ 115.551305556000102, -2.18658333299993 ], [ 115.567500000000109, -2.16225 ], [ 115.620049177000055, -2.125041529999976 ], [ 115.617831962000082, -2.113321663999955 ], [ 115.634408091000068, -2.128787932999956 ], [ 115.64422430500008, -2.127484562999939 ], [ 115.687562192000087, -2.076796402999946 ], [ 115.694888889000026, -2.040527777999955 ] ] ] } },
{ "type": "Feature", "properties": { "kemendagri_kab_code": 6371, "kemendagri_kab_name": "Kota Banjarmasin", "kemendagri_prov_code": 63, "kemendagri_prov_name": "Kalimantan Selatan" }, "geometry": { "type": "Polygon", "coordinates": [ [ [ 114.638611111000046, -3.275611110999932 ], [ 114.628323557000044, -3.313124572999925 ], [ 114.659589075000099, -3.33559736199993 ], [ 114.6570197530001, -3.348350048999976 ], [ 114.632940069000028, -3.346482852999941 ], [ 114.615949854000064, -3.368429495999976 ], [ 114.595729963000053, -3.36678997599995 ], [ 114.586150021000094, -3.38214000399995 ], [ 114.566620268000065, -3.373580342999958 ], [ 114.569870645000037, -3.366780095999957 ], [ 114.549020774000041, -3.374026485999934 ], [ 114.522281286000066, -3.36341945099997 ], [ 114.561755409000057, -3.315206586999977 ], [ 114.568855340000027, -3.267411270999958 ], [ 114.602136459, -3.288972949999959 ], [ 114.606413972000041, -3.280259619999924 ], [ 114.625121051000065, -3.285062920999962 ], [ 114.638611111000046, -3.275611110999932 ] ] ] } },
{ "type": "Feature", "properties": { "kemendagri_kab_code": 6372, "kemendagri_kab_name": "Kota Banjarbaru", "kemendagri_prov_code": 63, "kemendagri_prov_name": "Kalimantan Selatan" }, "geometry": { "type": "Polygon", "coordinates": [ [ [ 114.735475343000076, -3.389053561999958 ], [ 114.735805556000059, -3.398416665999946 ], [ 114.739160889000118, -3.389686162999965 ], [ 114.747619973000042, -3.39105825799993 ], [ 114.783814260000099, -3.421200311999939 ], [ 114.829449, -3.430513 ], [ 114.839968948000092, -3.425486241999977 ], [ 114.844510791000062, -3.437092089999965 ], [ 114.863138889000084, -3.445361110999954 ], [ 114.873734, -3.439164 ], [ 114.901227496000047, -3.44949474699996 ], [ 114.901388888000042, -3.475 ], [ 114.890833333000046, -3.472222221999971 ], [ 114.907653886000048, -3.503728526999964 ], [ 114.900103072000093, -3.540724791999935 ], [ 114.88475625, -3.546792024999945 ], [ 114.882129976000101, -3.556968174999952 ], [ 114.869306208000012, -3.553985224999963 ], [ 114.856770458000028, -3.56921054399993 ], [ 114.85758304, -3.55953491799994 ], [ 114.844514012000104, -3.55786618999997 ], [ 114.847319075000087, -3.550278778999939 ], [ 114.811878565000029, -3.539535117999947 ], [ 114.808467023000048, -3.52424792599993 ], [ 114.773152784000104, -3.523264395999945 ], [ 114.739170852000029, -3.510561332999941 ], [ 114.68209527800002, -3.51777444399994 ], [ 114.674579000000108, -3.460817 ], [ 114.684975551000093, -3.445546680999939 ], [ 114.681725803000063, -3.439172253999971 ], [ 114.69733, -3.427849 ], [ 114.719252948000076, -3.377498233999972 ], [ 114.735475343000076, -3.389053561999958 ] ] ] } }
]
}
