{
"type": "FeatureCollection",
"name": "65",
"crs": { "type": "name", "properties": { "name": "urn:ogc:def:crs:OGC:1.3:CRS84" } },
"features": [
{ "type": "Feature", "properties": { "kemendagri_kab_code": 6501, "kemendagri_kab_name": "Kabupaten Bulungan", "kemendagri_prov_code": 65, "kemendagri_prov_name": "Kalimantan Utara" }, "geometry": { "type": "MultiPolygon", "coordinates": [ [ [ [ 117.302961419000098, 3.41096863100006 ], [ 117.329647553000086, 3.39958299400007 ], [ 117.330351833, 3.375588906000075 ], [ 117.353033554000035, 3.367241256000057 ], [ 117.369254242000011, 3.372303446000046 ], [ 117.371503683000014, 3.355880383000056 ], [ 117.391731169000082, 3.34196298400002 ], [ 117.379234742000108, 3.308002050000027 ], [ 117.38544658100011, 3.318850671000064 ], [ 117.397726563000106, 3.313595075000023 ], [ 117.444803788000058, 3.341168143000061 ], [ 117.504513316000043, 3.32201642900003 ], [ 117.52429814300001, 3.293426007000051 ], [ 117.51201125800003, 3.274515241000074 ], [ 117.46062074200006, 3.272223065000048 ], [ 117.455302442000061, 3.277610897000045 ], [ 117.422228375000032, 3.248111012000038 ], [ 117.409802082000056, 3.24865615300007 ], [ 117.400444908000054, 3.261264165000057 ], [ 117.379139655000017, 3.229498471000056 ], [ 117.348042, 3.225591 ], [ 117.335815092000075, 3.212560917000076 ], [ 117.307574726000098, 3.207139057000063 ], [ 117.316107097000099, 3.165428526000028 ], [ 117.321338697000101, 3.16242365100004 ], [ 117.33921689500005, 3.180858702000023 ], [ 117.367983554000034, 3.181479778000039 ], [ 117.4001, 3.160933 ], [ 117.424410649000038, 3.173204666000061 ], [ 117.445284209000079, 3.160843230000069 ], [ 117.465126213000076, 3.129463427000076 ], [ 117.449867919000098, 3.122800936000033 ], [ 117.478726830000028, 3.098349170000063 ], [ 117.445110245000023, 3.079154712000047 ], [ 117.438927782000064, 3.068829140000048 ], [ 117.435488558000088, 3.051830766000023 ], [ 117.441095640000071, 3.049052904000064 ], [ 117.521155673000067, 3.068259810000029 ], [ 117.544379212000081, 3.067764882000063 ], [ 117.550432561000093, 3.053702268000052 ], [ 117.571031258000062, 3.046016609000048 ], [ 117.622340630000053, 3.059622500000046 ], [ 117.627357944000096, 3.050065507000056 ], [ 117.620498910000038, 3.046766390000073 ], [ 117.618914371000074, 3.01780754400005 ], [ 117.599483085000088, 3.016240633000052 ], [ 117.60316887700003, 3.009675965000042 ], [ 117.576484564000111, 2.981270101000064 ], [ 117.587111357000026, 2.972042178000038 ], [ 117.603596359000107, 2.972663956000076 ], [ 117.613676566000095, 2.982143869000026 ], [ 117.63525422500004, 2.97862832200002 ], [ 117.666888357000062, 2.987769797000055 ], [ 117.671323832000098, 2.974091928000064 ], [ 117.663244314000053, 2.963508367000031 ], [ 117.696055956, 2.951784813000074 ], [ 117.672506366000107, 2.939404427000056 ], [ 117.675147568000057, 2.931766357000072 ], [ 117.702385140000047, 2.932434263000061 ], [ 117.715870223000024, 2.91148234700006 ], [ 117.709871373000055, 2.904009257000041 ], [ 117.692402518000108, 2.903372537000052 ], [ 117.692402518000108, 2.896662457000048 ], [ 117.719491679000043, 2.891284743000028 ], [ 117.711426022000069, 2.86460480900007 ], [ 117.684280304000026, 2.866989075000049 ], [ 117.669261146000053, 2.856024519000073 ], [ 117.674400781000031, 2.848714814000061 ], [ 117.691709799000023, 2.852803671000061 ], [ 117.702017148000095, 2.844125881000025 ], [ 117.695625574000019, 2.837545624000029 ], [ 117.729062796000107, 2.828409565000072 ], [ 117.737011750000079, 2.815089633000071 ], [ 117.731713125000056, 2.807701798000039 ], [ 117.676936962000013, 2.798871672000075 ], [ 117.674538465000069, 2.78676497500004 ], [ 117.728852870000082, 2.773673733000066 ], [ 117.746086601000115, 2.751946485000076 ], [ 117.785200582000016, 2.748287808000043 ], [ 117.788217129000031, 2.66026899600007 ], [ 117.800178023000058, 2.62619333400005 ], [ 117.887746611000011, 2.538401757000031 ], [ 117.944025342000032, 2.466628487000037 ], [ 117.988111000000117, 2.435028 ], [ 117.979293, 2.426522 ], [ 117.958749, 2.426911 ], [ 117.955823, 2.415569 ], [ 117.918282575000035, 2.393631250000055 ], [ 117.900348, 2.404659 ], [ 117.863762, 2.392894 ], [ 117.82189, 2.361321 ], [ 117.824309, 2.348217 ], [ 117.811603000000105, 2.326419 ], [ 117.761021, 2.334997 ], [ 117.746909, 2.326873 ], [ 117.72125, 2.346347 ], [ 117.705313, 2.397161 ], [ 117.687982, 2.406413 ], [ 117.669698, 2.448104 ], [ 117.608626, 2.522151 ], [ 117.587877, 2.517388 ], [ 117.572082, 2.501545 ], [ 117.539574, 2.52139 ], [ 117.499283000000105, 2.521591 ], [ 117.495411000000104, 2.532017 ], [ 117.471008120000079, 2.531134477000023 ], [ 117.475354521000099, 2.519471031000023 ], [ 117.461874, 2.478981 ], [ 117.455110000000104, 2.510158 ], [ 117.441581, 2.51876 ], [ 117.432563, 2.501507 ], [ 117.411493, 2.504151 ], [ 117.392626, 2.561443 ], [ 117.363846, 2.538699 ], [ 117.335253, 2.534962 ], [ 117.329931000000101, 2.523404 ], [ 117.317933, 2.535935 ], [ 117.307449, 2.533308 ], [ 117.298119, 2.508902 ], [ 117.283188000000109, 2.503776 ], [ 117.288481, 2.491815 ], [ 117.23093, 2.479357 ], [ 117.229078, 2.487161 ], [ 117.191748, 2.496874 ], [ 117.194515, 2.522975 ], [ 117.2089390000001, 2.529566 ], [ 117.20575, 2.545352 ], [ 117.221558, 2.544866 ], [ 117.22217, 2.55504 ], [ 117.206121, 2.568869 ], [ 117.191401, 2.559609 ], [ 117.171041, 2.56168 ], [ 117.164237, 2.55223 ], [ 117.156825, 2.55616 ], [ 117.14572, 2.539627 ], [ 117.133715, 2.53617 ], [ 117.097743, 2.53602 ], [ 117.055519000000118, 2.550737 ], [ 117.032215, 2.525981 ], [ 117.028103000000101, 2.505836 ], [ 117.015459, 2.497686 ], [ 117.024045000000115, 2.458606 ], [ 117.000157, 2.436517 ], [ 116.982954, 2.431893 ], [ 116.982038000000102, 2.43998 ], [ 116.968032000000107, 2.446042 ], [ 116.961607, 2.475998 ], [ 116.936634, 2.495778 ], [ 116.929387, 2.493329 ], [ 116.929377, 2.502619 ], [ 116.898317337000094, 2.50139045700007 ], [ 116.887514, 2.476506 ], [ 116.875642776000063, 2.507093430000054 ], [ 116.840259, 2.5195 ], [ 116.806442, 2.497572 ], [ 116.791549, 2.508928 ], [ 116.756522, 2.483903 ], [ 116.752297000000112, 2.438317 ], [ 116.730597000000103, 2.424379 ], [ 116.7334350000001, 2.409759 ], [ 116.717722, 2.405379 ], [ 116.717670000000112, 2.383187 ], [ 116.707603, 2.378702 ], [ 116.686057, 2.399069 ], [ 116.66288, 2.384422 ], [ 116.650297, 2.404657 ], [ 116.641519, 2.390166 ], [ 116.630152, 2.390953 ], [ 116.627624, 2.415355 ], [ 116.577938, 2.427325 ], [ 116.566687000000115, 2.436956 ], [ 116.567444, 2.453495 ], [ 116.526254000000108, 2.447339 ], [ 116.496653, 2.452344 ], [ 116.49084, 2.44391 ], [ 116.496598, 2.407021 ], [ 116.486586000000102, 2.398627 ], [ 116.501859, 2.381968 ], [ 116.498082, 2.357247 ], [ 116.50417, 2.348101 ], [ 116.498355, 2.333977 ], [ 116.482568, 2.336953 ], [ 116.466667, 2.325362 ], [ 116.476508, 2.290717 ], [ 116.455049, 2.276879 ], [ 116.4288150000001, 2.28888 ], [ 116.412792, 2.282071 ], [ 116.402132, 2.297919 ], [ 116.334889, 2.290667 ], [ 116.304441000000111, 2.262251 ], [ 116.28984, 2.235626 ], [ 116.303006, 2.209805 ], [ 116.349238, 2.178116 ], [ 116.34728, 2.162079 ], [ 116.332001000000105, 2.150179 ], [ 116.31437, 2.114529 ], [ 116.299339, 2.120014 ], [ 116.286337000000117, 2.102476 ], [ 116.252365, 2.106329 ], [ 116.228252152000096, 2.096230788000071 ], [ 116.216597051, 2.112648445000048 ], [ 116.190276198000106, 2.124983027000042 ], [ 116.158145543000046, 2.122968417000038 ], [ 116.147993176000114, 2.152579487000025 ], [ 116.09653495200007, 2.170267078000052 ], [ 116.070126108000068, 2.161434519000068 ], [ 116.055318094000086, 2.145694979000041 ], [ 116.010980804000042, 2.191519432000064 ], [ 115.988539314000036, 2.261578167000039 ], [ 116.034922941000104, 2.255677104000029 ], [ 116.062206085000071, 2.303399910000053 ], [ 116.060178784000072, 2.316306107000059 ], [ 116.080423238000094, 2.332581620000042 ], [ 116.086152980000065, 2.348105224000051 ], [ 116.104002111000113, 2.356904470000075 ], [ 116.123134563, 2.393597345000046 ], [ 116.177893893000032, 2.404921994000063 ], [ 116.188081158000045, 2.41400201700003 ], [ 116.194924488000083, 2.439995249000049 ], [ 116.228931745000068, 2.48250194000002 ], [ 116.24177131700003, 2.489069253000025 ], [ 116.26025497, 2.477933375000021 ], [ 116.270591348000039, 2.484481652000056 ], [ 116.303694410000048, 2.546442816000024 ], [ 116.30948443200009, 2.574336445000029 ], [ 116.296580350000113, 2.587658888000021 ], [ 116.292123582000045, 2.632330079000042 ], [ 116.302222158000063, 2.636666920000039 ], [ 116.326143398000113, 2.691138379000051 ], [ 116.363326442000016, 2.714504687000044 ], [ 116.408139624000114, 2.767344584000057 ], [ 116.432102382000039, 2.777382737000039 ], [ 116.435540034000041, 2.811594764000063 ], [ 116.455286387000115, 2.825820768000028 ], [ 116.492722395000101, 2.827618160000043 ], [ 116.550248244000045, 2.878722637000067 ], [ 116.583801817000108, 2.89041055000007 ], [ 116.586517575000016, 2.916514823000057 ], [ 116.603433956000117, 2.91773310700006 ], [ 116.614436584000032, 2.929433710000069 ], [ 116.608370545000071, 2.948710517000052 ], [ 116.637012910000067, 2.97419295800006 ], [ 116.657723739000062, 2.974091435000048 ], [ 116.663104493000105, 3.007010484000034 ], [ 116.694795741, 3.028507593000029 ], [ 116.71663602000001, 3.025449192000053 ], [ 116.745049957000106, 3.041629527000055 ], [ 116.749466237000092, 3.067465715000026 ], [ 116.724763466000013, 3.102973618000021 ], [ 116.743835110000077, 3.154041875000075 ], [ 116.740591112000061, 3.170563265000055 ], [ 116.768035815000076, 3.164291006000042 ], [ 116.780176037000047, 3.227528831000029 ], [ 116.793989918000079, 3.235524454000029 ], [ 116.779808331000027, 3.273738598000023 ], [ 116.782171929000015, 3.29145765100003 ], [ 116.76102645200001, 3.304658901000039 ], [ 116.750834427000086, 3.334433890000071 ], [ 116.741237268000077, 3.341255011000044 ], [ 116.731967914000052, 3.332812893000039 ], [ 116.724262520000025, 3.350938513000074 ], [ 116.710017297000036, 3.353943194000067 ], [ 116.707123055000011, 3.371236042000021 ], [ 116.735096119000104, 3.369818843000076 ], [ 116.741666613, 3.381655009000042 ], [ 116.760743282000021, 3.384545413000069 ], [ 116.775917904000039, 3.382233089000067 ], [ 116.785456239000041, 3.370815993000065 ], [ 116.818695889000082, 3.387002257000063 ], [ 116.900060771000085, 3.396685112000057 ], [ 116.923917220000021, 3.383876924000049 ], [ 116.967204655000046, 3.404357699000059 ], [ 117.002619676000108, 3.391185384000039 ], [ 117.048181531000068, 3.406934333000038 ], [ 117.063082429000019, 3.40314702400002 ], [ 117.066815751000036, 3.388291074000051 ], [ 117.091220838000027, 3.390384862000076 ], [ 117.094949, 3.366404 ], [ 117.110804, 3.362195 ], [ 117.116028404000076, 3.348290696000049 ], [ 117.133271309000065, 3.343686723000076 ], [ 117.172651789000042, 3.358446425000068 ], [ 117.185841524000011, 3.347128271000031 ], [ 117.187057960000061, 3.335057478000067 ], [ 117.226032367000016, 3.337278524000055 ], [ 117.247244114000068, 3.313841766000053 ], [ 117.283348157000091, 3.39402401500007 ], [ 117.278046445000086, 3.401946422000037 ], [ 117.283111421000058, 3.425329703000045 ], [ 117.297390291000056, 3.425649591000024 ], [ 117.302961419000098, 3.41096863100006 ] ] ], [ [ [ 117.44727415300008, 3.064675643000044 ], [ 117.447600752000085, 3.057241004000048 ], [ 117.440458627000112, 3.055366195000033 ], [ 117.44547822200002, 3.06155509000007 ], [ 117.44727415300008, 3.064675643000044 ] ] ], [ [ [ 117.440210050000019, 3.057473003000041 ], [ 117.440448616000026, 3.06384369500006 ], [ 117.447028483000054, 3.069247314000052 ], [ 117.445281244000057, 3.061949684000069 ], [ 117.440210050000019, 3.057473003000041 ] ] ], [ [ [ 117.482193105000079, 3.068615568000041 ], [ 117.470491816000049, 3.060208671000055 ], [ 117.46541396900011, 3.060318432000031 ], [ 117.482193105000079, 3.068615568000041 ] ] ], [ [ [ 117.446785570000088, 3.070095927000068 ], [ 117.441452275000074, 3.068946174000075 ], [ 117.44468079, 3.073238604000039 ], [ 117.446785570000088, 3.070095927000068 ] ] ], [ [ [ 117.493838801000038, 3.081655176000027 ], [ 117.495982704000085, 3.074848777000057 ], [ 117.487504676000071, 3.073468543000047 ], [ 117.459402038, 3.058260071000063 ], [ 117.450492295000117, 3.058338839000044 ], [ 117.44921376700006, 3.068283738000048 ], [ 117.46756898700005, 3.08149049900004 ], [ 117.493838801000038, 3.081655176000027 ] ] ], [ [ [ 117.447403597000061, 3.070944303000033 ], [ 117.448930998000037, 3.079351287000065 ], [ 117.461710455000116, 3.081372725000051 ], [ 117.447403597000061, 3.070944303000033 ] ] ], [ [ [ 117.483466062000048, 3.087431455000058 ], [ 117.472821866000118, 3.083614829000055 ], [ 117.472336797000025, 3.083886606000021 ], [ 117.483466062000048, 3.087431455000058 ] ] ], [ [ [ 117.48954118100005, 3.094209829000022 ], [ 117.495002044000103, 3.091532935000032 ], [ 117.485962008000115, 3.092802819000042 ], [ 117.488470423000081, 3.09560181300003 ], [ 117.48954118100005, 3.094209829000022 ] ] ], [ [ [ 117.488925013000085, 3.109474653000063 ], [ 117.48277344600001, 3.106182820000072 ], [ 117.48827476200006, 3.110677893000059 ], [ 117.488925013000085, 3.109474653000063 ] ] ], [ [ [ 117.481683678000081, 3.109451411000066 ], [ 117.48374590700007, 3.108003053000061 ], [ 117.482502686000089, 3.106753931000071 ], [ 117.481683678000081, 3.109451411000066 ] ] ], [ [ [ 117.479468720000114, 3.108243371000071 ], [ 117.476792722000027, 3.109868959000039 ], [ 117.477369796000062, 3.110693337000043 ], [ 117.479468720000114, 3.108243371000071 ] ] ], [ [ [ 117.472581743000092, 3.114018129000044 ], [ 117.47117128800005, 3.11219961200004 ], [ 117.470476684000118, 3.113762958000052 ], [ 117.472581743000092, 3.114018129000044 ] ] ], [ [ [ 117.396218877000024, 3.320022015000063 ], [ 117.395836399000018, 3.31584040000007 ], [ 117.39224531900004, 3.319184063000023 ], [ 117.396218877000024, 3.320022015000063 ] ] ], [ [ [ 117.492446, 3.40758 ], [ 117.502195885000106, 3.389086544000065 ], [ 117.501312689000088, 3.344035674000054 ], [ 117.453468685000075, 3.347873415000038 ], [ 117.450249, 3.403583738000066 ], [ 117.492446, 3.40758 ] ] ], [ [ [ 117.496370783000089, 3.573217511000053 ], [ 117.468702573000087, 3.574132045000056 ], [ 117.45917927000005, 3.589641234000055 ], [ 117.496370783000089, 3.573217511000053 ] ] ], [ [ [ 117.488079324000068, 3.072420085000033 ], [ 117.493064121000089, 3.070454510000047 ], [ 117.486455865000039, 3.070062318000055 ], [ 117.488079324000068, 3.072420085000033 ] ] ], [ [ [ 117.529886875000102, 3.074373799000057 ], [ 117.519398211000066, 3.071575553000059 ], [ 117.514677360000064, 3.071784946000037 ], [ 117.529886875000102, 3.074373799000057 ] ] ], [ [ [ 117.501796148000039, 3.07904349100005 ], [ 117.516101468000102, 3.074037105000059 ], [ 117.498006113000088, 3.072189107000042 ], [ 117.501796148000039, 3.07904349100005 ] ] ], [ [ [ 117.536054438000065, 3.077724080000053 ], [ 117.546866709000028, 3.074012121000067 ], [ 117.530381803000068, 3.074488013000064 ], [ 117.536054438000065, 3.077724080000053 ] ] ], [ [ [ 117.49553585700005, 3.080176812000047 ], [ 117.494295795000085, 3.082445798000037 ], [ 117.494802937000031, 3.084169144000043 ], [ 117.49553585700005, 3.080176812000047 ] ] ], [ [ [ 117.511426433000111, 3.09632369000002 ], [ 117.565261207000049, 3.093112761000043 ], [ 117.568203633000053, 3.083083741000053 ], [ 117.555145151000033, 3.076706786000045 ], [ 117.537042212000074, 3.079409853000072 ], [ 117.518806023000025, 3.074517681000032 ], [ 117.498421870000016, 3.082078741000032 ], [ 117.511426433000111, 3.09632369000002 ] ] ], [ [ [ 117.506786735000105, 3.103578550000066 ], [ 117.496969771000067, 3.09190862500003 ], [ 117.489108119000093, 3.094987913000068 ], [ 117.495873686000095, 3.102379881000047 ], [ 117.501071100000104, 3.101570657000025 ], [ 117.506786735000105, 3.103578550000066 ] ] ], [ [ [ 117.554543187000036, 3.09958737300002 ], [ 117.544754971000089, 3.095834540000055 ], [ 117.536971561000087, 3.10129592100003 ], [ 117.546115786000087, 3.102847054000051 ], [ 117.554543187000036, 3.09958737300002 ] ] ], [ [ [ 117.529796572, 3.099915330000044 ], [ 117.521467007000069, 3.099919484000054 ], [ 117.520846685000038, 3.100560101000042 ], [ 117.529796572, 3.099915330000044 ] ] ], [ [ [ 117.557396123000103, 3.099941596000065 ], [ 117.558710667000014, 3.102605417000063 ], [ 117.559560176000105, 3.099549327000034 ], [ 117.557396123000103, 3.099941596000065 ] ] ], [ [ [ 117.501392756000087, 3.102818835000051 ], [ 117.500447498000085, 3.105885762000071 ], [ 117.504734222000025, 3.106438851000064 ], [ 117.501392756000087, 3.102818835000051 ] ] ], [ [ [ 117.588825442000029, 3.108187419000046 ], [ 117.568666946, 3.097092875000044 ], [ 117.559798514000022, 3.105761823000023 ], [ 117.582876485000043, 3.115084227000068 ], [ 117.588825442000029, 3.108187419000046 ] ] ], [ [ [ 117.520754988000022, 3.118088901000021 ], [ 117.532796694000012, 3.113007327000048 ], [ 117.515064750000079, 3.11479513200004 ], [ 117.520754988000022, 3.118088901000021 ] ] ], [ [ [ 117.415874798000118, 3.557002409000063 ], [ 117.500425941000117, 3.545505218000073 ], [ 117.568328301000065, 3.52043614300004 ], [ 117.60942870000008, 3.500616988000047 ], [ 117.613411825000071, 3.481221571000049 ], [ 117.6060675330001, 3.474385863000066 ], [ 117.547189796000112, 3.471242411000048 ], [ 117.509878048000019, 3.504698180000048 ], [ 117.486055624000073, 3.498318548000043 ], [ 117.46237748100009, 3.514846251000051 ], [ 117.442063105000102, 3.510259493000035 ], [ 117.446233394000046, 3.533757901000058 ], [ 117.415297083000041, 3.541974410000023 ], [ 117.412665125000103, 3.549052637000045 ], [ 117.415874798000118, 3.557002409000063 ] ] ], [ [ [ 117.567495915000109, 3.545586879000041 ], [ 117.563765831000069, 3.553031756000053 ], [ 117.574615517000097, 3.548354214000028 ], [ 117.567495915000109, 3.545586879000041 ] ] ], [ [ [ 117.641247701000111, 3.567930204000049 ], [ 117.66200673000003, 3.554426522000028 ], [ 117.658951158000036, 3.54605547500006 ], [ 117.621630206000077, 3.536744469000041 ], [ 117.572873321000088, 3.55849084700003 ], [ 117.534698293000019, 3.562140127000021 ], [ 117.506068559000028, 3.585271226000032 ], [ 117.543962007000118, 3.574654826000028 ], [ 117.567297548000056, 3.587722602000042 ], [ 117.641247701000111, 3.567930204000049 ] ] ], [ [ [ 117.630755400000112, 2.992974452000055 ], [ 117.638961578000021, 2.987933631000033 ], [ 117.635463675000096, 2.982947490000072 ], [ 117.620362654000019, 2.988001789000066 ], [ 117.630755400000112, 2.992974452000055 ] ] ], [ [ [ 117.637669584000037, 2.993420424000021 ], [ 117.64251493200004, 2.989961285000049 ], [ 117.636364426000114, 2.992616949000023 ], [ 117.637669584000037, 2.993420424000021 ] ] ], [ [ [ 117.623300131000065, 3.073620487000028 ], [ 117.569217405000018, 3.051102274000073 ], [ 117.551442832000021, 3.071803585000055 ], [ 117.603053341000077, 3.083772273000022 ], [ 117.623300131000065, 3.073620487000028 ] ] ], [ [ [ 117.62260265000009, 3.082257584000047 ], [ 117.639617375000057, 3.074504340000033 ], [ 117.638531272000023, 3.069772336000028 ], [ 117.62260265000009, 3.082257584000047 ] ] ], [ [ [ 117.622297188000061, 3.078598559000056 ], [ 117.622321075000059, 3.082421107000073 ], [ 117.623141848000046, 3.077999086000034 ], [ 117.622297188000061, 3.078598559000056 ] ] ], [ [ [ 117.604962811000064, 3.086909195000032 ], [ 117.572545437000031, 3.089662084000054 ], [ 117.606110299000079, 3.094989228000031 ], [ 117.604962811000064, 3.086909195000032 ] ] ], [ [ [ 117.581799957000044, 3.119928516000073 ], [ 117.611262447000058, 3.125295051000023 ], [ 117.620520768, 3.11333927000004 ], [ 117.598920366000016, 3.106554090000031 ], [ 117.581799957000044, 3.119928516000073 ] ] ], [ [ [ 117.618011623000029, 3.127486458000021 ], [ 117.617412363000085, 3.128829602000053 ], [ 117.61838316300009, 3.12762985300003 ], [ 117.618011623000029, 3.127486458000021 ] ] ], [ [ [ 117.629127975000074, 3.159651268000061 ], [ 117.627442173000077, 3.157815836000054 ], [ 117.626961830000027, 3.158912376000046 ], [ 117.629127975000074, 3.159651268000061 ] ] ], [ [ [ 117.63000506000003, 3.160029554000062 ], [ 117.630980258000022, 3.158215841000072 ], [ 117.629081712000016, 3.158976951000056 ], [ 117.63000506000003, 3.160029554000062 ] ] ], [ [ [ 117.628827649000073, 3.159655041000065 ], [ 117.627076702000068, 3.160683963000054 ], [ 117.630658175, 3.161304157000075 ], [ 117.628827649000073, 3.159655041000065 ] ] ], [ [ [ 117.81827128000009, 3.577018993000024 ], [ 117.850104403000046, 3.537241644000062 ], [ 117.873253421000072, 3.476151892000075 ], [ 117.863731060000077, 3.44843596100003 ], [ 117.842524548000029, 3.455350106000026 ], [ 117.825531345000059, 3.475873445000047 ], [ 117.762928091000049, 3.51141838500007 ], [ 117.751556565000101, 3.534580179000045 ], [ 117.759078742000042, 3.566608233000068 ], [ 117.798701029000085, 3.589366077000022 ], [ 117.81827128000009, 3.577018993000024 ] ] ], [ [ [ 117.658494275000066, 3.529512172000068 ], [ 117.652315538000039, 3.524353001000065 ], [ 117.641043880000097, 3.527130882000051 ], [ 117.658494275000066, 3.529512172000068 ] ] ], [ [ [ 117.848251174000097, 3.584288730000026 ], [ 117.856732322000084, 3.579433881000057 ], [ 117.853489446000026, 3.575954498000044 ], [ 117.848251174000097, 3.584288730000026 ] ] ] ] } },
{ "type": "Feature", "properties": { "kemendagri_kab_code": 6502, "kemendagri_kab_name": "Kabupaten Malinau", "kemendagri_prov_code": 65, "kemendagri_prov_name": "Kalimantan Utara" }, "geometry": { "type": "MultiPolygon", "coordinates": [ [ [ [ 114.563191696000104, 1.433148411000047 ], [ 114.561954, 1.4335 ], [ 114.561647433000076, 1.433781454000041 ], [ 114.563191696000104, 1.433148411000047 ] ] ], [ [ [ 116.128116, 4.123215 ], [ 116.167466000000104, 4.112066 ], [ 116.160452, 4.092548 ], [ 116.18582655900002, 4.078250949000051 ], [ 116.222452413000042, 4.076926382000067 ], [ 116.236640494000085, 4.047825089000071 ], [ 116.252652, 4.04288 ], [ 116.275184, 4.039792 ], [ 116.282675, 4.058574 ], [ 116.308412, 4.051317 ], [ 116.322802, 4.065706 ], [ 116.340425, 4.042143 ], [ 116.35478, 4.036052 ], [ 116.356494000000112, 4.007894 ], [ 116.369407, 3.993877 ], [ 116.390782, 3.991712 ], [ 116.382203000000118, 3.981391 ], [ 116.384419, 3.944262 ], [ 116.406952, 3.895851 ], [ 116.425478000000112, 3.881297 ], [ 116.463980649000064, 3.880517212000029 ], [ 116.494790786000067, 3.857357598000021 ], [ 116.516787, 3.858289 ], [ 116.533463653000013, 3.847537789000057 ], [ 116.55653451, 3.84522574600004 ], [ 116.564319, 3.833705 ], [ 116.592868107000072, 3.826618168000039 ], [ 116.626048933000106, 3.799183425000024 ], [ 116.643265563000114, 3.798209929000052 ], [ 116.64585441700001, 3.784660088000066 ], [ 116.663353, 3.77607 ], [ 116.681657, 3.748786 ], [ 116.672648, 3.738309 ], [ 116.69567, 3.701904 ], [ 116.718056, 3.699264 ], [ 116.731288, 3.682899 ], [ 116.742606, 3.681322 ], [ 116.737060465000013, 3.656354960000044 ], [ 116.714407440000059, 3.639042584000038 ], [ 116.737980573000073, 3.605658982000023 ], [ 116.719144226000026, 3.599097394000069 ], [ 116.698158149000051, 3.572528676000047 ], [ 116.695528188000026, 3.561528612000075 ], [ 116.711511619000021, 3.550406489000068 ], [ 116.684785513000065, 3.544296033000023 ], [ 116.675721773000078, 3.518021709000038 ], [ 116.689873125000076, 3.49893667200007 ], [ 116.702037290000021, 3.450773892000029 ], [ 116.697045216000106, 3.433470315000022 ], [ 116.709541632000082, 3.424196319000032 ], [ 116.696306322000055, 3.399367583000071 ], [ 116.710017297000036, 3.353943194000067 ], [ 116.724262520000025, 3.350938513000074 ], [ 116.731967914000052, 3.332812893000039 ], [ 116.741237268000077, 3.341255011000044 ], [ 116.750834427000086, 3.334433890000071 ], [ 116.76102645200001, 3.304658901000039 ], [ 116.782171929000015, 3.29145765100003 ], [ 116.779808331000027, 3.273738598000023 ], [ 116.794069234000062, 3.234683712000049 ], [ 116.780176037000047, 3.227528831000029 ], [ 116.768035815000076, 3.164291006000042 ], [ 116.740591112000061, 3.170563265000055 ], [ 116.743835110000077, 3.154041875000075 ], [ 116.724763466000013, 3.102973618000021 ], [ 116.749466237000092, 3.067465715000026 ], [ 116.744669244000079, 3.041159980000032 ], [ 116.71663602000001, 3.025449192000053 ], [ 116.694795741, 3.028507593000029 ], [ 116.663104493000105, 3.007010484000034 ], [ 116.657723739000062, 2.974091435000048 ], [ 116.637012910000067, 2.97419295800006 ], [ 116.608370545000071, 2.948710517000052 ], [ 116.614436584000032, 2.929433710000069 ], [ 116.603433956000117, 2.91773310700006 ], [ 116.586517575000016, 2.916514823000057 ], [ 116.583801817000108, 2.89041055000007 ], [ 116.550248244000045, 2.878722637000067 ], [ 116.492722395000101, 2.827618160000043 ], [ 116.455286387000115, 2.825820768000028 ], [ 116.435540034000041, 2.811594764000063 ], [ 116.432102382000039, 2.777382737000039 ], [ 116.408139624000114, 2.767344584000057 ], [ 116.363326442000016, 2.714504687000044 ], [ 116.326143398000113, 2.691138379000051 ], [ 116.302222158000063, 2.636666920000039 ], [ 116.292123582000045, 2.632330079000042 ], [ 116.296580350000113, 2.587658888000021 ], [ 116.30948443200009, 2.574336445000029 ], [ 116.303694410000048, 2.546442816000024 ], [ 116.270591348000039, 2.484481652000056 ], [ 116.26025497, 2.477933375000021 ], [ 116.24177131700003, 2.489069253000025 ], [ 116.228931745000068, 2.48250194000002 ], [ 116.194924488000083, 2.439995249000049 ], [ 116.188081158000045, 2.41400201700003 ], [ 116.177893893000032, 2.404921994000063 ], [ 116.123134563, 2.393597345000046 ], [ 116.104002111000113, 2.356904470000075 ], [ 116.086152980000065, 2.348105224000051 ], [ 116.080423238000094, 2.332581620000042 ], [ 116.060178784000072, 2.316306107000059 ], [ 116.062206085000071, 2.303399910000053 ], [ 116.034922941000104, 2.255677104000029 ], [ 115.988539314000036, 2.261578167000039 ], [ 116.010980804000042, 2.191519432000064 ], [ 116.05585347300007, 2.145278573000041 ], [ 116.070126108000068, 2.161434519000068 ], [ 116.094974026000045, 2.170190935000051 ], [ 116.125877408000065, 2.164964581000049 ], [ 116.147993176000114, 2.152579487000025 ], [ 116.157225485000026, 2.123571213000048 ], [ 116.190276198000106, 2.124983027000042 ], [ 116.216597051, 2.112648445000048 ], [ 116.223132637000049, 2.100084891000051 ], [ 116.21243, 2.060996 ], [ 116.226556, 2.052445 ], [ 116.234748, 2.035051 ], [ 116.231162, 2.013306 ], [ 116.194458, 1.985706 ], [ 116.199412, 1.950837 ], [ 116.175167000000101, 1.901845 ], [ 116.183834, 1.831743 ], [ 116.170191, 1.782442 ], [ 116.159164, 1.769874 ], [ 116.161729, 1.744093 ], [ 116.149603, 1.726858 ], [ 116.141881, 1.686879 ], [ 116.130833, 1.67859 ], [ 116.133468000000107, 1.668068 ], [ 116.115007000000105, 1.654538 ], [ 116.102354000000105, 1.667213 ], [ 116.068654, 1.648464 ], [ 116.03644, 1.606101 ], [ 116.045587, 1.579497 ], [ 116.041417, 1.556644 ], [ 116.027642, 1.55138 ], [ 116.007042, 1.524898 ], [ 115.972683, 1.531302 ], [ 115.955839, 1.504239 ], [ 115.957414, 1.490562 ], [ 115.91403, 1.477268 ], [ 115.854311, 1.434041 ], [ 115.856882, 1.401414 ], [ 115.835256, 1.379285 ], [ 115.829261, 1.352444 ], [ 115.807025, 1.324618 ], [ 115.773394, 1.307682 ], [ 115.772679, 1.263792 ], [ 115.727019, 1.260048 ], [ 115.711076066000032, 1.275303931000053 ], [ 115.709803738, 1.266014872000028 ], [ 115.700746, 1.264216 ], [ 115.685831873000097, 1.281960420000075 ], [ 115.658531641000081, 1.29013057700007 ], [ 115.646695414000078, 1.282040789000064 ], [ 115.58693, 1.281468 ], [ 115.554134, 1.265406 ], [ 115.487459, 1.252468 ], [ 115.485014, 1.245363 ], [ 115.427634, 1.223154 ], [ 115.42198, 1.190666 ], [ 115.410709000000111, 1.192655 ], [ 115.405191, 1.180805 ], [ 115.418102178000026, 1.151661527000044 ], [ 115.400623437000036, 1.146370292000029 ], [ 115.380788761000076, 1.11798742700006 ], [ 115.368293514000015, 1.114075090000028 ], [ 115.280347949000088, 1.134468557000048 ], [ 115.273552451000114, 1.160752039000045 ], [ 115.246787, 1.18138 ], [ 115.232418, 1.172778 ], [ 115.2103350000001, 1.176878 ], [ 115.182017, 1.196749 ], [ 115.114455, 1.181107 ], [ 115.116624000000115, 1.192394 ], [ 115.099198000000115, 1.199181 ], [ 115.093697935000023, 1.211958245000062 ], [ 115.097922, 1.249852 ], [ 115.078114740000046, 1.268544557000041 ], [ 115.045194235000054, 1.267450125000039 ], [ 115.046130383000104, 1.292644813000038 ], [ 115.030156130000023, 1.309413258000063 ], [ 115.01701365100007, 1.347926887000028 ], [ 114.988168973000029, 1.353681450000067 ], [ 114.953925102000085, 1.373170861000062 ], [ 114.930588166, 1.40169862800002 ], [ 114.908571512000094, 1.403453274000071 ], [ 114.907522229000051, 1.41757773300003 ], [ 114.879683711000098, 1.418442105000054 ], [ 114.867175869000107, 1.403877052000041 ], [ 114.842420677000064, 1.402390251000043 ], [ 114.802224867000064, 1.382489531000033 ], [ 114.796237830000109, 1.367362470000046 ], [ 114.764773399000092, 1.345151544000032 ], [ 114.759767346000103, 1.326053820000027 ], [ 114.745321638000064, 1.327470890000029 ], [ 114.728416, 1.313136 ], [ 114.712491000000114, 1.335363 ], [ 114.700369, 1.339341 ], [ 114.704839000000106, 1.350878 ], [ 114.690105, 1.359894 ], [ 114.670076000000108, 1.351895 ], [ 114.616804000000116, 1.363242 ], [ 114.609535, 1.389551 ], [ 114.571807, 1.389192 ], [ 114.576965, 1.412088 ], [ 114.566999, 1.42183 ], [ 114.565164, 1.426223380000067 ], [ 114.586506789000055, 1.447187644000053 ], [ 114.593857067000044, 1.480532363000066 ], [ 114.606680428000118, 1.488259521000032 ], [ 114.615949041000022, 1.515524668000069 ], [ 114.599564009, 1.531496597000057 ], [ 114.610462482000116, 1.575215569000022 ], [ 114.65166913600001, 1.589335024000036 ], [ 114.654920701000037, 1.598968230000025 ], [ 114.680838196000082, 1.610364484000058 ], [ 114.693467467, 1.632992203000072 ], [ 114.708980739000026, 1.637886766000065 ], [ 114.710499742000025, 1.706485863000069 ], [ 114.719250874000068, 1.718841607000059 ], [ 114.705254532000026, 1.760501964000071 ], [ 114.714989470000091, 1.785283450000065 ], [ 114.694418368000015, 1.809543185000052 ], [ 114.727458028000115, 1.831301172000053 ], [ 114.717797705000066, 1.856464018000054 ], [ 114.74731419200009, 1.869362737000074 ], [ 114.771090179000112, 1.850106818000029 ], [ 114.794409355000084, 1.848668514000053 ], [ 114.818853234000017, 1.880501387000038 ], [ 114.819605685000056, 1.892646618000072 ], [ 114.85594178000008, 1.895247380000058 ], [ 114.882447009000089, 1.914352023000049 ], [ 114.853188443000022, 1.943411131000062 ], [ 114.850524145, 1.962029813000072 ], [ 114.851811232000045, 1.97216875600003 ], [ 114.871326805000081, 1.988920806000067 ], [ 114.873852643000077, 2.013585195000076 ], [ 114.888410499000088, 2.023314698000036 ], [ 114.858960539, 2.043993306000061 ], [ 114.808973394000077, 2.024513024000044 ], [ 114.7932533500001, 2.058236972000032 ], [ 114.811780117000012, 2.062344687000063 ], [ 114.800008158000082, 2.08922614100004 ], [ 114.819455404000109, 2.107489710000038 ], [ 114.820372847000044, 2.129881282000042 ], [ 114.791066749000038, 2.145877484000039 ], [ 114.740330547000099, 2.132336983000073 ], [ 114.73432334000006, 2.147174832000076 ], [ 114.741056764000064, 2.191207794000036 ], [ 114.786966106000023, 2.200048800000047 ], [ 114.789592811000034, 2.223145496000029 ], [ 114.801867906000098, 2.236111090000065 ], [ 114.799048047000042, 2.248511310000026 ], [ 114.816397770000094, 2.263890339000056 ], [ 114.826831338000034, 2.245239753000021 ], [ 114.870637065000096, 2.263768220000031 ], [ 114.91704706500002, 2.254922566000062 ], [ 114.936604044000092, 2.279686515000037 ], [ 114.953401572000075, 2.279288735000023 ], [ 114.96663572500006, 2.288820847000068 ], [ 114.947992145000057, 2.316081078000025 ], [ 114.96103977000007, 2.364716262000059 ], [ 114.974363870000047, 2.366805523000039 ], [ 114.998095695000075, 2.34905813000006 ], [ 115.009195402000046, 2.363014272000044 ], [ 115.026218736000033, 2.364811588000066 ], [ 115.038908287000027, 2.392106763000072 ], [ 115.052990860000023, 2.38651986800005 ], [ 115.052705971000023, 2.405611546000046 ], [ 115.099815073000059, 2.405090013000063 ], [ 115.098457273, 2.425496874000032 ], [ 115.107900808000068, 2.441303418000075 ], [ 115.143793180000102, 2.475718857000061 ], [ 115.189109491000067, 2.482608775000074 ], [ 115.204368283, 2.471156792000045 ], [ 115.242500048000011, 2.498781575000066 ], [ 115.251185996000117, 2.541186449000065 ], [ 115.237647751000054, 2.535181376000025 ], [ 115.223442155000043, 2.542255716000057 ], [ 115.212277604000064, 2.573710578000032 ], [ 115.194385256000032, 2.581923355000072 ], [ 115.177806401000112, 2.610478421000039 ], [ 115.151536794000094, 2.608129016000021 ], [ 115.134960825, 2.585026582000069 ], [ 115.116437146000067, 2.583173775000034 ], [ 115.106997883000076, 2.600483046000022 ], [ 115.091658260000031, 2.606315781000035 ], [ 115.091787477000025, 2.623505089000048 ], [ 115.102023646000021, 2.625206625000033 ], [ 115.113022796000109, 2.636596283000074 ], [ 115.112395696000021, 2.647734351000054 ], [ 115.121584493000114, 2.651126801000032 ], [ 115.109116793000112, 2.680427190000046 ], [ 115.115124647000016, 2.689319848000025 ], [ 115.094728196, 2.697695450000026 ], [ 115.100018954, 2.716945090000024 ], [ 115.137936022000076, 2.74371134200004 ], [ 115.139809771000046, 2.775019823000036 ], [ 115.154335972000013, 2.790373904000035 ], [ 115.142010724000102, 2.805048270000043 ], [ 115.12644608800008, 2.802196294000055 ], [ 115.09095857200009, 2.823527443000046 ], [ 115.118521391000058, 2.836505859000056 ], [ 115.141700683000067, 2.868542299000069 ], [ 115.152073216000076, 2.870594889000074 ], [ 115.148047235000035, 2.90813223400005 ], [ 115.163545061000036, 2.927228175000039 ], [ 115.190001805000065, 2.933656288000066 ], [ 115.210573922000094, 2.958203085000036 ], [ 115.249563543000022, 2.965633794000041 ], [ 115.245791312000051, 2.981158751000066 ], [ 115.284495587000038, 3.047468542000047 ], [ 115.299231423000037, 3.040904922000038 ], [ 115.307624131000011, 3.018988738000076 ], [ 115.321460051000031, 3.012478534000024 ], [ 115.323971827000037, 2.981729916000063 ], [ 115.331155859000091, 2.975068171000032 ], [ 115.378085567000085, 2.98623335800005 ], [ 115.393611286, 2.979691050000042 ], [ 115.426798416000111, 3.015871795000066 ], [ 115.437966933000098, 3.014166290000048 ], [ 115.440549686000054, 3.023798376000059 ], [ 115.453409401000044, 3.028152761000058 ], [ 115.48547652700006, 3.018174172000045 ], [ 115.497467209000092, 3.027812904000029 ], [ 115.515870450000079, 3.056906042000037 ], [ 115.513822010000013, 3.108797536000054 ], [ 115.526566192000018, 3.117047161000073 ], [ 115.534931843000095, 3.14230112000007 ], [ 115.548578369000097, 3.140861435000033 ], [ 115.562862629000051, 3.150127926000039 ], [ 115.561590082000066, 3.170244206000064 ], [ 115.519898968, 3.191336600000056 ], [ 115.515600480000103, 3.223794233000035 ], [ 115.533528956000055, 3.226303146000021 ], [ 115.522997092000082, 3.249949504000028 ], [ 115.529431617000114, 3.280045280000024 ], [ 115.537316704000091, 3.285112380000044 ], [ 115.530385717000058, 3.29702321000002 ], [ 115.53221915600011, 3.318143303000056 ], [ 115.548005988000114, 3.327788892000058 ], [ 115.543979412000112, 3.363426526000069 ], [ 115.556028192000099, 3.393026481000049 ], [ 115.578908050000109, 3.418948465000028 ], [ 115.584940386000085, 3.449154966000037 ], [ 115.609571574000029, 3.446685094000031 ], [ 115.623663763000081, 3.407777990000056 ], [ 115.657643845000052, 3.439518322000026 ], [ 115.696120760000099, 3.406789071000048 ], [ 115.722128720000114, 3.444926308000049 ], [ 115.757152403000077, 3.444358211000065 ], [ 115.76971702700007, 3.466005381000059 ], [ 115.785293416000059, 3.460792673000071 ], [ 115.801816393000081, 3.466898370000024 ], [ 115.813624469000047, 3.500297080000053 ], [ 115.833564352000053, 3.488019060000056 ], [ 115.848548611000069, 3.492377440000041 ], [ 115.856596423000042, 3.469377570000063 ], [ 115.878153767000072, 3.458379617000048 ], [ 115.899376139000083, 3.498021602000051 ], [ 115.92096089100005, 3.498854312000049 ], [ 115.938628917000074, 3.52703660100002 ], [ 115.963636203000078, 3.519252096000059 ], [ 115.972992243000022, 3.563404422000076 ], [ 115.958661, 3.571782 ], [ 115.953283134000117, 3.618431045000023 ], [ 115.931910220000077, 3.640116263000039 ], [ 115.910698847000049, 3.694462850000036 ], [ 115.926340438000011, 3.750650158000042 ], [ 115.942984733000117, 3.760696619000043 ], [ 115.948039104000031, 3.77552363500007 ], [ 115.943741481000075, 3.793558047000033 ], [ 115.922529557000075, 3.803962487000035 ], [ 115.925034218000064, 3.83477698400003 ], [ 115.907581288000074, 3.843678666000073 ], [ 115.913739591000081, 3.87814245200002 ], [ 115.942959510000037, 3.884381081000072 ], [ 115.956550516000107, 3.914274964000072 ], [ 115.989372747000061, 3.923808640000061 ], [ 116.008064825000019, 3.939821076000044 ], [ 116.021306313000082, 4.009413251000069 ], [ 116.002094382000109, 4.031809722000048 ], [ 115.994393142000035, 4.058551144000035 ], [ 115.9578456590001, 4.076259876000051 ], [ 115.959666, 4.106005 ], [ 115.964812, 4.117966 ], [ 115.974319, 4.117009 ], [ 115.982168000000115, 4.099963 ], [ 116.033018, 4.081136 ], [ 116.070792, 4.099248 ], [ 116.085219, 4.117866 ], [ 116.111958, 4.112295 ], [ 116.128116, 4.123215 ] ] ] ] } },
{ "type": "Feature", "properties": { "kemendagri_kab_code": 6503, "kemendagri_kab_name": "Kabupaten Nunukan", "kemendagri_prov_code": 65, "kemendagri_prov_name": "Kalimantan Utara" }, "geometry": { "type": "MultiPolygon", "coordinates": [ [ [ [ 117.780980696000029, 3.785014362000027 ], [ 117.816007827000021, 3.775981945000069 ], [ 117.815704961000051, 3.757780215000025 ], [ 117.796559398000113, 3.758550531000026 ], [ 117.785847038000043, 3.770113153000068 ], [ 117.779586986000027, 3.771851659000049 ], [ 117.780980696000029, 3.785014362000027 ] ] ], [ [ [ 117.72175410400007, 3.874224322000032 ], [ 117.755043974000046, 3.868564252000056 ], [ 117.783014042000104, 3.836362129000065 ], [ 117.826291906000051, 3.810471343000074 ], [ 117.833225532000029, 3.785497330000055 ], [ 117.784395534000055, 3.789649256000075 ], [ 117.741249272000118, 3.807816007000042 ], [ 117.737295331000041, 3.837506416000053 ], [ 117.710013644000014, 3.861058928000034 ], [ 117.72175410400007, 3.874224322000032 ] ] ], [ [ [ 117.745165498, 3.872827742000027 ], [ 117.744172111000012, 3.872012867000024 ], [ 117.742901302000064, 3.872380963000069 ], [ 117.745165498, 3.872827742000027 ] ] ], [ [ [ 116.564802598000028, 4.407883682000033 ], [ 116.587977866000074, 4.374355920000028 ], [ 116.613799435000033, 4.377320627000074 ], [ 116.619221674000073, 4.338543187000028 ], [ 116.630581268000014, 4.335715881000056 ], [ 116.653307968000036, 4.336888786000031 ], [ 116.667288256, 4.352537114000029 ], [ 116.702612921000082, 4.334321960000068 ], [ 116.733705051000015, 4.353306602000032 ], [ 116.740594499000053, 4.38242533600004 ], [ 116.751694985000086, 4.390737745000024 ], [ 116.783135185000106, 4.359061247000056 ], [ 116.784653001000038, 4.34243775300007 ], [ 116.796801377000065, 4.338754666000057 ], [ 116.806291282000075, 4.350772255000038 ], [ 116.81569692000005, 4.350478997000039 ], [ 116.834906291000038, 4.326165588000038 ], [ 116.842615428000045, 4.325950489000036 ], [ 116.850515684000015, 4.339508786000067 ], [ 116.867764190000116, 4.336667887000033 ], [ 116.911136363000082, 4.368773995000026 ], [ 116.955216936000056, 4.356112554000049 ], [ 116.968408230000023, 4.337095681000051 ], [ 117.008012715000064, 4.346691565000071 ], [ 117.006234413000016, 4.321053772000027 ], [ 117.020856101000049, 4.318967436000037 ], [ 117.031072721000101, 4.341038333000029 ], [ 117.042863657000112, 4.347254349000025 ], [ 117.107504783000081, 4.332465579000029 ], [ 117.153701705000117, 4.353724465000028 ], [ 117.16907418400001, 4.337453155000048 ], [ 117.199682492000079, 4.335201651000034 ], [ 117.226994808000086, 4.369498020000037 ], [ 117.24751725200008, 4.374009813000043 ], [ 117.284589751000112, 4.333747555000059 ], [ 117.296393476000048, 4.309970278000037 ], [ 117.308373574000029, 4.309400221000033 ], [ 117.311252981000052, 4.299304110000037 ], [ 117.322048829000096, 4.303446266000037 ], [ 117.342292336000014, 4.289859451000041 ], [ 117.371560686000066, 4.286145633000046 ], [ 117.386541316000034, 4.257938433000049 ], [ 117.411993945000063, 4.249667663000025 ], [ 117.411256914000091, 4.237240419000045 ], [ 117.427266583, 4.232436024000037 ], [ 117.426481551000052, 4.21569209300003 ], [ 117.45824441000002, 4.177716246000045 ], [ 117.477177381000047, 4.169283395000036 ], [ 117.507713463000073, 4.170716875000039 ], [ 117.529550573000051, 4.160059749000027 ], [ 117.538889873000016, 4.170848486000068 ], [ 117.549165136000056, 4.167759507000028 ], [ 117.566140378000114, 4.179764288000058 ], [ 117.593335031000038, 4.17232567700006 ], [ 117.583018455000115, 4.158611354000072 ], [ 117.548225433000084, 4.14244556500006 ], [ 117.517734302, 4.099315406000073 ], [ 117.416214587000013, 4.140113885000062 ], [ 117.418733512000017, 4.146877080000024 ], [ 117.394800163000014, 4.145374742000058 ], [ 117.391209747000062, 4.135680327000046 ], [ 117.419305705000056, 4.112906197000029 ], [ 117.413083053000037, 4.107371967000063 ], [ 117.418401230000086, 4.094335871000055 ], [ 117.468357083000114, 4.082868222000059 ], [ 117.473824261000118, 4.070673117000069 ], [ 117.438226566000026, 4.013427105000062 ], [ 117.415990700000066, 4.028707796000049 ], [ 117.382957949000115, 4.036522780000041 ], [ 117.369536526000047, 4.032795981000049 ], [ 117.365469268000084, 4.014287257000035 ], [ 117.376283995000108, 4.014993877000052 ], [ 117.375478588000078, 4.026626986000053 ], [ 117.385357862000092, 4.027266483000062 ], [ 117.439730673000099, 4.004402550000066 ], [ 117.463645966000058, 3.960868153000035 ], [ 117.455542823000087, 3.938721599000075 ], [ 117.457425600000079, 3.930185287000029 ], [ 117.487376382000093, 3.914622392000069 ], [ 117.49948246200006, 3.912749467000026 ], [ 117.533257332000062, 3.924778914000058 ], [ 117.562899888000061, 3.912049722000063 ], [ 117.596562442000049, 3.876776710000058 ], [ 117.668925311000066, 3.878797945000031 ], [ 117.694880249000107, 3.867112281000061 ], [ 117.733953012000029, 3.836682962000054 ], [ 117.73164672300004, 3.810882714000059 ], [ 117.778914637000071, 3.785849646000031 ], [ 117.778956004000065, 3.767360814000028 ], [ 117.792204602000083, 3.759371484000042 ], [ 117.783723286000054, 3.754927357000042 ], [ 117.665964190000068, 3.786091530000022 ], [ 117.650726391000035, 3.769970887000056 ], [ 117.628144604000113, 3.778843559000052 ], [ 117.601335073000087, 3.773668638000061 ], [ 117.595536331000062, 3.795860709000067 ], [ 117.578370084000085, 3.780793090000031 ], [ 117.55792783000004, 3.783894198000041 ], [ 117.531897352000101, 3.76689238900002 ], [ 117.521656524000036, 3.775323953000054 ], [ 117.502969773000018, 3.765377743000045 ], [ 117.488007590000052, 3.769327262000047 ], [ 117.477424293000013, 3.752737352000054 ], [ 117.489943034000021, 3.721784013000047 ], [ 117.443398293000087, 3.70136765500007 ], [ 117.436363664000055, 3.690380499000071 ], [ 117.402662683000017, 3.696328686000072 ], [ 117.391880066000112, 3.709661188000041 ], [ 117.290587335000055, 3.718804525000053 ], [ 117.261507422000022, 3.733282142000064 ], [ 117.248887649000039, 3.730643230000055 ], [ 117.233647230000088, 3.75002054600003 ], [ 117.237195929000109, 3.762194429000033 ], [ 117.220472912000105, 3.768550021000067 ], [ 117.181354577000093, 3.749037995000037 ], [ 117.137954354000044, 3.753567402000044 ], [ 117.043227293000086, 3.734801087000051 ], [ 116.96840377500007, 3.737228409000068 ], [ 116.944167289, 3.750333057000034 ], [ 116.8811846320001, 3.731624779000072 ], [ 116.833405055000071, 3.69389247600003 ], [ 116.761316980000061, 3.695122426000069 ], [ 116.742606, 3.681322 ], [ 116.731288, 3.682899 ], [ 116.718056, 3.699264 ], [ 116.69567, 3.701904 ], [ 116.672648, 3.738309 ], [ 116.681657, 3.748786 ], [ 116.663353, 3.77607 ], [ 116.64585441700001, 3.784660088000066 ], [ 116.643265563000114, 3.798209929000052 ], [ 116.626048933000106, 3.799183425000024 ], [ 116.592868107000072, 3.826618168000039 ], [ 116.564319, 3.833705 ], [ 116.55653451, 3.84522574600004 ], [ 116.533463653000013, 3.847537789000057 ], [ 116.516787, 3.858289 ], [ 116.494790786000067, 3.857357598000021 ], [ 116.463980649000064, 3.880517212000029 ], [ 116.425478000000112, 3.881297 ], [ 116.406952, 3.895851 ], [ 116.384419, 3.944262 ], [ 116.382203000000118, 3.981391 ], [ 116.390782, 3.991712 ], [ 116.369407, 3.993877 ], [ 116.356494000000112, 4.007894 ], [ 116.35478, 4.036052 ], [ 116.340425, 4.042143 ], [ 116.322802, 4.065706 ], [ 116.308412, 4.051317 ], [ 116.282675, 4.058574 ], [ 116.271649, 4.039845 ], [ 116.236640494000085, 4.047825089000071 ], [ 116.236105829000053, 4.059119081000063 ], [ 116.217081, 4.079587 ], [ 116.199818857000082, 4.074478746000068 ], [ 116.16163421300007, 4.09098614100003 ], [ 116.167466000000104, 4.112066 ], [ 116.144619, 4.113389 ], [ 116.131859, 4.12243 ], [ 116.111958, 4.112295 ], [ 116.085219, 4.117866 ], [ 116.070792, 4.099248 ], [ 116.033018, 4.081136 ], [ 115.991588, 4.094717 ], [ 115.977464, 4.114625 ], [ 115.964812, 4.117966 ], [ 115.9578456590001, 4.076259876000051 ], [ 115.994393142000035, 4.058551144000035 ], [ 116.002094382000109, 4.031809722000048 ], [ 116.021306313000082, 4.009413251000069 ], [ 116.01551013400001, 3.96294808500005 ], [ 115.998463843000081, 3.930675720000067 ], [ 115.956550516000107, 3.914274964000072 ], [ 115.942959510000037, 3.884381081000072 ], [ 115.913739591000081, 3.87814245200002 ], [ 115.907581288000074, 3.843678666000073 ], [ 115.925034218000064, 3.83477698400003 ], [ 115.922529557000075, 3.803962487000035 ], [ 115.943741481000075, 3.793558047000033 ], [ 115.948039104000031, 3.77552363500007 ], [ 115.942984733000117, 3.760696619000043 ], [ 115.926340438000011, 3.750650158000042 ], [ 115.912478908000026, 3.682830067000054 ], [ 115.931910220000077, 3.640116263000039 ], [ 115.953720955000108, 3.617286525000054 ], [ 115.958661, 3.571782 ], [ 115.972992243000022, 3.563404422000076 ], [ 115.970839158000103, 3.529380770000046 ], [ 115.9580269490001, 3.518464698000059 ], [ 115.938628917000074, 3.52703660100002 ], [ 115.92096089100005, 3.498854312000049 ], [ 115.901288240000099, 3.500012806000029 ], [ 115.878153767000072, 3.458379617000048 ], [ 115.856596423000042, 3.469377570000063 ], [ 115.848548611000069, 3.492377440000041 ], [ 115.833564352000053, 3.488019060000056 ], [ 115.813624469000047, 3.500297080000053 ], [ 115.801816393000081, 3.466898370000024 ], [ 115.785293416000059, 3.460792673000071 ], [ 115.76971702700007, 3.466005381000059 ], [ 115.757152403000077, 3.444358211000065 ], [ 115.722128720000114, 3.444926308000049 ], [ 115.698343907000094, 3.407342559000028 ], [ 115.686511880000012, 3.408859723000035 ], [ 115.670543603000056, 3.434154314000068 ], [ 115.637382112000068, 3.455977181000037 ], [ 115.634781129000089, 3.474481113000024 ], [ 115.60897021400001, 3.51074240500003 ], [ 115.612316839000073, 3.547505238000042 ], [ 115.603395621000118, 3.576905624000062 ], [ 115.588022381000087, 3.578889412000024 ], [ 115.578442604000088, 3.59862716300006 ], [ 115.575291453000091, 3.62740061300002 ], [ 115.580948772000056, 3.634123926000029 ], [ 115.570639913000036, 3.652437849000023 ], [ 115.571583783000051, 3.683222805000071 ], [ 115.582675711000093, 3.697789269000054 ], [ 115.573673347000067, 3.718520184000056 ], [ 115.580499135000082, 3.728331329000071 ], [ 115.577065490000109, 3.74693527200003 ], [ 115.612622716000033, 3.824152265000066 ], [ 115.617858270000056, 3.868243082000049 ], [ 115.616152687000067, 3.875385348000066 ], [ 115.596795551000014, 3.879316276000054 ], [ 115.595433545000105, 3.89061459900006 ], [ 115.581813113000067, 3.886216639000054 ], [ 115.558207151000033, 3.917900305000046 ], [ 115.589067061000037, 3.943210971000042 ], [ 115.617233593000037, 3.936665315000027 ], [ 115.639697910000109, 3.961734147000072 ], [ 115.649131466000085, 3.987134740000045 ], [ 115.651781812000081, 4.033023215000071 ], [ 115.677074187000017, 4.089794958000027 ], [ 115.682235676, 4.160615219000022 ], [ 115.702811951000058, 4.195293990000039 ], [ 115.727628364000111, 4.188918596000065 ], [ 115.731997017000026, 4.208656847000043 ], [ 115.752882025000076, 4.212868083000046 ], [ 115.766381173000013, 4.245015954000053 ], [ 115.795551992000014, 4.238249108000048 ], [ 115.80155224400005, 4.220377886000051 ], [ 115.8286745260001, 4.234535404000042 ], [ 115.824842624000098, 4.262948297000037 ], [ 115.874779678000095, 4.291361251000069 ], [ 115.862853376000089, 4.343463282000073 ], [ 115.872540178, 4.354338283000061 ], [ 115.868791000000101, 4.372634641000047 ], [ 115.879223007000064, 4.39244979700004 ], [ 115.906759909000016, 4.392558929000074 ], [ 115.928471343000069, 4.353291493000029 ], [ 115.976538299000026, 4.357938231000048 ], [ 116.002565383000046, 4.347813769000027 ], [ 116.007394703000045, 4.335476608000022 ], [ 116.031360101000018, 4.328839489000075 ], [ 116.034382655000059, 4.295176145000028 ], [ 116.072498655000118, 4.276695819000054 ], [ 116.080579277000083, 4.277585109000029 ], [ 116.086458966, 4.304810834000023 ], [ 116.110866080000051, 4.331878784000025 ], [ 116.12965108700007, 4.328971595000041 ], [ 116.155044527000086, 4.338511105000066 ], [ 116.16683105300001, 4.391042691000052 ], [ 116.204021642000043, 4.372985996000068 ], [ 116.219968226000105, 4.382066431000055 ], [ 116.25176402000011, 4.377232853000066 ], [ 116.261275549000061, 4.362046246000034 ], [ 116.279186768000045, 4.360168146000035 ], [ 116.292271311000036, 4.372565827000074 ], [ 116.306591729000047, 4.368723830000022 ], [ 116.32388727600005, 4.384089651000068 ], [ 116.354096852000112, 4.38934253900004 ], [ 116.3792982760001, 4.375889727000072 ], [ 116.38560287100006, 4.359150218000025 ], [ 116.404110184000047, 4.359021109000025 ], [ 116.418279048000045, 4.326268544000072 ], [ 116.429251028000067, 4.32961983000007 ], [ 116.437049300000012, 4.32314386500002 ], [ 116.441390069000022, 4.288215928000056 ], [ 116.478770188000112, 4.302577660000054 ], [ 116.488464892000025, 4.334847928000045 ], [ 116.536879240000076, 4.320817928000054 ], [ 116.540587673000118, 4.335254087000067 ], [ 116.529543064000109, 4.347612382000023 ], [ 116.536181144000011, 4.376246389000073 ], [ 116.563559762000068, 4.390315042000054 ], [ 116.564802598000028, 4.407883682000033 ] ] ], [ [ [ 117.496174414000052, 4.05280149400005 ], [ 117.547506103000046, 4.015362631000073 ], [ 117.554576528000098, 3.985176489000025 ], [ 117.577606807000052, 3.969696897000063 ], [ 117.597453984000026, 3.933491176000075 ], [ 117.639144321000117, 3.912440681000021 ], [ 117.682939348000104, 3.914324626000052 ], [ 117.682263350000085, 3.887016740000035 ], [ 117.601562939000019, 3.882671415000061 ], [ 117.550435335000088, 3.925188838000054 ], [ 117.526373842000112, 3.929638444000034 ], [ 117.496568918000094, 3.916259190000062 ], [ 117.459671358000037, 3.931452544000024 ], [ 117.46592320600007, 3.960979958000053 ], [ 117.443278877000012, 4.005761437000046 ], [ 117.496174414000052, 4.05280149400005 ] ] ], [ [ [ 117.497366665000072, 4.062944849000075 ], [ 117.488752501000022, 4.058172538000065 ], [ 117.478615895000075, 4.047811954000053 ], [ 117.482199950000108, 4.062289818000067 ], [ 117.497366665000072, 4.062944849000075 ] ] ], [ [ [ 117.660446972000045, 4.147034827000027 ], [ 117.753632426000081, 4.061211602000071 ], [ 117.727283965000083, 4.011770956000021 ], [ 117.725928767000028, 3.98558137200007 ], [ 117.67163589800009, 3.966416762000051 ], [ 117.62629877300003, 3.988918614000056 ], [ 117.602568474, 4.011434525000027 ], [ 117.589214319, 4.079182704000061 ], [ 117.629411135000055, 4.13518375600006 ], [ 117.660446972000045, 4.147034827000027 ] ] ], [ [ [ 117.481865999000092, 4.079406 ], [ 117.482017, 4.079528 ], [ 117.48203500000011, 4.079332 ], [ 117.481865999000092, 4.079406 ] ] ], [ [ [ 117.899503529000071, 4.166669286000058 ], [ 117.925538596000024, 4.12734685700002 ], [ 117.917130674000077, 4.084282719000043 ], [ 117.926190889000054, 4.060854385000027 ], [ 117.90528237, 4.040228737000064 ], [ 117.896118565000052, 4.043255185000021 ], [ 117.861517672000105, 4.028976342000021 ], [ 117.731126573000097, 4.120837646000041 ], [ 117.683318699000097, 4.166666683000074 ], [ 117.899503529000071, 4.166669286000058 ] ] ], [ [ [ 117.553803985000059, 4.099186150000037 ], [ 117.536176624000063, 4.108701751000069 ], [ 117.546105708000027, 4.133250446000034 ], [ 117.587946846000023, 4.142298227000026 ], [ 117.575475265000023, 4.118345587000022 ], [ 117.553803985000059, 4.099186150000037 ] ] ] ] } },
{ "type": "Feature", "properties": { "kemendagri_kab_code": 6504, "kemendagri_kab_name": "Kabupaten Tana Tidung", "kemendagri_prov_code": 65, "kemendagri_prov_name": "Kalimantan Utara" }, "geometry": { "type": "MultiPolygon", "coordinates": [ [ [ [ 117.344831307000049, 3.469590647000075 ], [ 117.328452939000044, 3.473630442000058 ], [ 117.327539820000084, 3.474126438000042 ], [ 117.344831307000049, 3.469590647000075 ] ] ], [ [ [ 117.328434247000018, 3.482034421000037 ], [ 117.320045751000066, 3.482820540000034 ], [ 117.316682352000043, 3.484213082000053 ], [ 117.324097086000052, 3.488279123000041 ], [ 117.328434247000018, 3.482034421000037 ] ] ], [ [ [ 117.248770790000094, 3.588064605000056 ], [ 117.278266003000113, 3.587587793000068 ], [ 117.276307319000011, 3.579546300000061 ], [ 117.299945559000093, 3.560275938000075 ], [ 117.371095882000077, 3.562561659000039 ], [ 117.407136956000045, 3.53793145100002 ], [ 117.437658093000096, 3.528919115000065 ], [ 117.439760600000113, 3.504572241000062 ], [ 117.457351780000067, 3.509229961000074 ], [ 117.485028164000028, 3.491922346000024 ], [ 117.504961404000028, 3.497495662000063 ], [ 117.517762387000062, 3.481199338000067 ], [ 117.491310368000086, 3.457780598000056 ], [ 117.482817752000074, 3.432374500000037 ], [ 117.449154600000043, 3.455293070000039 ], [ 117.324957391000112, 3.491021330000024 ], [ 117.292660150000074, 3.48435119100003 ], [ 117.230768642000044, 3.496759373000032 ], [ 117.201416037000058, 3.539910226000075 ], [ 117.219553537000024, 3.57203159900007 ], [ 117.248770790000094, 3.588064605000056 ] ] ], [ [ [ 117.233609037000065, 3.765362390000064 ], [ 117.234367124000073, 3.748245355000051 ], [ 117.248887649000039, 3.730643230000055 ], [ 117.261507422000022, 3.733282142000064 ], [ 117.290587335000055, 3.718804525000053 ], [ 117.391880066000112, 3.709661188000041 ], [ 117.402662683000017, 3.696328686000072 ], [ 117.427046010000026, 3.69332418700003 ], [ 117.424092013000063, 3.677452370000026 ], [ 117.42872284900011, 3.671145711000065 ], [ 117.455478611000103, 3.675696303000052 ], [ 117.467907495000077, 3.667456964000053 ], [ 117.485427094000102, 3.673463969000068 ], [ 117.490281928000059, 3.669289646000038 ], [ 117.488476210000044, 3.665510803000075 ], [ 117.487900113000023, 3.655821243000048 ], [ 117.495906431000094, 3.639661874000069 ], [ 117.485441834000085, 3.635685375000037 ], [ 117.479924613000094, 3.645593022000071 ], [ 117.475479059, 3.647962821000021 ], [ 117.457063024000036, 3.634510999000042 ], [ 117.435606774, 3.641964882000025 ], [ 117.432504198000061, 3.638914355000054 ], [ 117.428412608000031, 3.624740896000048 ], [ 117.39593104100004, 3.639126136000073 ], [ 117.379045591000022, 3.640248510000049 ], [ 117.32333738300008, 3.624223417000053 ], [ 117.261064992000115, 3.617164070000058 ], [ 117.168682590000117, 3.644268310000029 ], [ 117.086829758000022, 3.637905094000075 ], [ 117.061347110000042, 3.628688175000036 ], [ 117.017394026000034, 3.596020514000031 ], [ 117.000000000000114, 3.597814442000072 ], [ 117.000000000000114, 3.587652482000067 ], [ 117.027140511000084, 3.587460773000032 ], [ 117.072342129000049, 3.610760058000039 ], [ 117.09526607600003, 3.60838612200007 ], [ 117.132356032000075, 3.621084419000056 ], [ 117.220876044000079, 3.609050404000072 ], [ 117.227086909000036, 3.591925782000033 ], [ 117.207261002000109, 3.569516656000076 ], [ 117.193429262000109, 3.536716043000069 ], [ 117.211801783000055, 3.500064251000026 ], [ 117.253299633000097, 3.471355084000038 ], [ 117.297621770000092, 3.465820092000058 ], [ 117.277912628000081, 3.466595533000032 ], [ 117.281786613, 3.460237651000057 ], [ 117.321742958000073, 3.462495976000071 ], [ 117.301544432000014, 3.452056197000047 ], [ 117.304317642000115, 3.447253149000062 ], [ 117.357883580000021, 3.447463607000032 ], [ 117.358817676000058, 3.426885065000022 ], [ 117.362875063000047, 3.430246865000072 ], [ 117.369491150000044, 3.412800249000043 ], [ 117.394085389000111, 3.406148673000075 ], [ 117.414061896000021, 3.388734291000048 ], [ 117.409665249000113, 3.326711225000054 ], [ 117.390423173000045, 3.323650868000072 ], [ 117.391731169000082, 3.34196298400002 ], [ 117.371503683000014, 3.355880383000056 ], [ 117.372033487000067, 3.37055319500007 ], [ 117.353033554000035, 3.367241256000057 ], [ 117.330351833, 3.375588906000075 ], [ 117.328238570000053, 3.401771208000071 ], [ 117.312214764000032, 3.413389007000035 ], [ 117.303878318000102, 3.409929421000072 ], [ 117.299090875000047, 3.424011019000034 ], [ 117.289390494000031, 3.427705490000051 ], [ 117.278317991000108, 3.404252128000053 ], [ 117.283060652000017, 3.393193841000027 ], [ 117.247244114000068, 3.313841766000053 ], [ 117.226032367000016, 3.337278524000055 ], [ 117.187057960000061, 3.335057478000067 ], [ 117.185841524000011, 3.347128271000031 ], [ 117.172651789000042, 3.358446425000068 ], [ 117.133271309000065, 3.343686723000076 ], [ 117.116028404000076, 3.348290696000049 ], [ 117.110804, 3.362195 ], [ 117.094949, 3.366404 ], [ 117.091220838000027, 3.390384862000076 ], [ 117.066815751000036, 3.388291074000051 ], [ 117.063082429000019, 3.40314702400002 ], [ 117.048181531000068, 3.406934333000038 ], [ 117.002619676000108, 3.391185384000039 ], [ 116.967204655000046, 3.404357699000059 ], [ 116.923917220000021, 3.383876924000049 ], [ 116.900060771000085, 3.396685112000057 ], [ 116.818695889000082, 3.387002257000063 ], [ 116.785456239000041, 3.370815993000065 ], [ 116.775917904000039, 3.382233089000067 ], [ 116.760743282000021, 3.384545413000069 ], [ 116.741666613, 3.381655009000042 ], [ 116.735096119000104, 3.369818843000076 ], [ 116.704882055000098, 3.369282386000066 ], [ 116.696306322000055, 3.399367583000071 ], [ 116.709541632000082, 3.424196319000032 ], [ 116.697045216000106, 3.433470315000022 ], [ 116.702037290000021, 3.450773892000029 ], [ 116.689873125000076, 3.49893667200007 ], [ 116.675912130000029, 3.516546443000038 ], [ 116.676504988000033, 3.533274370000072 ], [ 116.693465787000036, 3.549892525000075 ], [ 116.711511619000021, 3.550406489000068 ], [ 116.695528188000026, 3.561528612000075 ], [ 116.697943432000102, 3.572089127000027 ], [ 116.719144226000026, 3.599097394000069 ], [ 116.737980573000073, 3.605658982000023 ], [ 116.715769564000084, 3.630860082000027 ], [ 116.714798735000045, 3.642012615000056 ], [ 116.737060465000013, 3.656354960000044 ], [ 116.742622324000081, 3.681613403000028 ], [ 116.759056492000013, 3.694289615000059 ], [ 116.833405055000071, 3.69389247600003 ], [ 116.8811846320001, 3.731624779000072 ], [ 116.944167289, 3.750333057000034 ], [ 116.96840377500007, 3.737228409000068 ], [ 117.043227293000086, 3.734801087000051 ], [ 117.137954354000044, 3.753567402000044 ], [ 117.181354577000093, 3.749037995000037 ], [ 117.217262733000098, 3.768673513000067 ], [ 117.233609037000065, 3.765362390000064 ] ] ], [ [ [ 117.320452654000064, 3.572346326000059 ], [ 117.32984676600006, 3.57708621200004 ], [ 117.33297337800002, 3.576543695000055 ], [ 117.327633867000031, 3.57203223700003 ], [ 117.320452654000064, 3.572346326000059 ] ] ], [ [ [ 117.393762705000086, 3.584239542000034 ], [ 117.413813388000108, 3.581759953000073 ], [ 117.415855565000015, 3.565775420000023 ], [ 117.405752919000065, 3.567588279000063 ], [ 117.393762705000086, 3.584239542000034 ] ] ], [ [ [ 117.314677075000077, 3.570962519000034 ], [ 117.312799210000094, 3.581180975000052 ], [ 117.33464901100001, 3.582547049000027 ], [ 117.314677075000077, 3.570962519000034 ] ] ], [ [ [ 117.39016932100003, 3.585665472000073 ], [ 117.403306245000067, 3.568890098000054 ], [ 117.367226532000018, 3.579780615000061 ], [ 117.380122608000079, 3.584964752000076 ], [ 117.39016932100003, 3.585665472000073 ] ] ], [ [ [ 117.392275064000046, 3.61367985000004 ], [ 117.456488407000052, 3.582242836000034 ], [ 117.460377871000105, 3.568736631000036 ], [ 117.435620910000011, 3.562201060000064 ], [ 117.41748339500009, 3.584203129000059 ], [ 117.3966563030001, 3.589971203000061 ], [ 117.32659112500005, 3.586500935000061 ], [ 117.302501067000094, 3.578447474000029 ], [ 117.291890032000083, 3.596953129000042 ], [ 117.392275064000046, 3.61367985000004 ] ] ], [ [ [ 117.057881651000116, 3.613781305000032 ], [ 117.043029055000034, 3.60417304200007 ], [ 117.040197497, 3.60455375500004 ], [ 117.050238822000097, 3.615761017000068 ], [ 117.057881651000116, 3.613781305000032 ] ] ], [ [ [ 117.371925168000075, 3.621262281000043 ], [ 117.352833873, 3.612779251000063 ], [ 117.319374345000028, 3.614258938000035 ], [ 117.342471100000012, 3.622170727000025 ], [ 117.371925168000075, 3.621262281000043 ] ] ], [ [ [ 117.107116271000109, 3.620907307000039 ], [ 117.091478873000028, 3.617671185000063 ], [ 117.090762770000083, 3.619095542000025 ], [ 117.107116271000109, 3.620907307000039 ] ] ], [ [ [ 117.368938313000058, 3.630531292000057 ], [ 117.378107946000114, 3.636561871000026 ], [ 117.385055972000032, 3.630984415000057 ], [ 117.374268180000058, 3.628898817000049 ], [ 117.368938313000058, 3.630531292000057 ] ] ], [ [ [ 117.401815309000085, 3.630762569000069 ], [ 117.382542782000087, 3.636331598000027 ], [ 117.403183499000079, 3.631268205000026 ], [ 117.401815309000085, 3.630762569000069 ] ] ], [ [ [ 117.416679427000076, 3.361462797000058 ], [ 117.41505093100011, 3.377628695000055 ], [ 117.416546198000106, 3.383442934000072 ], [ 117.416679427000076, 3.361462797000058 ] ] ], [ [ [ 117.366569694000077, 3.440721113000052 ], [ 117.438113204000047, 3.417575697000075 ], [ 117.444266548000087, 3.398699281000063 ], [ 117.43586081, 3.349704956000039 ], [ 117.417822809000086, 3.33948265500004 ], [ 117.421730609000065, 3.37346457600006 ], [ 117.415856536000092, 3.390469617000065 ], [ 117.396934326000064, 3.40748467800006 ], [ 117.36988721900002, 3.415466385000059 ], [ 117.366569694000077, 3.440721113000052 ] ] ], [ [ [ 117.427650626000059, 3.453748569000027 ], [ 117.457562848000066, 3.446705400000042 ], [ 117.460115599, 3.43810146200002 ], [ 117.427650626000059, 3.453748569000027 ] ] ], [ [ [ 117.394964855000012, 3.451345455000023 ], [ 117.410661399000105, 3.448956684000052 ], [ 117.417960180000023, 3.444225558000028 ], [ 117.394964855000012, 3.451345455000023 ] ] ], [ [ [ 117.446082033000039, 3.532609808000075 ], [ 117.443748735000099, 3.533902398000066 ], [ 117.443954541000039, 3.53490716500005 ], [ 117.446082033000039, 3.532609808000075 ] ] ], [ [ [ 117.40712970800007, 3.551888201000054 ], [ 117.404611629000101, 3.557414945000062 ], [ 117.403857061000053, 3.561042800000052 ], [ 117.411879283000076, 3.557875705000072 ], [ 117.40712970800007, 3.551888201000054 ] ] ], [ [ [ 117.548909311000102, 3.582324094000057 ], [ 117.507014137000056, 3.59408232800007 ], [ 117.516653352000048, 3.614252831000044 ], [ 117.54873167300002, 3.600756906000072 ], [ 117.548909311000102, 3.582324094000057 ] ] ], [ [ [ 117.484327218000089, 3.635124862000055 ], [ 117.506864886000017, 3.633852862000026 ], [ 117.51651598, 3.63864985500004 ], [ 117.518400513000074, 3.636365572000045 ], [ 117.494742837000103, 3.598062950000042 ], [ 117.430089525000085, 3.624142813000049 ], [ 117.435235162000026, 3.640907784000035 ], [ 117.457004184000084, 3.633476617000042 ], [ 117.476046704000055, 3.646973798000033 ], [ 117.484327218000089, 3.635124862000055 ] ] ], [ [ [ 117.719604641000046, 3.63576177300007 ], [ 117.718674023000062, 3.63716366500006 ], [ 117.720039215000043, 3.635510109000052 ], [ 117.719604641000046, 3.63576177300007 ] ] ], [ [ [ 117.497284090000107, 3.667611803000057 ], [ 117.514248743000053, 3.657117940000035 ], [ 117.521133324000061, 3.63943507700003 ], [ 117.497379603000013, 3.639937451000037 ], [ 117.488578154000038, 3.657343757000035 ], [ 117.497284090000107, 3.667611803000057 ] ] ], [ [ [ 117.49111231400002, 3.682539468000073 ], [ 117.467441302000111, 3.671371342000043 ], [ 117.456709430000046, 3.679377438000074 ], [ 117.427776358000074, 3.676905995000027 ], [ 117.449358946000075, 3.698815076000074 ], [ 117.4817742890001, 3.708655933000045 ], [ 117.492834888000061, 3.699016525000047 ], [ 117.49111231400002, 3.682539468000073 ] ] ], [ [ [ 117.597905067000056, 3.775346485000057 ], [ 117.628144604000113, 3.778843559000052 ], [ 117.650726391000035, 3.769970887000056 ], [ 117.665964190000068, 3.786091530000022 ], [ 117.690807999000072, 3.764886089000072 ], [ 117.814732394000089, 3.721058656000025 ], [ 117.826493683000081, 3.705296970000063 ], [ 117.768688147000034, 3.681867350000061 ], [ 117.761367399000051, 3.657432972000038 ], [ 117.736757214000022, 3.632047377000049 ], [ 117.719098837000047, 3.637592945000051 ], [ 117.716789245000086, 3.636101980000035 ], [ 117.716774050000026, 3.62828778100004 ], [ 117.666528401000051, 3.615027975000032 ], [ 117.591151732000071, 3.627883256000075 ], [ 117.51274421700009, 3.681511960000023 ], [ 117.485976068000014, 3.716700202000027 ], [ 117.489858807000019, 3.723666053000045 ], [ 117.482613072000049, 3.728032881000047 ], [ 117.485350574000108, 3.744028340000057 ], [ 117.477340971000103, 3.756330303000027 ], [ 117.488007590000052, 3.769327262000047 ], [ 117.502969773000018, 3.765377743000045 ], [ 117.521656524000036, 3.775323953000054 ], [ 117.531897352000101, 3.76689238900002 ], [ 117.55792783000004, 3.783894198000041 ], [ 117.578370084000085, 3.780793090000031 ], [ 117.595536331000062, 3.795860709000067 ], [ 117.597905067000056, 3.775346485000057 ] ] ], [ [ [ 117.742483994000054, 3.759621084000059 ], [ 117.809105689000035, 3.753347279000025 ], [ 117.813955172000078, 3.734386067000059 ], [ 117.800625214000092, 3.732109376000039 ], [ 117.771957185000019, 3.747699640000064 ], [ 117.74901749300011, 3.754383365000024 ], [ 117.742483994000054, 3.759621084000059 ] ] ], [ [ [ 117.767091606, 3.744448078000062 ], [ 117.749092076000011, 3.751589772000045 ], [ 117.773595095000019, 3.743341353000062 ], [ 117.767091606, 3.744448078000062 ] ] ] ] } },
{ "type": "Feature", "properties": { "kemendagri_kab_code": 6571, "kemendagri_kab_name": "Kota Tarakan", "kemendagri_prov_code": 65, "kemendagri_prov_name": "Kalimantan Utara" }, "geometry": { "type": "MultiPolygon", "coordinates": [ [ [ [ 117.618898270000045, 3.438337678000039 ], [ 117.665780980000022, 3.415220490000024 ], [ 117.668654952000111, 3.403657783000028 ], [ 117.668246343000078, 3.363470834000054 ], [ 117.657099294000091, 3.32637873300007 ], [ 117.655991901000107, 3.253586171000052 ], [ 117.643248295000035, 3.238601880000033 ], [ 117.620829509000032, 3.252130504000036 ], [ 117.611713303000101, 3.279434578000064 ], [ 117.587420392000013, 3.287849734000076 ], [ 117.585485585000015, 3.296580780000056 ], [ 117.54217480200009, 3.325563251000062 ], [ 117.514650916000051, 3.381213021000065 ], [ 117.520276096000089, 3.415861177000068 ], [ 117.548577581000018, 3.44229658200004 ], [ 117.618898270000045, 3.438337678000039 ] ] ], [ [ [ 117.52601595100009, 3.348837690000039 ], [ 117.521237969000026, 3.34371797700004 ], [ 117.521573719000116, 3.348098062000076 ], [ 117.52601595100009, 3.348837690000039 ] ] ], [ [ [ 117.523753549000048, 3.349485522000066 ], [ 117.522910491000061, 3.349600867000049 ], [ 117.522682005000092, 3.349893008000038 ], [ 117.523753549000048, 3.349485522000066 ] ] ] ] } }
]
}
