{
"type": "FeatureCollection",
"name": "75",
"crs": { "type": "name", "properties": { "name": "urn:ogc:def:crs:OGC:1.3:CRS84" } },
"features": [
{ "type": "Feature", "properties": { "kemendagri_kab_code": 7501, "kemendagri_kab_name": "Kabupaten Gorontalo", "kemendagri_prov_code": 75, "kemendagri_prov_name": "Gorontalo" }, "geometry": { "type": "Polygon", "coordinates": [ [ [ 123.070064156000058, 0.802990216000069 ], [ 123.080701196000064, 0.695501698000044 ], [ 123.078234553000016, 0.674416112000074 ], [ 123.060101415000076, 0.659325104000061 ], [ 123.05597350100004, 0.629462060000037 ], [ 123.060627535000094, 0.613794516000041 ], [ 123.074545049000108, 0.60876845100006 ], [ 123.05994247700005, 0.587728328000026 ], [ 123.026977068000065, 0.563582618000055 ], [ 123.030629541000053, 0.546783624000057 ], [ 123.006112453000014, 0.556115993000049 ], [ 122.995036116000051, 0.551626448000036 ], [ 123.004642045000082, 0.530160030000047 ], [ 123.037622082000098, 0.509161669000036 ], [ 123.040643110000019, 0.496041529000024 ], [ 123.017942657000049, 0.496656117000043 ], [ 123.010275981000063, 0.489062218000072 ], [ 123.000286756000037, 0.495469348000029 ], [ 122.988845448, 0.484736962000056 ], [ 122.96142230800001, 0.493266378000044 ], [ 122.929146269000057, 0.485941500000024 ], [ 122.902035881000074, 0.492681727000047 ], [ 122.888026378000063, 0.48576908800004 ], [ 122.822239484000079, 0.497551183000041 ], [ 122.815484045000062, 0.488901859000066 ], [ 122.786065434000079, 0.494546297000056 ], [ 122.770395625000106, 0.483444965000047 ], [ 122.721954230000051, 0.485113022000064 ], [ 122.692488990000015, 0.47318204100003 ], [ 122.684887953000043, 0.504247902000031 ], [ 122.650205995000078, 0.51495952800002 ], [ 122.636840663000044, 0.534369255000058 ], [ 122.629517082, 0.533531013000072 ], [ 122.639192786000081, 0.56601441600003 ], [ 122.627754383000024, 0.583248472000037 ], [ 122.631249391000097, 0.589185131000022 ], [ 122.611250630000086, 0.607471746000044 ], [ 122.603757998000106, 0.640648056000032 ], [ 122.595174132000011, 0.639019659000041 ], [ 122.60076124200009, 0.649384871000052 ], [ 122.588229711000054, 0.653237728000022 ], [ 122.585351756000023, 0.662549010000021 ], [ 122.579502852000019, 0.655534957000043 ], [ 122.577885345000027, 0.662380816000052 ], [ 122.568968667000036, 0.659818782000059 ], [ 122.566874675, 0.676885688000027 ], [ 122.543475200000103, 0.692945209000072 ], [ 122.543688499000041, 0.700293868000074 ], [ 122.506831051000063, 0.708739803000071 ], [ 122.493227738000087, 0.727624422000019 ], [ 122.501406627000051, 0.735811719000026 ], [ 122.49332141900004, 0.740358783000033 ], [ 122.489683950000085, 0.734709293000037 ], [ 122.485949882000114, 0.742081373000076 ], [ 122.482288894000021, 0.734301513000048 ], [ 122.471823879000112, 0.755364549000035 ], [ 122.450138122000112, 0.75366234400002 ], [ 122.442789044000051, 0.765749362000065 ], [ 122.430877446000068, 0.755072107000046 ], [ 122.410617069000068, 0.764332783000043 ], [ 122.408929754000042, 0.757390990000033 ], [ 122.398894921000078, 0.76035771100004 ], [ 122.38186680900003, 0.780581453000025 ], [ 122.359562527000094, 0.782564796000031 ], [ 122.341251392000117, 0.795032647000028 ], [ 122.317473086000064, 0.796177686000021 ], [ 122.282926560000078, 0.77934491600007 ], [ 122.257291555000052, 0.794132685000022 ], [ 122.25127636700006, 0.790924218000043 ], [ 122.245089977000021, 0.813805517000048 ], [ 122.254572600000074, 0.839155140000059 ], [ 122.264177994000079, 0.84408772300003 ], [ 122.24760285800005, 0.853658772000074 ], [ 122.255400239000096, 0.863090943000032 ], [ 122.248113129000103, 0.913821017000032 ], [ 122.261749267000027, 0.929188252000074 ], [ 122.278699509000035, 0.910328525000068 ], [ 122.323833465, 0.926057458000059 ], [ 122.332977295000092, 0.917410851000056 ], [ 122.35169982900004, 0.921002387000044 ], [ 122.35827636700003, 0.908990026000026 ], [ 122.41752624500009, 0.884931743000038 ], [ 122.456151637000062, 0.888766976000056 ], [ 122.493422759000055, 0.871635980000065 ], [ 122.50697746100002, 0.886702446000072 ], [ 122.535418353000068, 0.870205690000034 ], [ 122.579460144000109, 0.875118196000074 ], [ 122.595867104000035, 0.863028700000029 ], [ 122.599617004000038, 0.843391121000025 ], [ 122.607044143000053, 0.851967248000051 ], [ 122.643502256000033, 0.847591383000065 ], [ 122.678450233000035, 0.824062996000066 ], [ 122.685309670000038, 0.806310117000066 ], [ 122.697322384000017, 0.806139640000026 ], [ 122.715199084000119, 0.786839731000043 ], [ 122.747917175000111, 0.776275575000057 ], [ 122.755882264000093, 0.764499307000051 ], [ 122.780000280000081, 0.770899790000044 ], [ 122.785041942000021, 0.760192090000032 ], [ 122.808639934000098, 0.762754072000064 ], [ 122.82416666600011, 0.745833333000064 ], [ 122.848878779000074, 0.761834146000069 ], [ 122.880536597000059, 0.760262992000037 ], [ 122.880111564000117, 0.750613851000026 ], [ 122.890921372000093, 0.751154230000054 ], [ 122.906940487000043, 0.73120446300004 ], [ 122.905818067000041, 0.702951910000024 ], [ 122.920658790000061, 0.691715245000069 ], [ 122.928528776, 0.696041235000052 ], [ 122.930058992000113, 0.711934527000039 ], [ 122.952677940000058, 0.712212263000026 ], [ 122.976077676000045, 0.726335395000035 ], [ 122.975, 0.746666667000056 ], [ 123.005795228000011, 0.782895909000047 ], [ 123.037698890000115, 0.782519483000044 ], [ 123.070064156000058, 0.802990216000069 ] ] ] } },
{ "type": "Feature", "properties": { "kemendagri_kab_code": 7502, "kemendagri_kab_name": "Kabupaten Boalemo", "kemendagri_prov_code": 75, "kemendagri_prov_name": "Gorontalo" }, "geometry": { "type": "MultiPolygon", "coordinates": [ [ [ [ 122.119283714000062, 0.408423025000047 ], [ 122.117403731000081, 0.405499303000056 ], [ 122.117437951000056, 0.406894235000038 ], [ 122.119283714000062, 0.408423025000047 ] ] ], [ [ [ 122.22626208500003, 0.43415112200006 ], [ 122.231939887000067, 0.430859144000067 ], [ 122.225264638000112, 0.431835483000043 ], [ 122.22626208500003, 0.43415112200006 ] ] ], [ [ [ 122.293147572000066, 0.44939357200002 ], [ 122.291279469000074, 0.450953523000067 ], [ 122.29308970000011, 0.451628288000052 ], [ 122.293147572000066, 0.44939357200002 ] ] ], [ [ [ 122.302040894000015, 0.452627717000041 ], [ 122.301847405000103, 0.456414103000043 ], [ 122.304049590000091, 0.452794695000023 ], [ 122.302040894000015, 0.452627717000041 ] ] ], [ [ [ 122.331877224000095, 0.462337761000072 ], [ 122.331090622000033, 0.454325451000045 ], [ 122.330013092000058, 0.462409686000058 ], [ 122.331877224000095, 0.462337761000072 ] ] ], [ [ [ 122.147650336000083, 0.462502502000063 ], [ 122.147112586000048, 0.461498337000023 ], [ 122.146735269000033, 0.462006361000022 ], [ 122.147650336000083, 0.462502502000063 ] ] ], [ [ [ 122.133657146000019, 0.478392961000054 ], [ 122.132744757000069, 0.479405664000069 ], [ 122.133545210000079, 0.47936844100002 ], [ 122.133657146000019, 0.478392961000054 ] ] ], [ [ [ 122.131257882000114, 0.47978533600002 ], [ 122.126020169000071, 0.477076435000072 ], [ 122.124835163000057, 0.480509080000047 ], [ 122.125434193000046, 0.481883825000068 ], [ 122.131257882000114, 0.47978533600002 ] ] ], [ [ [ 122.326248396000096, 0.484547597000073 ], [ 122.325957315000096, 0.484924742000032 ], [ 122.326371934, 0.484802654000021 ], [ 122.326248396000096, 0.484547597000073 ] ] ], [ [ [ 122.343766238000057, 0.485930969000037 ], [ 122.344130908000011, 0.484827994000057 ], [ 122.343180698000083, 0.485368460000075 ], [ 122.343766238000057, 0.485930969000037 ] ] ], [ [ [ 122.326568841000039, 0.48756538400005 ], [ 122.325907649000101, 0.488345259000027 ], [ 122.326795445000016, 0.488638162000029 ], [ 122.326568841000039, 0.48756538400005 ] ] ], [ [ [ 122.347380571000031, 0.46724123000007 ], [ 122.350497630000064, 0.464124373000061 ], [ 122.34699308200004, 0.464525216000027 ], [ 122.347380571000031, 0.46724123000007 ] ] ], [ [ [ 122.361893810000083, 0.474660069000038 ], [ 122.359853256000065, 0.467767603000027 ], [ 122.355624929000101, 0.467683296000075 ], [ 122.361893810000083, 0.474660069000038 ] ] ], [ [ [ 122.346912475000067, 0.477544057000046 ], [ 122.346255928000119, 0.478065320000042 ], [ 122.346847526000033, 0.478345635000039 ], [ 122.346912475000067, 0.477544057000046 ] ] ], [ [ [ 122.348613319000037, 0.489868700000045 ], [ 122.348012374000064, 0.490438856000026 ], [ 122.348962015000097, 0.491155449000075 ], [ 122.348613319000037, 0.489868700000045 ] ] ], [ [ [ 122.572570528000028, 0.493373719000033 ], [ 122.574924211000052, 0.494831494000039 ], [ 122.576473882000073, 0.493431376000046 ], [ 122.572570528000028, 0.493373719000033 ] ] ], [ [ [ 122.53170311100007, 0.500651728000037 ], [ 122.535374884000021, 0.493393347000051 ], [ 122.52886680000006, 0.488409045000026 ], [ 122.521281072000079, 0.496561435000046 ], [ 122.53170311100007, 0.500651728000037 ] ] ], [ [ [ 122.444897626000056, 0.501873814000021 ], [ 122.4520546010001, 0.49623684300002 ], [ 122.439700469000059, 0.499648163000074 ], [ 122.444897626000056, 0.501873814000021 ] ] ], [ [ [ 122.384907641000041, 0.499909413000069 ], [ 122.386924063000038, 0.49925653300005 ], [ 122.385531189000062, 0.498787100000072 ], [ 122.384907641000041, 0.499909413000069 ] ] ], [ [ [ 122.367199173000017, 0.500436697000055 ], [ 122.367514099000118, 0.499860346000048 ], [ 122.366809972000055, 0.500246560000051 ], [ 122.367199173000017, 0.500436697000055 ] ] ], [ [ [ 122.438784971000018, 0.500290132000032 ], [ 122.438417807000064, 0.50099485100003 ], [ 122.43917761900002, 0.501100204000068 ], [ 122.438784971000018, 0.500290132000032 ] ] ], [ [ [ 122.248113129000103, 0.913821017000032 ], [ 122.255210218000116, 0.862037737000037 ], [ 122.24760285800005, 0.853658772000074 ], [ 122.264177994000079, 0.84408772300003 ], [ 122.254572600000074, 0.839155140000059 ], [ 122.245089977000021, 0.813805517000048 ], [ 122.25149040000008, 0.790732772000069 ], [ 122.257291555000052, 0.794132685000022 ], [ 122.282926560000078, 0.77934491600007 ], [ 122.317473086000064, 0.796177686000021 ], [ 122.341251392000117, 0.795032647000028 ], [ 122.359562527000094, 0.782564796000031 ], [ 122.381486326000072, 0.78079682300006 ], [ 122.407788387000096, 0.757462644000043 ], [ 122.410617069000068, 0.764332783000043 ], [ 122.430877446000068, 0.755072107000046 ], [ 122.442789044000051, 0.765749362000065 ], [ 122.450138122000112, 0.75366234400002 ], [ 122.466188019000015, 0.758260190000044 ], [ 122.481908414000031, 0.734516900000074 ], [ 122.485949882000114, 0.742081373000076 ], [ 122.489683950000085, 0.734709293000037 ], [ 122.49332141900004, 0.740358783000033 ], [ 122.502072484000109, 0.73528518300003 ], [ 122.493227738000087, 0.727624422000019 ], [ 122.506831051000063, 0.708739803000071 ], [ 122.543688499000041, 0.700293868000074 ], [ 122.543475200000103, 0.692945209000072 ], [ 122.566874675, 0.676885688000027 ], [ 122.568968667000036, 0.659818782000059 ], [ 122.594316725000112, 0.656469734000041 ], [ 122.594888099000059, 0.647804551000036 ], [ 122.600903938000101, 0.649049762000061 ], [ 122.595174132000011, 0.639019659000041 ], [ 122.603757998000106, 0.640648056000032 ], [ 122.611250630000086, 0.607471746000044 ], [ 122.631249391000097, 0.589185131000022 ], [ 122.627754383000024, 0.583248472000037 ], [ 122.639192786000081, 0.56601441600003 ], [ 122.6282803040001, 0.538868935000039 ], [ 122.64943443300001, 0.517609056000026 ], [ 122.651252997000029, 0.483274575000053 ], [ 122.643251564000025, 0.476139292000028 ], [ 122.617837927000096, 0.489708523000047 ], [ 122.619504576000054, 0.497745710000061 ], [ 122.609065121000071, 0.487828428000057 ], [ 122.592198192000069, 0.495536369000035 ], [ 122.60529430400004, 0.505284356000061 ], [ 122.601911480000012, 0.510147329000063 ], [ 122.585238974000049, 0.511131294000052 ], [ 122.594938427000102, 0.503349564000075 ], [ 122.578222830000072, 0.493089431000044 ], [ 122.57557366900005, 0.495683391000057 ], [ 122.564592028000106, 0.495582745000036 ], [ 122.560451452000052, 0.50024485800003 ], [ 122.569885512000042, 0.508668034000038 ], [ 122.566413602000011, 0.514048844000058 ], [ 122.552353198000105, 0.51421214800007 ], [ 122.55784402800009, 0.500481338000043 ], [ 122.545693039000071, 0.490293103000056 ], [ 122.544093223000118, 0.508075753000071 ], [ 122.519809954000038, 0.501773317000072 ], [ 122.514695086000074, 0.511318162000066 ], [ 122.516496699000072, 0.497509505000039 ], [ 122.50558714500005, 0.506068987000049 ], [ 122.512364841000021, 0.513331697000069 ], [ 122.492505307000101, 0.501041291000035 ], [ 122.476628301000119, 0.506902247000028 ], [ 122.475720365000029, 0.502557630000069 ], [ 122.462372271000049, 0.501718653000069 ], [ 122.469490779000012, 0.505818469000076 ], [ 122.449767214000076, 0.507841122000059 ], [ 122.446962784000107, 0.516518112000028 ], [ 122.440611503000014, 0.511495226000022 ], [ 122.44731407200004, 0.506437601000073 ], [ 122.436000517000025, 0.499801839000042 ], [ 122.413619999000048, 0.501877892000039 ], [ 122.415743075000023, 0.513103857000033 ], [ 122.406321449000075, 0.509087229000045 ], [ 122.407391008000104, 0.518573834000051 ], [ 122.389335655000082, 0.521321616000023 ], [ 122.388376593000089, 0.513217068000074 ], [ 122.37886177900009, 0.518698383000071 ], [ 122.365982564000092, 0.502097178000042 ], [ 122.354681627000105, 0.509773700000039 ], [ 122.347738403000108, 0.502437450000059 ], [ 122.352794361000065, 0.496631938000064 ], [ 122.35322218400006, 0.495241565000072 ], [ 122.352122916000098, 0.493060935000074 ], [ 122.338064357, 0.492556240000056 ], [ 122.340805993000117, 0.503725576000022 ], [ 122.334399337000036, 0.50131559700003 ], [ 122.332699852000019, 0.50962019800005 ], [ 122.323978234000037, 0.492569872000047 ], [ 122.317907698000113, 0.508442213000023 ], [ 122.316031083000098, 0.490041055000063 ], [ 122.285636017000115, 0.487073708000025 ], [ 122.293440368, 0.481076393000023 ], [ 122.279833203000067, 0.480618875000062 ], [ 122.281388201000027, 0.474998286000073 ], [ 122.27576888100009, 0.479899920000037 ], [ 122.268976735000024, 0.474142209000036 ], [ 122.255892406000044, 0.48583835200003 ], [ 122.233800583000061, 0.479710972000021 ], [ 122.233377551000103, 0.487325960000021 ], [ 122.228417176000107, 0.480046089000041 ], [ 122.219961283000089, 0.484262773000069 ], [ 122.201671191000059, 0.474064436000049 ], [ 122.1904058880001, 0.479709698000022 ], [ 122.148387014000036, 0.462948830000073 ], [ 122.147813241000108, 0.480515333000028 ], [ 122.120949076000102, 0.49469894200007 ], [ 122.12684532500009, 0.66698447400006 ], [ 122.110480252000116, 0.736483147000058 ], [ 122.101347236000038, 0.901812310000025 ], [ 122.181353154000021, 0.911738963000062 ], [ 122.200734014000091, 0.898209019000035 ], [ 122.248113129000103, 0.913821017000032 ] ] ] ] } },
{ "type": "Feature", "properties": { "kemendagri_kab_code": 7503, "kemendagri_kab_name": "Kabupaten Bone Bolango", "kemendagri_prov_code": 75, "kemendagri_prov_name": "Gorontalo" }, "geometry": { "type": "Polygon", "coordinates": [ [ [ 123.248983888000112, 0.747776697000063 ], [ 123.247145019000072, 0.716973867000036 ], [ 123.273648028000025, 0.698161197000047 ], [ 123.322393001000023, 0.698537079000062 ], [ 123.359448307000093, 0.651365206000037 ], [ 123.384233293000079, 0.639687638000055 ], [ 123.428989630000046, 0.641437416000031 ], [ 123.486164994000092, 0.62651194700004 ], [ 123.492193414000099, 0.619130594000069 ], [ 123.487508802000093, 0.601570579000054 ], [ 123.50911218300007, 0.584424617000025 ], [ 123.533166667000046, 0.577436111000054 ], [ 123.526111768000078, 0.541812800000059 ], [ 123.552294555000117, 0.510714060000055 ], [ 123.544740536000063, 0.495838382000045 ], [ 123.522759668000049, 0.490059330000065 ], [ 123.523089385000048, 0.463381096000035 ], [ 123.550205855000058, 0.433809575000055 ], [ 123.497903791000113, 0.382130585000027 ], [ 123.493701145000045, 0.35677598500007 ], [ 123.480342113, 0.353735719000042 ], [ 123.480777723000074, 0.320717775000048 ], [ 123.469138807000036, 0.322928403000049 ], [ 123.459129370000028, 0.337654945000054 ], [ 123.434921787, 0.31671930400006 ], [ 123.415798581000104, 0.311797418000026 ], [ 123.358901224000078, 0.314007829000047 ], [ 123.345236286000045, 0.306281392000074 ], [ 123.267552899000066, 0.322279730000048 ], [ 123.227988591000098, 0.348722150000071 ], [ 123.194628532000024, 0.393657749000056 ], [ 123.156467046000103, 0.403734152000027 ], [ 123.121577142000092, 0.456437699000048 ], [ 123.086695149000093, 0.478131259000065 ], [ 123.09994, 0.50233 ], [ 123.086523856000099, 0.509690694000028 ], [ 123.08896552300007, 0.520466943000031 ], [ 123.079493354000078, 0.528109758000028 ], [ 123.090960179000035, 0.580327675000035 ], [ 123.062008333000108, 0.59013055600002 ], [ 123.0746805980001, 0.609468626000023 ], [ 123.060627535000094, 0.613794516000041 ], [ 123.05597350100004, 0.629462060000037 ], [ 123.060101415000076, 0.659325104000061 ], [ 123.078234553000016, 0.674416112000074 ], [ 123.080701196000064, 0.695501698000044 ], [ 123.070064156000058, 0.802990216000069 ], [ 123.083335813000076, 0.805565427000033 ], [ 123.123486318000118, 0.788483884000073 ], [ 123.133749024000053, 0.765939651000053 ], [ 123.1594933, 0.773987371000032 ], [ 123.167064493000112, 0.751925959000062 ], [ 123.215177015000108, 0.762044684000045 ], [ 123.248983888000112, 0.747776697000063 ] ] ] } },
{ "type": "Feature", "properties": { "kemendagri_kab_code": 7504, "kemendagri_kab_name": "Kabupaten Pohuwato", "kemendagri_prov_code": 75, "kemendagri_prov_name": "Gorontalo" }, "geometry": { "type": "MultiPolygon", "coordinates": [ [ [ [ 121.353881061000038, 0.353119811000056 ], [ 121.353980529000069, 0.353896959000053 ], [ 121.3543807100001, 0.35401252600002 ], [ 121.353881061000038, 0.353119811000056 ] ] ], [ [ [ 121.424563332000048, 0.41169424800006 ], [ 121.419288387000051, 0.413895463000074 ], [ 121.425708929000052, 0.414092530000062 ], [ 121.424563332000048, 0.41169424800006 ] ] ], [ [ [ 121.445461422000108, 0.415843920000043 ], [ 121.442540817, 0.418465044000072 ], [ 121.447413656000094, 0.418434399000034 ], [ 121.445461422000108, 0.415843920000043 ] ] ], [ [ [ 121.5027017540001, 0.434590128000025 ], [ 121.50016593600003, 0.437275926000041 ], [ 121.503543942000078, 0.435778316000039 ], [ 121.5027017540001, 0.434590128000025 ] ] ], [ [ [ 121.519358822000072, 0.435582588000045 ], [ 121.518267393000087, 0.439298614000052 ], [ 121.521220827000093, 0.438013026000021 ], [ 121.519358822000072, 0.435582588000045 ] ] ], [ [ [ 121.436312627, 0.473398563000046 ], [ 121.438278580000087, 0.470665347000022 ], [ 121.435252074000118, 0.470517547000043 ], [ 121.436312627, 0.473398563000046 ] ] ], [ [ [ 121.412557819000085, 0.484360478000042 ], [ 121.412959288000025, 0.483540670000025 ], [ 121.412375502000032, 0.484181458000023 ], [ 121.412557819000085, 0.484360478000042 ] ] ], [ [ [ 121.510896549000108, 0.486235013000055 ], [ 121.511676274000024, 0.483466149000037 ], [ 121.509848724000108, 0.484269288000064 ], [ 121.510896549000108, 0.486235013000055 ] ] ], [ [ [ 121.514298795000059, 0.486590917000058 ], [ 121.524301931000082, 0.487787407000042 ], [ 121.524173903000019, 0.480455321000022 ], [ 121.514298795000059, 0.486590917000058 ] ] ], [ [ [ 121.520546307000018, 0.519795767000062 ], [ 121.523040084000058, 0.520467893000045 ], [ 121.523512956000104, 0.518909982000025 ], [ 121.520546307000018, 0.519795767000062 ] ] ], [ [ [ 121.547687759000041, 0.528225414000076 ], [ 121.547195307000038, 0.527025932000072 ], [ 121.546875502000034, 0.527735560000053 ], [ 121.547687759000041, 0.528225414000076 ] ] ], [ [ [ 121.532612770000014, 0.532543260000068 ], [ 121.532712734000029, 0.531911168000022 ], [ 121.532356356000037, 0.532342243000073 ], [ 121.532612770000014, 0.532543260000068 ] ] ], [ [ [ 121.521487841000067, 0.535093592000067 ], [ 121.524999692000051, 0.53136283300006 ], [ 121.523585930000081, 0.531480774000045 ], [ 121.521487841000067, 0.535093592000067 ] ] ], [ [ [ 121.523816743000111, 0.537981725000066 ], [ 121.525056415000108, 0.536800472000039 ], [ 121.523272476000102, 0.536890346000064 ], [ 121.523816743000111, 0.537981725000066 ] ] ], [ [ [ 121.536337838, 0.538846253000031 ], [ 121.537547124000071, 0.537962606000065 ], [ 121.535750582000105, 0.537887131000048 ], [ 121.536337838, 0.538846253000031 ] ] ], [ [ [ 121.524061318, 0.540145205000044 ], [ 121.525601123000115, 0.541285162000065 ], [ 121.527517814000021, 0.540792146000058 ], [ 121.524061318, 0.540145205000044 ] ] ], [ [ [ 121.526027581000108, 0.543631835000042 ], [ 121.527901138000061, 0.543893024000056 ], [ 121.528086973000086, 0.543418669000062 ], [ 121.526027581000108, 0.543631835000042 ] ] ], [ [ [ 121.524532792000059, 0.544431461000045 ], [ 121.525452812000026, 0.54333280700007 ], [ 121.524794611000061, 0.543199106000031 ], [ 121.524532792000059, 0.544431461000045 ] ] ], [ [ [ 121.524920447000113, 0.545254451000062 ], [ 121.525816348000035, 0.544660716000067 ], [ 121.524973699000043, 0.544501528000069 ], [ 121.524920447000113, 0.545254451000062 ] ] ], [ [ [ 121.66887892200009, 0.456791126000041 ], [ 121.665628816000094, 0.457981390000043 ], [ 121.666365738000081, 0.458869062000076 ], [ 121.66887892200009, 0.456791126000041 ] ] ], [ [ [ 121.559866630000101, 0.461912717000075 ], [ 121.556395350000116, 0.46249930700003 ], [ 121.55713783300007, 0.46359123000002 ], [ 121.559866630000101, 0.461912717000075 ] ] ], [ [ [ 121.558507235000093, 0.484961498000075 ], [ 121.564254451000011, 0.483616579000056 ], [ 121.560185276000084, 0.473659501000043 ], [ 121.558507235000093, 0.484961498000075 ] ] ], [ [ [ 121.633358159000068, 0.485187556000028 ], [ 121.637886638000055, 0.483152036000035 ], [ 121.634277709000116, 0.48210629700003 ], [ 121.633358159000068, 0.485187556000028 ] ] ], [ [ [ 121.636334077000015, 0.48849485900007 ], [ 121.635080413000082, 0.491475716000025 ], [ 121.638317911000058, 0.489434252000024 ], [ 121.636334077000015, 0.48849485900007 ] ] ], [ [ [ 121.579238586000088, 0.500400241000023 ], [ 121.58492922500011, 0.498693243000048 ], [ 121.57936329100005, 0.497252304000028 ], [ 121.579238586000088, 0.500400241000023 ] ] ], [ [ [ 121.656961803000058, 0.503414142000054 ], [ 121.654706866000083, 0.500685764000025 ], [ 121.654728292000073, 0.501358701000072 ], [ 121.656961803000058, 0.503414142000054 ] ] ], [ [ [ 121.632297047000066, 0.508466784000063 ], [ 121.628226836000067, 0.504412443000035 ], [ 121.627563348000081, 0.508173448000036 ], [ 121.632297047000066, 0.508466784000063 ] ] ], [ [ [ 121.642447445000016, 0.50835461500003 ], [ 121.638528726000118, 0.508431931000075 ], [ 121.638815873000112, 0.51014397900002 ], [ 121.642447445000016, 0.50835461500003 ] ] ], [ [ [ 121.646444640000027, 0.511122434000072 ], [ 121.645754307000061, 0.505747528000029 ], [ 121.643495024000117, 0.510173918000021 ], [ 121.646444640000027, 0.511122434000072 ] ] ], [ [ [ 121.573940298000025, 0.508680414000025 ], [ 121.575220347000027, 0.507728061000023 ], [ 121.573128060000045, 0.508040481000023 ], [ 121.573940298000025, 0.508680414000025 ] ] ], [ [ [ 121.658731791000037, 0.508569328000021 ], [ 121.662197297000034, 0.51052373400006 ], [ 121.662134666000043, 0.50751070900003 ], [ 121.658731791000037, 0.508569328000021 ] ] ], [ [ [ 121.617459897000117, 0.512767036000071 ], [ 121.621455879000109, 0.514109771000051 ], [ 121.621501761000104, 0.512273143000073 ], [ 121.617459897000117, 0.512767036000071 ] ] ], [ [ [ 121.662666018000095, 0.513939231000052 ], [ 121.660952028000111, 0.516048845000057 ], [ 121.663265248000016, 0.515024736000044 ], [ 121.662666018000095, 0.513939231000052 ] ] ], [ [ [ 121.551864659000103, 0.515550970000049 ], [ 121.555569300000116, 0.514098073000071 ], [ 121.551384922000011, 0.513989011000035 ], [ 121.551864659000103, 0.515550970000049 ] ] ], [ [ [ 121.646853514000099, 0.525498707000054 ], [ 121.644205893000048, 0.524014789000034 ], [ 121.645220255000027, 0.526511364000044 ], [ 121.646853514000099, 0.525498707000054 ] ] ], [ [ [ 121.653489418000049, 0.536646870000027 ], [ 121.652741669000079, 0.537682876000019 ], [ 121.653319553000074, 0.537722077000069 ], [ 121.653489418000049, 0.536646870000027 ] ] ], [ [ [ 121.640840618000084, 0.540232140000057 ], [ 121.639991379000094, 0.53868348900005 ], [ 121.639384496000048, 0.539778851000051 ], [ 121.640840618000084, 0.540232140000057 ] ] ], [ [ [ 121.85368720800011, 0.993176666000068 ], [ 121.888067918000047, 0.977896479000037 ], [ 121.922625281000023, 0.927382167000076 ], [ 121.939360656000076, 0.927286748000029 ], [ 121.954765782000095, 0.907279463000066 ], [ 121.983154587000058, 0.906564217000039 ], [ 121.997963139000035, 0.89115451400005 ], [ 122.032730480000055, 0.885724400000072 ], [ 122.083929261000094, 0.908688915000027 ], [ 122.101347236000038, 0.901812310000025 ], [ 122.110480252000116, 0.736483147000058 ], [ 122.12684532500009, 0.66698447400006 ], [ 122.127440489000037, 0.541362522000043 ], [ 122.120949076000102, 0.49469894200007 ], [ 122.112425976000054, 0.49787350400004 ], [ 122.11306857000011, 0.486149841000042 ], [ 122.048949158000028, 0.477219829000035 ], [ 121.98709538300011, 0.460992546000057 ], [ 121.979800250000039, 0.452445400000045 ], [ 121.972795875000088, 0.459719496000048 ], [ 121.936838094000109, 0.443635267000047 ], [ 121.91983446100005, 0.448071961000039 ], [ 121.878364789000102, 0.436137186000053 ], [ 121.868709945000091, 0.441611770000065 ], [ 121.8529099000001, 0.428063802000054 ], [ 121.814456878000101, 0.421199795000064 ], [ 121.803767374000017, 0.409909586000026 ], [ 121.791487704000019, 0.430433214000061 ], [ 121.75811709200002, 0.456539229000043 ], [ 121.733188456000107, 0.503032964000056 ], [ 121.71889546500006, 0.50610804300004 ], [ 121.714325410000015, 0.513422740000067 ], [ 121.722062006000101, 0.52079068300003 ], [ 121.718495159000099, 0.523811617000035 ], [ 121.68506956300007, 0.513312552000059 ], [ 121.666747370000053, 0.523119129000065 ], [ 121.661954035, 0.537633550000066 ], [ 121.654812943000024, 0.541287515000022 ], [ 121.649239866000016, 0.533486054000036 ], [ 121.636923382000077, 0.54496361200006 ], [ 121.628030712000054, 0.539009447000069 ], [ 121.64233858700004, 0.525323990000061 ], [ 121.62365761, 0.535560564000036 ], [ 121.621353490000047, 0.522259720000022 ], [ 121.619261827000059, 0.54782201300003 ], [ 121.607875712, 0.538218273000041 ], [ 121.608192805000044, 0.549376719000065 ], [ 121.602233987000091, 0.548596570000029 ], [ 121.607402240000056, 0.533960474000025 ], [ 121.601922394000098, 0.527106792000041 ], [ 121.597303112000077, 0.539307542000074 ], [ 121.591795334000039, 0.531042684000056 ], [ 121.581175332000043, 0.537692483000058 ], [ 121.568067966000058, 0.531735832000038 ], [ 121.533698711000056, 0.546477088000074 ], [ 121.533884759000102, 0.55546535600007 ], [ 121.523746383000116, 0.549358900000072 ], [ 121.520129795000116, 0.542084283000065 ], [ 121.521644319000075, 0.532756038000059 ], [ 121.512375777000102, 0.528817433000029 ], [ 121.519018231000018, 0.496318897000037 ], [ 121.493941388000053, 0.478812210000058 ], [ 121.476316625000095, 0.483831438000038 ], [ 121.442491316000087, 0.466124916000069 ], [ 121.433209641000076, 0.480124631000024 ], [ 121.439172363000012, 0.500924904000044 ], [ 121.424876809000011, 0.482535146000032 ], [ 121.4105275390001, 0.485401284000034 ], [ 121.409135038000045, 0.472078483000075 ], [ 121.408793353000078, 0.487566935000075 ], [ 121.395324931000118, 0.47717902100004 ], [ 121.389369916000078, 0.481865399000071 ], [ 121.360743502000105, 0.470901613000024 ], [ 121.337354169000037, 0.473181095000029 ], [ 121.351632926000093, 0.492597208000063 ], [ 121.333257637000088, 0.511026551000043 ], [ 121.331179366000015, 0.53203519300007 ], [ 121.321203154000045, 0.53266829100005 ], [ 121.318208551000112, 0.542591705000063 ], [ 121.329627928000036, 0.575168331000043 ], [ 121.316109204000099, 0.577731798000059 ], [ 121.302584411000112, 0.569180065000069 ], [ 121.295850471000108, 0.580226690000075 ], [ 121.242150100000117, 0.600396115000024 ], [ 121.226862892000099, 0.628747528000019 ], [ 121.228718309000101, 0.645565230000045 ], [ 121.218702484000119, 0.638520795000034 ], [ 121.197639471000116, 0.641311018000067 ], [ 121.161691097000016, 0.676988036000068 ], [ 121.174505027, 0.686918563000063 ], [ 121.187606001000063, 0.721699332000071 ], [ 121.181982753000057, 0.745105660000036 ], [ 121.192035846000067, 0.767493030000026 ], [ 121.207914840000058, 0.76669931400005 ], [ 121.218312378000064, 0.791157651000049 ], [ 121.237117854000076, 0.801534256000025 ], [ 121.288943237000012, 0.799017670000069 ], [ 121.317011751000109, 0.785051832000022 ], [ 121.364769982000098, 0.802910438000026 ], [ 121.349945323000043, 0.821511647000023 ], [ 121.348849628000039, 0.852326250000033 ], [ 121.385492477000071, 0.854896240000073 ], [ 121.402307224000083, 0.843469334000019 ], [ 121.416756483000086, 0.849818324000069 ], [ 121.425667355000087, 0.843394991000025 ], [ 121.467128402000071, 0.848291263000021 ], [ 121.481060834000118, 0.837565867000023 ], [ 121.531492765000053, 0.852075772000035 ], [ 121.542026524000107, 0.879390336000029 ], [ 121.573837938000111, 0.870511828000076 ], [ 121.603453732000048, 0.872660965000023 ], [ 121.61193594000008, 0.883522582000069 ], [ 121.62188186000003, 0.881211447000055 ], [ 121.64515262000009, 0.895295082000075 ], [ 121.657767264000086, 0.89192691300002 ], [ 121.674137115, 0.903594100000021 ], [ 121.691442657000039, 0.902516818000038 ], [ 121.738554367, 0.930514686000038 ], [ 121.813756320000039, 0.950850488000071 ], [ 121.848994398000059, 0.979600373000039 ], [ 121.85368720800011, 0.993176666000068 ] ] ], [ [ [ 121.954265308000117, 0.416293516000053 ], [ 121.95280083800003, 0.417240324000034 ], [ 121.954618372000027, 0.417065287000071 ], [ 121.954265308000117, 0.416293516000053 ] ] ], [ [ [ 121.717980976000035, 0.431277459000057 ], [ 121.717348102000074, 0.430510198000036 ], [ 121.71658560700007, 0.430546258000049 ], [ 121.717980976000035, 0.431277459000057 ] ] ], [ [ [ 121.966380905000051, 0.445515451000063 ], [ 121.971631228000092, 0.443684091000023 ], [ 121.965573497000037, 0.44353445500002 ], [ 121.966380905000051, 0.445515451000063 ] ] ], [ [ [ 121.980833248000067, 0.44829024400002 ], [ 121.983534920000011, 0.444095372000049 ], [ 121.982425922000061, 0.443939123000064 ], [ 121.980833248000067, 0.44829024400002 ] ] ], [ [ [ 122.101553366000076, 0.47407070600002 ], [ 122.112867609000091, 0.475617947000046 ], [ 122.113020735000077, 0.472753709000074 ], [ 122.101553366000076, 0.47407070600002 ] ] ], [ [ [ 121.700769960000116, 0.479044806000047 ], [ 121.701179369000101, 0.479509669000038 ], [ 121.701444218, 0.47914544300005 ], [ 121.700769960000116, 0.479044806000047 ] ] ], [ [ [ 122.114576883000041, 0.482912289000069 ], [ 122.11466461200007, 0.482012201000032 ], [ 122.114369195000108, 0.482039301000043 ], [ 122.114576883000041, 0.482912289000069 ] ] ], [ [ [ 122.111714925000115, 0.482387622000033 ], [ 122.111484718000042, 0.483138926000038 ], [ 122.11198988700005, 0.482454934000032 ], [ 122.111714925000115, 0.482387622000033 ] ] ], [ [ [ 122.11115721200008, 0.483412140000041 ], [ 122.111482704000082, 0.484086922000074 ], [ 122.111335774000054, 0.483315210000058 ], [ 122.11115721200008, 0.483412140000041 ] ] ], [ [ [ 121.715687722000098, 0.486441199000069 ], [ 121.715108875000055, 0.487631413000031 ], [ 121.716127741000037, 0.48768859200004 ], [ 121.715687722000098, 0.486441199000069 ] ] ], [ [ [ 122.119570437000107, 0.490305043000035 ], [ 122.118300670000053, 0.485465142000066 ], [ 122.116543801000034, 0.486291510000058 ], [ 122.119570437000107, 0.490305043000035 ] ] ], [ [ [ 121.670202381000081, 0.490163585000062 ], [ 121.667976847000091, 0.492138453000052 ], [ 121.66755631400008, 0.493663781000066 ], [ 121.670202381000081, 0.490163585000062 ] ] ], [ [ [ 122.349541483000053, 0.49243185000006 ], [ 122.349618960000043, 0.492868714000053 ], [ 122.349671848000071, 0.492897046000053 ], [ 122.349541483000053, 0.49243185000006 ] ] ], [ [ [ 121.695837057000062, 0.512430855000048 ], [ 121.707275643000116, 0.498498118000043 ], [ 121.706919650000032, 0.484520321000048 ], [ 121.690010401000109, 0.486758383000051 ], [ 121.680851253000014, 0.496709586000065 ], [ 121.684189004000018, 0.510060862000046 ], [ 121.695837057000062, 0.512430855000048 ] ] ], [ [ [ 121.7310605670001, 0.500847349000026 ], [ 121.73105535000002, 0.501667826000073 ], [ 121.731822997000108, 0.501776517000053 ], [ 121.7310605670001, 0.500847349000026 ] ] ], [ [ [ 121.669764662000034, 0.504681807000054 ], [ 121.668602094000107, 0.506221235000055 ], [ 121.670287592000022, 0.505102066000063 ], [ 121.669764662000034, 0.504681807000054 ] ] ], [ [ [ 121.713946562000046, 0.510053894000066 ], [ 121.714005370000109, 0.510721066000031 ], [ 121.714321707000067, 0.510357882000051 ], [ 121.713946562000046, 0.510053894000066 ] ] ], [ [ [ 121.681453660000102, 0.508479975000057 ], [ 121.673909703000049, 0.513990723000063 ], [ 121.679510225000058, 0.514851517000068 ], [ 121.681453660000102, 0.508479975000057 ] ] ], [ [ [ 121.719386278000115, 0.520343881000031 ], [ 121.719422565000059, 0.518618820000029 ], [ 121.719228508000015, 0.518542079000042 ], [ 121.719386278000115, 0.520343881000031 ] ] ] ] } },
{ "type": "Feature", "properties": { "kemendagri_kab_code": 7505, "kemendagri_kab_name": "Kabupaten Gorontalo Utara", "kemendagri_prov_code": 75, "kemendagri_prov_name": "Gorontalo" }, "geometry": { "type": "MultiPolygon", "coordinates": [ [ [ [ 122.334908257000052, 1.040486588000022 ], [ 122.369781734000071, 0.992905529000041 ], [ 122.389658122000014, 1.003115119000029 ], [ 122.393419831000074, 1.013992931000075 ], [ 122.407417598000052, 1.006007526000076 ], [ 122.411855643000081, 0.99319072000003 ], [ 122.435337045000097, 0.994043377000025 ], [ 122.444945070000017, 1.000455865000049 ], [ 122.440002152000034, 1.021815792000041 ], [ 122.452318483000113, 1.031609502000038 ], [ 122.488969439000016, 0.989596290000065 ], [ 122.538515569000083, 0.969774931000075 ], [ 122.551773464, 0.97161032200006 ], [ 122.561669358000017, 0.95965048100004 ], [ 122.611506807000069, 0.94399308800007 ], [ 122.624408951000078, 0.963863290000063 ], [ 122.621975528, 0.954819460000067 ], [ 122.638591580000025, 0.94220333100003 ], [ 122.649617169000066, 0.948753171000021 ], [ 122.658129378000012, 0.933797022000022 ], [ 122.664101979000066, 0.935029285000041 ], [ 122.687872534, 0.893970490000072 ], [ 122.72236362600006, 0.886707071000046 ], [ 122.715646654000011, 0.881489723000072 ], [ 122.712909628000034, 0.867080800000053 ], [ 122.726605095000082, 0.87454565400003 ], [ 122.732237871000052, 0.86967455000007 ], [ 122.739569687000085, 0.880586169000026 ], [ 122.766397507000079, 0.861623405000046 ], [ 122.771979582000085, 0.879131486000063 ], [ 122.803772413000047, 0.847239184000045 ], [ 122.788366697000015, 0.851480686000059 ], [ 122.785269096000093, 0.849225584000067 ], [ 122.795627103000015, 0.833550729000024 ], [ 122.809537401000057, 0.833810092000022 ], [ 122.810108133000085, 0.842364589000056 ], [ 122.817603930000018, 0.830515940000055 ], [ 122.823546628000031, 0.839643577000061 ], [ 122.823596634000069, 0.825496749000024 ], [ 122.832245887000113, 0.818573551000043 ], [ 122.838073198000075, 0.82447834200002 ], [ 122.849049107000042, 0.80054913500004 ], [ 122.858996041000069, 0.808309743000052 ], [ 122.860865785000101, 0.827836916000024 ], [ 122.870778642000118, 0.825566751000054 ], [ 122.89769286100011, 0.845039191000069 ], [ 122.897440729000095, 0.853724451000062 ], [ 122.905966228000011, 0.852593591000073 ], [ 122.921910020000041, 0.861153638000076 ], [ 122.93084667700009, 0.884879141000056 ], [ 122.950873135000052, 0.894038799000043 ], [ 122.950370475000113, 0.922855023000068 ], [ 122.956712023000023, 0.919868444000031 ], [ 122.976553548000084, 0.93788369400005 ], [ 122.946381504000101, 0.937523629000054 ], [ 122.939229221000119, 0.95835743300006 ], [ 122.986078891000034, 0.967955372000063 ], [ 123.002718499000025, 0.956274198000074 ], [ 122.99737592200006, 0.94388757300004 ], [ 123.012251620000029, 0.944036721000032 ], [ 123.026556316000097, 0.932524255000033 ], [ 123.046947871000043, 0.939425361000076 ], [ 123.05883106400006, 0.918715776000056 ], [ 123.064772711000046, 0.924309207000022 ], [ 123.066909735000081, 0.916465210000069 ], [ 123.075662382000019, 0.918186964000029 ], [ 123.076262621000069, 0.917834655000036 ], [ 123.076373266000019, 0.917024449000053 ], [ 123.07657671000004, 0.916881681000064 ], [ 123.077351225000029, 0.916767467000057 ], [ 123.07765103700001, 0.917317122000043 ], [ 123.078775332000077, 0.916931650000038 ], [ 123.078960930000108, 0.91713866300006 ], [ 123.078343460000042, 0.917977423000025 ], [ 123.079963873000111, 0.91885187500003 ], [ 123.08721902000002, 0.906534153000052 ], [ 123.098418421000019, 0.916758127000037 ], [ 123.094665642000109, 0.930318652000039 ], [ 123.119115253000018, 0.926302018000058 ], [ 123.112272399000062, 0.915397511000037 ], [ 123.121653266000067, 0.888695295000048 ], [ 123.226707268000041, 0.844282699000075 ], [ 123.271087852000051, 0.80259737800003 ], [ 123.274129114000061, 0.786703506000038 ], [ 123.268555740000011, 0.768115929000032 ], [ 123.248983888000112, 0.747776697000063 ], [ 123.215177015000108, 0.762044684000045 ], [ 123.167064493000112, 0.751925959000062 ], [ 123.1594933, 0.773987371000032 ], [ 123.133749024000053, 0.765939651000053 ], [ 123.124059492000015, 0.788105518000066 ], [ 123.073470961000112, 0.806136077000076 ], [ 123.037698890000115, 0.782519483000044 ], [ 123.005795228000011, 0.782895909000047 ], [ 122.975, 0.746666667000056 ], [ 122.976077676000045, 0.726335395000035 ], [ 122.952677940000058, 0.712212263000026 ], [ 122.930058992000113, 0.711934527000039 ], [ 122.928528776, 0.696041235000052 ], [ 122.920658790000061, 0.691715245000069 ], [ 122.905818067000041, 0.702951910000024 ], [ 122.906940487000043, 0.73120446300004 ], [ 122.890921372000093, 0.751154230000054 ], [ 122.880111564000117, 0.750613851000026 ], [ 122.880536597000059, 0.760262992000037 ], [ 122.848878779000074, 0.761834146000069 ], [ 122.82416666600011, 0.745833333000064 ], [ 122.808639934000098, 0.762754072000064 ], [ 122.785041942000021, 0.760192090000032 ], [ 122.780000280000081, 0.770899790000044 ], [ 122.755882264000093, 0.764499307000051 ], [ 122.747917175000111, 0.776275575000057 ], [ 122.715199084000119, 0.786839731000043 ], [ 122.697322384000017, 0.806139640000026 ], [ 122.685309670000038, 0.806310117000066 ], [ 122.678450233000035, 0.824062996000066 ], [ 122.643502256000033, 0.847591383000065 ], [ 122.607044143000053, 0.851967248000051 ], [ 122.599617004000038, 0.843391121000025 ], [ 122.595867104000035, 0.863028700000029 ], [ 122.579460144000109, 0.875118196000074 ], [ 122.535418353000068, 0.870205690000034 ], [ 122.50697746100002, 0.886702446000072 ], [ 122.493422759000055, 0.871635980000065 ], [ 122.456151637000062, 0.888766976000056 ], [ 122.41752624500009, 0.884931743000038 ], [ 122.35827636700003, 0.908990026000026 ], [ 122.35169982900004, 0.921002387000044 ], [ 122.332977295000092, 0.917410851000056 ], [ 122.323833465, 0.926057458000059 ], [ 122.278699509000035, 0.910328525000068 ], [ 122.261749267000027, 0.929188252000074 ], [ 122.248113129000103, 0.913821017000032 ], [ 122.200734014000091, 0.898209019000035 ], [ 122.181867127000032, 0.9117 ], [ 122.110046085000022, 0.89852606900007 ], [ 122.083929261000094, 0.908688915000027 ], [ 122.032730480000055, 0.885724400000072 ], [ 121.997963139000035, 0.89115451400005 ], [ 121.982025533000069, 0.907028556000057 ], [ 122.015492631000029, 0.909067416000028 ], [ 122.017619547000095, 0.921915840000054 ], [ 122.034698683000101, 0.930498578000027 ], [ 122.039452666000102, 0.961639103000039 ], [ 122.030367328000011, 0.952633926000033 ], [ 122.017792011000097, 0.95605477700002 ], [ 122.041829195000105, 0.988479961000053 ], [ 122.069381133000093, 1.004786605000049 ], [ 122.088921986000059, 0.998303284000031 ], [ 122.108693111000093, 1.012380657000051 ], [ 122.142198957000119, 1.018361274000029 ], [ 122.158602927000061, 1.031454496000038 ], [ 122.171003321000057, 1.028996283000026 ], [ 122.189407010000082, 1.03966968900005 ], [ 122.210204858000111, 1.020009590000029 ], [ 122.222563022000031, 1.025035940000066 ], [ 122.228466493000042, 1.013277900000048 ], [ 122.220739570000092, 0.995774899000025 ], [ 122.238698424000063, 0.993183665000061 ], [ 122.242360702000042, 1.010325267000042 ], [ 122.252326506000031, 1.00179840200002 ], [ 122.268507710000108, 1.013010113000064 ], [ 122.277770416000067, 1.004809408000028 ], [ 122.314706794000017, 1.005554897000025 ], [ 122.319102050000083, 1.019930325000075 ], [ 122.330749358000048, 1.021829478000029 ], [ 122.328423249000025, 1.034500219000051 ], [ 122.334908257000052, 1.040486588000022 ] ] ], [ [ [ 122.72056241700011, 0.88288393800002 ], [ 122.718436817000111, 0.881931225000073 ], [ 122.719127, 0.883373688000063 ], [ 122.72056241700011, 0.88288393800002 ] ] ], [ [ [ 122.735308214000042, 0.886799341000028 ], [ 122.735164181000073, 0.887011088000065 ], [ 122.735269710000011, 0.887010375000045 ], [ 122.735308214000042, 0.886799341000028 ] ] ], [ [ [ 122.709859887000107, 0.892662439000048 ], [ 122.709745801000054, 0.89279314700002 ], [ 122.709844438000118, 0.892788394000036 ], [ 122.709859887000107, 0.892662439000048 ] ] ], [ [ [ 122.737211168000044, 0.923830283000029 ], [ 122.737437692000071, 0.923756995000076 ], [ 122.737395814000024, 0.923677997000027 ], [ 122.737211168000044, 0.923830283000029 ] ] ], [ [ [ 122.608017331000042, 0.949079191000067 ], [ 122.607992612000089, 0.948849149000068 ], [ 122.607855709000091, 0.949006946000054 ], [ 122.608017331000042, 0.949079191000067 ] ] ], [ [ [ 122.617269924000084, 0.961633296000059 ], [ 122.617288938000115, 0.961436050000032 ], [ 122.617153461000044, 0.961642802000028 ], [ 122.617269924000084, 0.961633296000059 ] ] ], [ [ [ 122.551942378000035, 0.971587582000041 ], [ 122.551958421000109, 0.971625012000061 ], [ 122.551972682000041, 0.971591741000054 ], [ 122.551942378000035, 0.971587582000041 ] ] ], [ [ [ 122.531081995000022, 0.987045659000046 ], [ 122.531096256000069, 0.987276174000044 ], [ 122.531221038000012, 0.987150222000025 ], [ 122.531081995000022, 0.987045659000046 ] ] ], [ [ [ 122.522556523000048, 0.993351351000058 ], [ 122.526172018000011, 0.987717202000056 ], [ 122.530581562000066, 0.986688827000023 ], [ 122.522199469000043, 0.987113512000064 ], [ 122.522556523000048, 0.993351351000058 ] ] ], [ [ [ 122.518193895000081, 0.991849279000064 ], [ 122.51873600600004, 0.992070105000039 ], [ 122.51880720500003, 0.991954314000054 ], [ 122.518193895000081, 0.991849279000064 ] ] ], [ [ [ 122.661991071000102, 1.003202831000067 ], [ 122.66461958900004, 0.986570759000074 ], [ 122.653334776000065, 0.994407803000058 ], [ 122.661991071000102, 1.003202831000067 ] ] ], [ [ [ 122.637998899000081, 0.995876734000035 ], [ 122.636500464000051, 0.996254014000044 ], [ 122.636774711000044, 0.996834651000029 ], [ 122.637998899000081, 0.995876734000035 ] ] ], [ [ [ 122.506523747000074, 1.00417849400003 ], [ 122.506264083000019, 1.003621706000047 ], [ 122.506202949000112, 1.00373243100006 ], [ 122.506523747000074, 1.00417849400003 ] ] ], [ [ [ 122.436346644000082, 1.007532862000062 ], [ 122.440261953000118, 1.003570649000039 ], [ 122.436858162000021, 1.00342930100004 ], [ 122.436346644000082, 1.007532862000062 ] ] ], [ [ [ 122.392721566000091, 1.014953947000038 ], [ 122.392572944000108, 1.01573791200002 ], [ 122.392949179000084, 1.015672123000058 ], [ 122.392721566000091, 1.014953947000038 ] ] ], [ [ [ 122.438993314000072, 1.020349225000075 ], [ 122.43870524600004, 1.01995854200004 ], [ 122.438365840000074, 1.02009399800005 ], [ 122.438993314000072, 1.020349225000075 ] ] ], [ [ [ 122.287460962000068, 1.030429984000023 ], [ 122.287692699000104, 1.029595863000054 ], [ 122.286954704000095, 1.030241060000037 ], [ 122.287460962000068, 1.030429984000023 ] ] ], [ [ [ 122.205486908000012, 1.053737879000039 ], [ 122.204285723000112, 1.055059322000034 ], [ 122.204771998000069, 1.055647735000036 ], [ 122.205486908000012, 1.053737879000039 ] ] ], [ [ [ 122.816285895000078, 0.848028698000064 ], [ 122.817184839000106, 0.847013574000073 ], [ 122.816014657000096, 0.846747529000027 ], [ 122.816285895000078, 0.848028698000064 ] ] ], [ [ [ 122.815921118, 0.848696593000057 ], [ 122.815860712000017, 0.84899738200005 ], [ 122.816016844000046, 0.848816972000066 ], [ 122.815921118, 0.848696593000057 ] ] ], [ [ [ 122.805022696000037, 0.864402412000061 ], [ 122.808269284000062, 0.862034237000046 ], [ 122.809449879000113, 0.860845941000036 ], [ 122.805022696000037, 0.864402412000061 ] ] ], [ [ [ 122.802982927000016, 0.866660497000055 ], [ 122.799573157000054, 0.867720544000065 ], [ 122.799567498000101, 0.868512177000071 ], [ 122.802982927000016, 0.866660497000055 ] ] ], [ [ [ 122.808766813000034, 0.873442563000026 ], [ 122.808674712000084, 0.87313064500006 ], [ 122.80828254100004, 0.873448504000066 ], [ 122.808766813000034, 0.873442563000026 ] ] ], [ [ [ 122.807771104000039, 0.87396164300003 ], [ 122.807414357000084, 0.874787185000059 ], [ 122.808110913000064, 0.874671298000067 ], [ 122.807771104000039, 0.87396164300003 ] ] ], [ [ [ 122.800080878000017, 0.874173466000059 ], [ 122.798760278000032, 0.874587492000046 ], [ 122.799574053000015, 0.875551174000066 ], [ 122.800080878000017, 0.874173466000059 ] ] ], [ [ [ 122.852280205000056, 0.896846854000046 ], [ 122.891069391000087, 0.890108465000026 ], [ 122.887463772000046, 0.872970862000045 ], [ 122.898123995000105, 0.867873100000054 ], [ 122.895329121000032, 0.854254816000036 ], [ 122.878923931000031, 0.864782055000035 ], [ 122.882100206000018, 0.887576362000061 ], [ 122.852280205000056, 0.896846854000046 ] ] ], [ [ [ 122.739940221000097, 0.884375027000033 ], [ 122.741213843000082, 0.882863900000075 ], [ 122.738768468000103, 0.885245460000021 ], [ 122.739940221000097, 0.884375027000033 ] ] ], [ [ [ 122.818424197000013, 0.890479236000033 ], [ 122.817448430000013, 0.889938053000037 ], [ 122.817133980000108, 0.890913729000033 ], [ 122.818424197000013, 0.890479236000033 ] ] ], [ [ [ 122.815658024000072, 0.891823745000067 ], [ 122.815187218, 0.892181205000043 ], [ 122.815767165000011, 0.891979534000029 ], [ 122.815658024000072, 0.891823745000067 ] ] ], [ [ [ 122.771357868000109, 0.91360773200006 ], [ 122.776852065000071, 0.898055323000051 ], [ 122.78812073000006, 0.90354824800005 ], [ 122.797624481000071, 0.892356038000059 ], [ 122.813171880000027, 0.892370315000051 ], [ 122.806746562000058, 0.874779852000074 ], [ 122.797114504000092, 0.877349670000058 ], [ 122.786464036000098, 0.875864886000045 ], [ 122.755928460000064, 0.906215919000033 ], [ 122.771357868000109, 0.91360773200006 ] ] ], [ [ [ 122.847957453000049, 0.905763293000064 ], [ 122.845259439000074, 0.904336172000058 ], [ 122.845990180000058, 0.906149708000044 ], [ 122.847957453000049, 0.905763293000064 ] ] ], [ [ [ 122.738177567000093, 0.91033341800005 ], [ 122.74062354800003, 0.910046708000039 ], [ 122.739142334, 0.908547648000024 ], [ 122.738177567000093, 0.91033341800005 ] ] ], [ [ [ 122.738363463000042, 0.911769794000065 ], [ 122.737735988000054, 0.911766942000042 ], [ 122.737647571000025, 0.911956586000031 ], [ 122.738363463000042, 0.911769794000065 ] ] ], [ [ [ 122.861433950000105, 0.923489508000046 ], [ 122.861161874000118, 0.924042113000041 ], [ 122.861849361000054, 0.923460003000059 ], [ 122.861433950000105, 0.923489508000046 ] ] ], [ [ [ 122.86290486300004, 0.92673475600003 ], [ 122.865713372000073, 0.92623964400002 ], [ 122.864577987000075, 0.924330854000061 ], [ 122.86290486300004, 0.92673475600003 ] ] ], [ [ [ 122.861538117, 0.936654046000058 ], [ 122.86127762000001, 0.937058998000055 ], [ 122.861397410000109, 0.937528591000046 ], [ 122.861538117, 0.936654046000058 ] ] ], [ [ [ 122.8581023160001, 0.937146154000061 ], [ 122.857015630000092, 0.939620589000072 ], [ 122.85853389600004, 0.940083085000026 ], [ 122.8581023160001, 0.937146154000061 ] ] ], [ [ [ 122.893830157000025, 0.85290707200005 ], [ 122.893364305000091, 0.853315836000036 ], [ 122.894005090000064, 0.853298725000059 ], [ 122.893830157000025, 0.85290707200005 ] ] ], [ [ [ 122.907210822000025, 0.856659633000049 ], [ 122.907308228000034, 0.85514240200007 ], [ 122.906162272000074, 0.85654224700005 ], [ 122.907210822000025, 0.856659633000049 ] ] ], [ [ [ 122.898650469000017, 0.855038934000049 ], [ 122.898386858000094, 0.856755648000046 ], [ 122.899100032000092, 0.85687271200004 ], [ 122.898650469000017, 0.855038934000049 ] ] ], [ [ [ 122.88173421800002, 0.859870063000074 ], [ 122.88067258, 0.858617262000053 ], [ 122.880145251000044, 0.859524461000035 ], [ 122.88173421800002, 0.859870063000074 ] ] ], [ [ [ 122.876939739000022, 0.871019759000035 ], [ 122.877353200000016, 0.870817086000045 ], [ 122.878080418000081, 0.870248426000046 ], [ 122.877199764000011, 0.870162792000031 ], [ 122.876939739000022, 0.871019759000035 ] ] ], [ [ [ 122.930013686000052, 0.897976887000027 ], [ 122.927815148000036, 0.901375288000054 ], [ 122.929764122000051, 0.901850589000048 ], [ 122.930013686000052, 0.897976887000027 ] ] ], [ [ [ 122.871961455000019, 0.926048084000058 ], [ 122.879668552000112, 0.926389392000033 ], [ 122.877516719000027, 0.920237672000042 ], [ 122.871961455000019, 0.926048084000058 ] ] ], [ [ [ 123.084777364000047, 0.929805109000029 ], [ 123.085397165000018, 0.923104279000029 ], [ 123.076547681000079, 0.916942060000054 ], [ 123.075711617000024, 0.922391898000058 ], [ 123.084777364000047, 0.929805109000029 ] ] ], [ [ [ 123.037961691000078, 0.945234735000042 ], [ 123.037749169000108, 0.945849555000052 ], [ 123.038506421000079, 0.945723391000058 ], [ 123.037961691000078, 0.945234735000042 ] ] ], [ [ [ 123.037075132000041, 0.951531240000065 ], [ 123.038824172000091, 0.949783285000024 ], [ 123.03771748600002, 0.949993556000038 ], [ 123.037075132000041, 0.951531240000065 ] ] ], [ [ [ 122.938948038000035, 0.954161094000028 ], [ 122.938925696000069, 0.953286755000022 ], [ 122.938543884000069, 0.953628545000072 ], [ 122.938948038000035, 0.954161094000028 ] ] ], [ [ [ 122.937539064000021, 0.956370175000075 ], [ 122.937932348000118, 0.957157041000073 ], [ 122.938340081000092, 0.956587694000063 ], [ 122.937539064000021, 0.956370175000075 ] ] ], [ [ [ 122.892088460000082, 0.965894114000037 ], [ 122.890142502000117, 0.965959707000025 ], [ 122.892834629000049, 0.96780712900005 ], [ 122.892088460000082, 0.965894114000037 ] ] ], [ [ [ 122.947542236000118, 0.96613196900006 ], [ 122.947848249000117, 0.965704206000055 ], [ 122.947658105000073, 0.965680442000064 ], [ 122.947542236000118, 0.96613196900006 ] ] ], [ [ [ 122.889567653000086, 0.96637159200003 ], [ 122.889321417000019, 0.966932407000058 ], [ 122.889627800000085, 0.96694564400002 ], [ 122.889567653000086, 0.96637159200003 ] ] ], [ [ [ 122.948000626000066, 0.973009097000045 ], [ 122.947806679000109, 0.97321632400002 ], [ 122.94786182100006, 0.973239138000054 ], [ 122.948000626000066, 0.973009097000045 ] ] ], [ [ [ 122.944055178000099, 0.97570410700007 ], [ 122.94390829200006, 0.975725495000063 ], [ 122.944059456000105, 0.975789659000043 ], [ 122.944055178000099, 0.97570410700007 ] ] ], [ [ [ 122.940003614000034, 0.982985085000053 ], [ 122.939894281000079, 0.983016454000051 ], [ 122.940007417000061, 0.983040219000031 ], [ 122.940003614000034, 0.982985085000053 ] ] ], [ [ [ 122.928924851000033, 0.985767577000047 ], [ 122.93522241200003, 0.985173644000042 ], [ 122.932928078000032, 0.982294374000048 ], [ 122.928924851000033, 0.985767577000047 ] ] ] ] } },
{ "type": "Feature", "properties": { "kemendagri_kab_code": 7571, "kemendagri_kab_name": "Kota Gorontalo", "kemendagri_prov_code": 75, "kemendagri_prov_name": "Gorontalo" }, "geometry": { "type": "Polygon", "coordinates": [ [ [ 123.086796141000036, 0.479679777000058 ], [ 123.05855577400007, 0.506924176000041 ], [ 123.045464466000112, 0.490856635000057 ], [ 123.037622082000098, 0.509161669000036 ], [ 123.004642045000082, 0.530160030000047 ], [ 122.995370444000059, 0.553505995000023 ], [ 123.030576002000089, 0.546750907000046 ], [ 123.026912823000089, 0.563482681000039 ], [ 123.053315678000104, 0.588054314000033 ], [ 123.090960179000035, 0.580327675000035 ], [ 123.079493354000078, 0.528109758000028 ], [ 123.08896552300007, 0.520466943000031 ], [ 123.086523856000099, 0.509690694000028 ], [ 123.09994, 0.50233 ], [ 123.086796141000036, 0.479679777000058 ] ] ] } }
]
}
