{
"type": "FeatureCollection",
"name": "76",
"crs": { "type": "name", "properties": { "name": "urn:ogc:def:crs:OGC:1.3:CRS84" } },
"features": [
{ "type": "Feature", "properties": { "kemendagri_kab_code": 7601, "kemendagri_kab_name": "Kabupaten Pasangkayu", "kemendagri_prov_code": 76, "kemendagri_prov_name": "Sulawesi Barat" }, "geometry": { "type": "MultiPolygon", "coordinates": [ [ [ [ 119.560837051000021, -0.849552675999973 ], [ 119.573034623000012, -0.879661210999927 ], [ 119.558887822000088, -0.899923015999946 ], [ 119.568351224000025, -0.920897675999925 ], [ 119.556039068000018, -0.92698368799995 ], [ 119.551932203000092, -0.942528636999953 ], [ 119.560998360000099, -0.978689869999926 ], [ 119.557231993000073, -1.009868508999944 ], [ 119.574100086000044, -1.016809113999955 ], [ 119.578362914000081, -1.030220261999943 ], [ 119.578970400000117, -1.045144394999966 ], [ 119.572235973000033, -1.049783317999925 ], [ 119.583465426000089, -1.071189817999937 ], [ 119.572642601000098, -1.078943850999963 ], [ 119.589927507000084, -1.089603482999962 ], [ 119.593258385000013, -1.125000002999968 ], [ 119.581372113000043, -1.161927611999943 ], [ 119.592135147000022, -1.183426968999925 ], [ 119.535684008000089, -1.178216541999973 ], [ 119.523071165000033, -1.196404943999937 ], [ 119.53478003500004, -1.197592762999932 ], [ 119.532305188, -1.234534236999934 ], [ 119.466369273000055, -1.298582609999926 ], [ 119.481626514000027, -1.309547952999935 ], [ 119.504658180000092, -1.29673152099997 ], [ 119.51347613400003, -1.300702881999939 ], [ 119.510568772000056, -1.31224647099998 ], [ 119.485404336000101, -1.321757970999954 ], [ 119.461724460000028, -1.319061174999945 ], [ 119.450464654000029, -1.338280908999934 ], [ 119.427776700000095, -1.33887494399994 ], [ 119.426695354000117, -1.348162895999963 ], [ 119.438454106000108, -1.37825722599996 ], [ 119.461993148000033, -1.396416195999961 ], [ 119.480193062000012, -1.401522385999954 ], [ 119.496745039000075, -1.392108269999937 ], [ 119.508263005000117, -1.413418707999938 ], [ 119.518851730000051, -1.409487228999978 ], [ 119.522912157000064, -1.428644032999955 ], [ 119.509920630000011, -1.451300031999949 ], [ 119.533774468000047, -1.427800046999948 ], [ 119.540783655000041, -1.431767342999933 ], [ 119.539435439000044, -1.421653814999956 ], [ 119.54937201100006, -1.425368004999939 ], [ 119.546347604000061, -1.436524587999941 ], [ 119.572531926000011, -1.419538672999977 ], [ 119.583544473000075, -1.425364335999973 ], [ 119.582029699000032, -1.409329189999937 ], [ 119.589959070000077, -1.409939250999969 ], [ 119.59160841500011, -1.395915998999953 ], [ 119.610535366000022, -1.40559024099997 ], [ 119.621542257000101, -1.396329617999925 ], [ 119.629572038000106, -1.406019777999973 ], [ 119.631474282000113, -1.399903064999933 ], [ 119.641739707000056, -1.403771979999931 ], [ 119.654683540000065, -1.422259182999937 ], [ 119.672729138000022, -1.431414849999953 ], [ 119.665712325000072, -1.433759811999948 ], [ 119.67054810500008, -1.442366798999956 ], [ 119.681305243000111, -1.439613549999933 ], [ 119.685083149000093, -1.449927567999964 ], [ 119.697229867000033, -1.450665727999933 ], [ 119.666711006000014, -1.525165460999972 ], [ 119.671240109000109, -1.544671516999927 ], [ 119.690346868, -1.564429900999926 ], [ 119.700755066000056, -1.565516335999973 ], [ 119.715223248000029, -1.592674961999933 ], [ 119.734457291000012, -1.605732990999968 ], [ 119.727959944000077, -1.637776507999945 ], [ 119.758937226000057, -1.658029221999925 ], [ 119.764440692000107, -1.678966240999955 ], [ 119.781565683000053, -1.691680595999969 ], [ 119.776110551000102, -1.701734188999978 ], [ 119.795295212000042, -1.708431386999962 ], [ 119.795799339000041, -1.741252760999942 ], [ 119.811112494000099, -1.742836487999966 ], [ 119.826433771000097, -1.768892514999948 ], [ 119.843689065000035, -1.775701979999951 ], [ 119.866502700000069, -1.770722202999934 ], [ 119.871476639000093, -1.779206324999961 ], [ 119.850642837, -1.787433544999942 ], [ 119.83667914900002, -1.804289544999961 ], [ 119.811515025000062, -1.792265481999948 ], [ 119.777588774000037, -1.811086481999951 ], [ 119.744265341000073, -1.806577965999963 ], [ 119.706653030000098, -1.833079405999968 ], [ 119.678870166000024, -1.824977699999977 ], [ 119.656992690000038, -1.84193105099996 ], [ 119.62893637500008, -1.820349621999981 ], [ 119.593409363000092, -1.810403256999962 ], [ 119.579784266000047, -1.819357074999971 ], [ 119.527888232, -1.791913097999952 ], [ 119.511635891000083, -1.79339955699993 ], [ 119.450242662000051, -1.753219614999978 ], [ 119.438551289000088, -1.728588730999945 ], [ 119.433651675000078, -1.736324612999965 ], [ 119.412475079000046, -1.733138822999933 ], [ 119.415292256000043, -1.741826874999958 ], [ 119.385954162000075, -1.757603079999967 ], [ 119.377530368000066, -1.752909658999954 ], [ 119.365268111000091, -1.768890284999941 ], [ 119.351821885000049, -1.772210579999978 ], [ 119.337252565000085, -1.818844093999928 ], [ 119.311387742000079, -1.797810185999936 ], [ 119.315284193000025, -1.768370018999974 ], [ 119.300756496000076, -1.706118554999932 ], [ 119.281469890000039, -1.687198683999952 ], [ 119.287377348000064, -1.680559240999969 ], [ 119.285118898000064, -1.658586697999965 ], [ 119.294667182000012, -1.659086435999939 ], [ 119.290790272000095, -1.647486746999959 ], [ 119.305490718000101, -1.644650733999924 ], [ 119.31051310600003, -1.629620019999948 ], [ 119.299978113000066, -1.621268038999972 ], [ 119.303122269000028, -1.612346426999977 ], [ 119.316175132000012, -1.608379597999942 ], [ 119.325898250000023, -1.589838760999953 ], [ 119.325552819000109, -1.567852685999981 ], [ 119.288489402000096, -1.450097017999951 ], [ 119.292179057000112, -1.390091509999934 ], [ 119.332774306000033, -1.349390813999946 ], [ 119.323304908000068, -1.303701607999926 ], [ 119.30329550700003, -1.273266776999947 ], [ 119.337657, -1.193776577999927 ], [ 119.340966895000065, -1.168420396999977 ], [ 119.358610605000081, -1.174317430999963 ], [ 119.377929342000016, -1.165393747999929 ], [ 119.385771969000075, -1.137479457999973 ], [ 119.389184461000013, -1.144079429999977 ], [ 119.400346516000013, -1.128280265999933 ], [ 119.416467566000051, -1.126177500999972 ], [ 119.461250083000095, -1.074123823999969 ], [ 119.480971158000102, -0.998695060999978 ], [ 119.499300171000073, -0.983719768999947 ], [ 119.521541856000113, -0.936721106999926 ], [ 119.527457446000085, -0.897897137999962 ], [ 119.560837051000021, -0.849552675999973 ] ] ], [ [ [ 119.375302379000118, -1.163386110999966 ], [ 119.374999995000053, -1.164354278999951 ], [ 119.374503594000089, -1.162941590999935 ], [ 119.375302379000118, -1.163386110999966 ] ] ] ] } },
{ "type": "Feature", "properties": { "kemendagri_kab_code": 7602, "kemendagri_kab_name": "Kabupaten Mamuju", "kemendagri_prov_code": 76, "kemendagri_prov_name": "Sulawesi Barat" }, "geometry": { "type": "MultiPolygon", "coordinates": [ [ [ [ 117.55429821000007, -2.954224689999933 ], [ 117.54829007100011, -2.940423815999964 ], [ 117.562269404000062, -2.92656345599994 ], [ 117.565481676000104, -2.94173251999996 ], [ 117.55429821000007, -2.954224689999933 ] ] ], [ [ [ 117.941008281000109, -2.537019414999975 ], [ 117.945280971000102, -2.540908111999954 ], [ 117.943107220000115, -2.542242528999964 ], [ 117.941008281000109, -2.537019414999975 ] ] ], [ [ [ 117.364339, -2.493272 ], [ 117.364067, -2.491469 ], [ 117.365049000000113, -2.492869 ], [ 117.364339, -2.493272 ] ] ], [ [ [ 117.374674, -2.460428 ], [ 117.37726052000005, -2.459197607999954 ], [ 117.376187, -2.462081 ], [ 117.374674, -2.460428 ] ] ], [ [ [ 117.321202118000087, -2.44999966499995 ], [ 117.326054893000105, -2.453108610999948 ], [ 117.326540303000115, -2.454583876999948 ], [ 117.321202118000087, -2.44999966499995 ] ] ], [ [ [ 117.653241438, -2.45442524799995 ], [ 117.652852, -2.451976 ], [ 117.655901518000064, -2.449090074999958 ], [ 117.653241438, -2.45442524799995 ] ] ], [ [ [ 117.545631040000103, -2.452556104999928 ], [ 117.54623218800009, -2.449341775999926 ], [ 117.548457840000083, -2.446464684999967 ], [ 117.545631040000103, -2.452556104999928 ] ] ], [ [ [ 117.484374805000016, -2.446701393999945 ], [ 117.48436528700006, -2.444550360999926 ], [ 117.484593716000063, -2.444045914999947 ], [ 117.484374805000016, -2.446701393999945 ] ] ], [ [ [ 117.493198678000113, -2.446996499999955 ], [ 117.49340767800004, -2.445866499999966 ], [ 117.493704678000086, -2.446815499999957 ], [ 117.493198678000113, -2.446996499999955 ] ] ], [ [ [ 117.54970870000011, -2.440057 ], [ 117.551840422000055, -2.440121874999932 ], [ 117.5494419260001, -2.444189562999952 ], [ 117.54970870000011, -2.440057 ] ] ], [ [ [ 117.39773910200006, -2.431973263999964 ], [ 117.398843622000072, -2.434206579999966 ], [ 117.398203364000096, -2.433617906999928 ], [ 117.39773910200006, -2.431973263999964 ] ] ], [ [ [ 117.591145549000089, -2.419036280999933 ], [ 117.594200777000083, -2.422262829999966 ], [ 117.593394139000111, -2.424968276999948 ], [ 117.591145549000089, -2.419036280999933 ] ] ], [ [ [ 117.410440479000044, -2.421323023999946 ], [ 117.409640471000102, -2.421574992999979 ], [ 117.409626704000061, -2.421472929999936 ], [ 117.410440479000044, -2.421323023999946 ] ] ], [ [ [ 117.278380851000065, -2.361350700999935 ], [ 117.278623, -2.362614 ], [ 117.277681289000043, -2.361393530999976 ], [ 117.278380851000065, -2.361350700999935 ] ] ], [ [ [ 117.327928962000101, -2.361342015999981 ], [ 117.325344747000031, -2.357563738999943 ], [ 117.329344741000114, -2.358415278999928 ], [ 117.327928962000101, -2.361342015999981 ] ] ], [ [ [ 117.272791497000071, -2.347238593999975 ], [ 117.272052674000065, -2.347409914999957 ], [ 117.271945795000079, -2.347231877999945 ], [ 117.272791497000071, -2.347238593999975 ] ] ], [ [ [ 117.081437, -2.343479 ], [ 117.081489, -2.342469 ], [ 117.082571, -2.342353 ], [ 117.081437, -2.343479 ] ] ], [ [ [ 117.231735674000106, -2.315175396999962 ], [ 117.228929000000107, -2.314359 ], [ 117.230115, -2.31301 ], [ 117.231735674000106, -2.315175396999962 ] ] ], [ [ [ 117.68829, -2.288908 ], [ 117.688743, -2.288782 ], [ 117.68873, -2.28926 ], [ 117.68829, -2.288908 ] ] ], [ [ [ 117.659923967000054, -2.276460056999952 ], [ 117.662879258000089, -2.278059054999972 ], [ 117.663093410000101, -2.278730062999955 ], [ 117.659923967000054, -2.276460056999952 ] ] ], [ [ [ 117.065846640000018, -2.267235113999959 ], [ 117.058410824000021, -2.268989965999936 ], [ 117.064775883000038, -2.259501864999947 ], [ 117.065846640000018, -2.267235113999959 ] ] ], [ [ [ 117.138472, -2.238722 ], [ 117.140981, -2.240268 ], [ 117.137337000000116, -2.239323 ], [ 117.138472, -2.238722 ] ] ], [ [ [ 117.411978207000061, -2.221526866999966 ], [ 117.408553442000084, -2.221348323999962 ], [ 117.409283842000036, -2.219181470999956 ], [ 117.411978207000061, -2.221526866999966 ] ] ], [ [ [ 118.766588488000025, -2.875330505999955 ], [ 118.766276788000027, -2.875503418999926 ], [ 118.766235032000054, -2.874890383999968 ], [ 118.766588488000025, -2.875330505999955 ] ] ], [ [ [ 118.764140308000037, -2.87306296099996 ], [ 118.765243737000105, -2.874160456999959 ], [ 118.764020288000097, -2.875827813999933 ], [ 118.764140308000037, -2.87306296099996 ] ] ], [ [ [ 118.767505350000079, -2.874640020999948 ], [ 118.767374337000092, -2.87399050099998 ], [ 118.767799572000058, -2.87428502299997 ], [ 118.767505350000079, -2.874640020999948 ] ] ], [ [ [ 118.764830682000024, -2.869795653999972 ], [ 118.76466357400011, -2.871890565999934 ], [ 118.764359300000024, -2.871626871999979 ], [ 118.764830682000024, -2.869795653999972 ] ] ], [ [ [ 118.765097279000088, -2.869354241999929 ], [ 118.765069459000074, -2.868145037999966 ], [ 118.765206524000064, -2.868122272999926 ], [ 118.765097279000088, -2.869354241999929 ] ] ], [ [ [ 118.765862313000071, -2.866825732999928 ], [ 118.765479912000046, -2.86704875099997 ], [ 118.765694080000117, -2.866533513999968 ], [ 118.765862313000071, -2.866825732999928 ] ] ], [ [ [ 118.765714618000061, -2.866302818999941 ], [ 118.765695425000104, -2.865662618999977 ], [ 118.765910222000116, -2.865529194999965 ], [ 118.765714618000061, -2.866302818999941 ] ] ], [ [ [ 118.767338892000112, -2.858734778999974 ], [ 118.767647360000069, -2.861293098999965 ], [ 118.767070199000045, -2.861166064999964 ], [ 118.766389842000081, -2.865005941999925 ], [ 118.766030873000091, -2.865312459999927 ], [ 118.767338892000112, -2.858734778999974 ] ] ], [ [ [ 118.76765935700007, -2.858497434999947 ], [ 118.76714752800001, -2.857013311999935 ], [ 118.767580185000043, -2.856674795999936 ], [ 118.76765935700007, -2.858497434999947 ] ] ], [ [ [ 118.766955114000098, -2.855368637999959 ], [ 118.767042985000103, -2.856063653999968 ], [ 118.766858621000097, -2.855949929999952 ], [ 118.766955114000098, -2.855368637999959 ] ] ], [ [ [ 118.767285722000111, -2.854365191999932 ], [ 118.766775154000015, -2.852954972999953 ], [ 118.76694774200007, -2.85284457399996 ], [ 118.767285722000111, -2.854365191999932 ] ] ], [ [ [ 118.760281865000024, -2.800175534999937 ], [ 118.760231217000069, -2.803180358999953 ], [ 118.761709799000073, -2.804709180999964 ], [ 118.759716693000087, -2.803254889999948 ], [ 118.760281865000024, -2.800175534999937 ] ] ], [ [ [ 118.781933381000044, -2.73326964499995 ], [ 118.781791293000083, -2.733226112999944 ], [ 118.781475381000064, -2.732736016999979 ], [ 118.781933381000044, -2.73326964499995 ] ] ], [ [ [ 118.774905726000043, -2.721554070999957 ], [ 118.775997343000085, -2.725972787999979 ], [ 118.774962529000049, -2.724865789999967 ], [ 118.774905726000043, -2.721554070999957 ] ] ], [ [ [ 118.776360046000036, -2.723759081999958 ], [ 118.776496640000119, -2.723573683999973 ], [ 118.776551834000088, -2.723805096999968 ], [ 118.776360046000036, -2.723759081999958 ] ] ], [ [ [ 118.77764283700003, -2.710563677999971 ], [ 118.777553418000025, -2.709677620999969 ], [ 118.777644440000017, -2.709505221999962 ], [ 118.77764283700003, -2.710563677999971 ] ] ], [ [ [ 118.778951807000112, -2.702331865999952 ], [ 118.779096990000085, -2.701993905999927 ], [ 118.779078569000035, -2.702311332999955 ], [ 118.778951807000112, -2.702331865999952 ] ] ], [ [ [ 118.778971636000051, -2.701850870999976 ], [ 118.778739694000024, -2.701274285999943 ], [ 118.778854238, -2.701200418999974 ], [ 118.778971636000051, -2.701850870999976 ] ] ], [ [ [ 118.778685136000036, -2.700303138999971 ], [ 118.778727325000091, -2.699942723999925 ], [ 118.778883827000072, -2.699967360999949 ], [ 118.778685136000036, -2.700303138999971 ] ] ], [ [ [ 118.779790491000085, -2.685332261999974 ], [ 118.779776487000049, -2.685597234999932 ], [ 118.778835845000117, -2.688353483999947 ], [ 118.779790491000085, -2.685332261999974 ] ] ], [ [ [ 118.782686432000105, -2.679435778999959 ], [ 118.782886044000065, -2.681289697999944 ], [ 118.782611150000093, -2.680852884999979 ], [ 118.782506501000057, -2.679375003999951 ], [ 118.783014175000062, -2.678488977999962 ], [ 118.78389646100004, -2.67797632199995 ], [ 118.782686432000105, -2.679435778999959 ] ] ], [ [ [ 118.796903668000027, -2.650919200999965 ], [ 118.797471200000018, -2.651891000999967 ], [ 118.797019901000112, -2.651956042999927 ], [ 118.796903668000027, -2.650919200999965 ] ] ], [ [ [ 118.810038732000066, -2.636374101999934 ], [ 118.809857607000026, -2.635928837999927 ], [ 118.810047545000089, -2.635839689999955 ], [ 118.810038732000066, -2.636374101999934 ] ] ], [ [ [ 118.850017416000014, -2.65830841099995 ], [ 118.850482168000099, -2.658833524999977 ], [ 118.850067092000018, -2.658759098999951 ], [ 118.850017416000014, -2.65830841099995 ] ] ], [ [ [ 118.896369195000034, -2.65870031399993 ], [ 118.896250100000088, -2.658081409999966 ], [ 118.89656944, -2.658090539999932 ], [ 118.896369195000034, -2.65870031399993 ] ] ], [ [ [ 118.845123177000119, -2.653718609999942 ], [ 118.845246589000112, -2.653264494999974 ], [ 118.845346175000032, -2.65372143999997 ], [ 118.845123177000119, -2.653718609999942 ] ] ], [ [ [ 118.836627118000024, -2.638237355999934 ], [ 118.836450986000045, -2.637694617999955 ], [ 118.83670354100002, -2.63731445999997 ], [ 118.836627118000024, -2.638237355999934 ] ] ], [ [ [ 118.810128407000093, -2.637760869999966 ], [ 118.809884562000093, -2.637432310999941 ], [ 118.809995758000014, -2.637373606999972 ], [ 118.810128407000093, -2.637760869999966 ] ] ], [ [ [ 118.836120038000104, -2.636735703999932 ], [ 118.836142302000098, -2.637508800999967 ], [ 118.835579427000084, -2.63689429599998 ], [ 118.836120038000104, -2.636735703999932 ] ] ], [ [ [ 118.810316471000078, -2.634273245999964 ], [ 118.810136280000052, -2.634075258999928 ], [ 118.810320851000029, -2.634068225999954 ], [ 118.810316471000078, -2.634273245999964 ] ] ], [ [ [ 118.810596747000091, -2.633853349999924 ], [ 118.810290582000107, -2.633592909999948 ], [ 118.810648424000078, -2.633698808999952 ], [ 118.810596747000091, -2.633853349999924 ] ] ], [ [ [ 118.891490240000053, -2.61329115999996 ], [ 118.897740362000036, -2.630854969999973 ], [ 118.888974466000036, -2.653444115999946 ], [ 118.879129572000011, -2.642153416999975 ], [ 118.878225562000011, -2.625752960999932 ], [ 118.891490240000053, -2.61329115999996 ] ] ], [ [ [ 118.810978736000038, -2.630443345999936 ], [ 118.810641959, -2.630678004999936 ], [ 118.8106071630001, -2.630541692999941 ], [ 118.810978736000038, -2.630443345999936 ] ] ], [ [ [ 118.811522514000103, -2.629308629999969 ], [ 118.811359843000105, -2.629661762999945 ], [ 118.811272596000094, -2.629467456999976 ], [ 118.811522514000103, -2.629308629999969 ] ] ], [ [ [ 118.812184046000084, -2.628316280999968 ], [ 118.812029998000071, -2.628164860999959 ], [ 118.812191555000027, -2.628174029999968 ], [ 118.812184046000084, -2.628316280999968 ] ] ], [ [ [ 118.812749773000064, -2.626440755999965 ], [ 118.812625488000094, -2.625528015999976 ], [ 118.812861048000059, -2.625464192999971 ], [ 118.812749773000064, -2.626440755999965 ] ] ], [ [ [ 119.545503393000104, -2.117308056999946 ], [ 119.558934114000067, -2.133965478999926 ], [ 119.575630002000025, -2.133808997999949 ], [ 119.580465336000088, -2.145496420999962 ], [ 119.597274, -2.150907996999933 ], [ 119.637803997000105, -2.147132996999972 ], [ 119.659379149000074, -2.135609044999967 ], [ 119.680251240000075, -2.142251883999961 ], [ 119.708261522000043, -2.138093588999936 ], [ 119.738769919000106, -2.189987358999929 ], [ 119.746737073000077, -2.214708839999957 ], [ 119.742531876000044, -2.227905196999927 ], [ 119.717737752000062, -2.244000520999975 ], [ 119.712202476000016, -2.256231508999974 ], [ 119.6762640500001, -2.270490400999961 ], [ 119.699014001000023, -2.313989988999936 ], [ 119.680503850000036, -2.328099340999927 ], [ 119.687837451000064, -2.371161307999955 ], [ 119.710767345000022, -2.378501472999972 ], [ 119.722879876000093, -2.392711443999929 ], [ 119.708782399000029, -2.418561919999945 ], [ 119.722925149000048, -2.43589335799993 ], [ 119.724451462000047, -2.467004295999971 ], [ 119.710077087000059, -2.488975670999935 ], [ 119.710827649000066, -2.515886295999962 ], [ 119.745284734000052, -2.535192646999974 ], [ 119.762238963000073, -2.571879184999943 ], [ 119.760457294000048, -2.588096530999962 ], [ 119.743979196000055, -2.610620562999941 ], [ 119.756328325000027, -2.636818894999976 ], [ 119.750577693000082, -2.644228688999931 ], [ 119.755181421000088, -2.676603945999943 ], [ 119.745861576000038, -2.683479226999964 ], [ 119.747819967000055, -2.714385318999973 ], [ 119.729901409000036, -2.718406046999974 ], [ 119.680717336000043, -2.756497164999928 ], [ 119.630707458000074, -2.754604123999968 ], [ 119.614133222000078, -2.750379653999971 ], [ 119.60828170700006, -2.739019049999968 ], [ 119.583764444000053, -2.74794916299993 ], [ 119.569992386000081, -2.740856583999971 ], [ 119.569671159000109, -2.731945502999963 ], [ 119.552849600000059, -2.728578027999959 ], [ 119.525510812000107, -2.74279826399993 ], [ 119.51824251000005, -2.737646016999975 ], [ 119.488448188, -2.741071697999928 ], [ 119.482417325000029, -2.749679278999963 ], [ 119.471792280000045, -2.746578308999972 ], [ 119.453806131000078, -2.755372376999958 ], [ 119.448974900000053, -2.768861648999973 ], [ 119.436138990000018, -2.771802752999974 ], [ 119.423074023000027, -2.760390143999928 ], [ 119.400451498000052, -2.762866426999949 ], [ 119.401515590000031, -2.753653764999967 ], [ 119.379843470000083, -2.743604464999976 ], [ 119.364075129000071, -2.720049138999968 ], [ 119.368857529000024, -2.709331154999973 ], [ 119.346176506, -2.703934536999952 ], [ 119.3478980860001, -2.691164683999943 ], [ 119.323631391000049, -2.692507889999945 ], [ 119.300121448000027, -2.709222704999945 ], [ 119.236686425000016, -2.713879419999955 ], [ 119.217806318000044, -2.703872295999929 ], [ 119.205848987000081, -2.673771140999975 ], [ 119.187637910000035, -2.657243923999943 ], [ 119.149482460000058, -2.670612528999925 ], [ 119.137723965000077, -2.684904900999925 ], [ 119.136985795000101, -2.653566767999962 ], [ 119.102205592000018, -2.669075074999967 ], [ 119.080295580000097, -2.702487429999962 ], [ 119.061754717000099, -2.704039900999931 ], [ 119.045493778000036, -2.736466223999969 ], [ 119.026250890000028, -2.742929323999931 ], [ 119.013099241000077, -2.773561207999933 ], [ 119.025437722000106, -2.805518482999958 ], [ 119.022978554000019, -2.852037811999935 ], [ 119.013410314000112, -2.867417873999955 ], [ 119.025330754000038, -2.888583897999979 ], [ 119.022060527, -2.897912252999959 ], [ 119.035042867000016, -2.909374591999949 ], [ 119.055145315000118, -2.908091055999932 ], [ 119.046275350000087, -2.923497009999949 ], [ 119.032626761000074, -2.92627288999995 ], [ 119.02613666600007, -2.960421943999961 ], [ 119.000964523000107, -2.960837295999966 ], [ 118.980312211000069, -2.945060732999934 ], [ 118.974660648000054, -2.928470232999928 ], [ 118.954682929000114, -2.928042709999943 ], [ 118.94270597600007, -2.914822443999981 ], [ 118.898065336000059, -2.934724795999955 ], [ 118.884005211000044, -2.930797232999964 ], [ 118.877617051000016, -2.922389803999977 ], [ 118.885455767000053, -2.910946566999939 ], [ 118.884983158000068, -2.886716823999961 ], [ 118.851013794000096, -2.851572682999972 ], [ 118.830662297000117, -2.857334166999976 ], [ 118.809365292000052, -2.851047330999961 ], [ 118.769431757, -2.866844138999966 ], [ 118.771187947000044, -2.811039563999941 ], [ 118.757528637000064, -2.789684740999974 ], [ 118.760329947000059, -2.764873353999974 ], [ 118.764420372000018, -2.752201028999934 ], [ 118.782971438000118, -2.746509458999981 ], [ 118.781450763000066, -2.726174994999951 ], [ 118.774869790000025, -2.721093693999933 ], [ 118.780594084000086, -2.706128533999959 ], [ 118.779238685000109, -2.689256778999948 ], [ 118.797852061000071, -2.665649875999975 ], [ 118.798484730000041, -2.65210320999995 ], [ 118.810606151000115, -2.641962869999929 ], [ 118.81544714000006, -2.622334484999953 ], [ 118.82345727400002, -2.622027085999946 ], [ 118.844641043000024, -2.655105417999948 ], [ 118.867903639000019, -2.679800981999961 ], [ 118.912262048000116, -2.666782805999958 ], [ 118.942302734, -2.639513973999954 ], [ 118.959624555000119, -2.64108162399998 ], [ 118.966856601000018, -2.627918055999942 ], [ 118.98170686800006, -2.628599703999953 ], [ 118.996494582000082, -2.617241444999934 ], [ 118.998730809000108, -2.604329160999953 ], [ 119.011009657000045, -2.599682519999931 ], [ 119.008825692000073, -2.58538417799997 ], [ 119.029625740000029, -2.582833208999944 ], [ 119.033072946000061, -2.527975259999948 ], [ 119.042557656000099, -2.508177515999932 ], [ 119.124375635000092, -2.482211541999959 ], [ 119.147730534000061, -2.466839498999946 ], [ 119.143707997000092, -2.460162389999937 ], [ 119.126704838000023, -2.464791322999929 ], [ 119.135471637000023, -2.449552428999937 ], [ 119.14297667400001, -2.393325313999981 ], [ 119.122011617000112, -2.323932107999951 ], [ 119.123312270000042, -2.311731175999967 ], [ 119.134811722000109, -2.308253284999978 ], [ 119.134859004000077, -2.303591978999975 ], [ 119.130237603000069, -2.298387313999967 ], [ 119.200664565000011, -2.313287773999946 ], [ 119.251808262000054, -2.248875415999976 ], [ 119.274450915000102, -2.24368058999994 ], [ 119.289308248000111, -2.219754311999964 ], [ 119.293978528000025, -2.227426782999942 ], [ 119.313116144000105, -2.228012704999969 ], [ 119.315288538000118, -2.21659796199998 ], [ 119.334049459000084, -2.201865104999968 ], [ 119.348749639000062, -2.200787710999975 ], [ 119.354815103000078, -2.209060764999947 ], [ 119.371285579000073, -2.192470017999938 ], [ 119.389649960000042, -2.196262489999981 ], [ 119.411300350000033, -2.18501250199995 ], [ 119.433852933000026, -2.194237620999957 ], [ 119.445549502000063, -2.172197192999931 ], [ 119.451353224000059, -2.175124699999969 ], [ 119.468237230000113, -2.159931034999943 ], [ 119.471619898000085, -2.13861804499993 ], [ 119.490339997000092, -2.123555995999936 ], [ 119.514458961000059, -2.117642044999968 ], [ 119.526692961000094, -2.124825607999981 ], [ 119.545503393000104, -2.117308056999946 ] ] ], [ [ [ 119.037594139000021, -2.514119898999979 ], [ 119.036829023000109, -2.51406017599993 ], [ 119.036939866000012, -2.513440885999955 ], [ 119.037594139000021, -2.514119898999979 ] ] ], [ [ [ 119.045393808000085, -2.505322650999972 ], [ 119.045286818000022, -2.505044478999935 ], [ 119.045756294000057, -2.505445193999947 ], [ 119.045393808000085, -2.505322650999972 ] ] ], [ [ [ 119.046325873000114, -2.504169606999938 ], [ 119.047419278, -2.504395283999941 ], [ 119.046287617000075, -2.504419245999941 ], [ 119.046325873000114, -2.504169606999938 ] ] ], [ [ [ 119.119977016, -2.470995709999954 ], [ 119.124313978000032, -2.47055421999994 ], [ 119.124421268000106, -2.474253774999966 ], [ 119.119977016, -2.470995709999954 ] ] ], [ [ [ 119.143701474000068, -2.468205764999936 ], [ 119.144075558000054, -2.467862413999967 ], [ 119.143942396000057, -2.468395108999971 ], [ 119.143701474000068, -2.468205764999936 ] ] ], [ [ [ 119.126798609000048, -2.463056107999932 ], [ 119.127162550000094, -2.462693710999929 ], [ 119.12713877300007, -2.463214919999928 ], [ 119.126798609000048, -2.463056107999932 ] ] ], [ [ [ 119.130165570000031, -2.305626546999974 ], [ 119.130592414000034, -2.307726889999969 ], [ 119.129707687000064, -2.307709163999959 ], [ 119.130165570000031, -2.305626546999974 ] ] ] ] } },
{ "type": "Feature", "properties": { "kemendagri_kab_code": 7603, "kemendagri_kab_name": "Kabupaten Mamasa", "kemendagri_prov_code": 76, "kemendagri_prov_name": "Sulawesi Barat" }, "geometry": { "type": "Polygon", "coordinates": [ [ [ 119.138459486000102, -2.654256891999978 ], [ 119.137723965000077, -2.684904900999925 ], [ 119.149482460000058, -2.670612528999925 ], [ 119.187637910000035, -2.657243923999943 ], [ 119.205848987000081, -2.673771140999975 ], [ 119.217806318000044, -2.703872295999929 ], [ 119.236686425000016, -2.713879419999955 ], [ 119.300121448000027, -2.709222704999945 ], [ 119.323631391000049, -2.692507889999945 ], [ 119.3478980860001, -2.691164683999943 ], [ 119.346176506, -2.703934536999952 ], [ 119.368857529000024, -2.709331154999973 ], [ 119.364075129000071, -2.720049138999968 ], [ 119.379843470000083, -2.743604464999976 ], [ 119.401515590000031, -2.753653764999967 ], [ 119.400451498000052, -2.762866426999949 ], [ 119.423074023000027, -2.760390143999928 ], [ 119.436138990000018, -2.771802752999974 ], [ 119.448974900000053, -2.768861648999973 ], [ 119.453806131000078, -2.755372376999958 ], [ 119.471792280000045, -2.746578308999972 ], [ 119.482417325000029, -2.749679278999963 ], [ 119.488448188, -2.741071697999928 ], [ 119.51824251000005, -2.737646016999975 ], [ 119.525510812000107, -2.74279826399993 ], [ 119.552849600000059, -2.728578027999959 ], [ 119.569671159000109, -2.731945502999963 ], [ 119.569992386000081, -2.740856583999971 ], [ 119.58310369000003, -2.74622336799996 ], [ 119.578016007000087, -2.753551372999937 ], [ 119.585638301000017, -2.763702075999959 ], [ 119.575481726000021, -2.771028316999946 ], [ 119.567814387000112, -2.798283976999926 ], [ 119.578919617000111, -2.837000337999939 ], [ 119.566097747000072, -2.878942117999941 ], [ 119.549959698000066, -2.897578893999935 ], [ 119.576598427000022, -2.950223727999969 ], [ 119.5646065090001, -2.994338176999975 ], [ 119.594924314000082, -3.062864671999932 ], [ 119.619533115000081, -3.078997225999956 ], [ 119.636937681000063, -3.127769959999966 ], [ 119.605937616, -3.118112155999938 ], [ 119.598367687000064, -3.128113448999954 ], [ 119.57300968100003, -3.131037178999975 ], [ 119.572972222000089, -3.14475 ], [ 119.535922092000078, -3.139400860999956 ], [ 119.515681407000102, -3.171040841999968 ], [ 119.485934625000027, -3.188886399999944 ], [ 119.470313536000049, -3.190894219999961 ], [ 119.462036749000049, -3.181351043999939 ], [ 119.444659349000062, -3.191169170999956 ], [ 119.431972222000013, -3.167388888999938 ], [ 119.393752638000024, -3.198852775999967 ], [ 119.370277777000069, -3.198694443999955 ], [ 119.403691692000052, -3.246802201999969 ], [ 119.419938757000068, -3.247753245999945 ], [ 119.432066718000101, -3.261726797999927 ], [ 119.440634110000019, -3.300613437999971 ], [ 119.436560791000034, -3.313406426999961 ], [ 119.444616237000105, -3.314554913999928 ], [ 119.43856409700004, -3.320094666999978 ], [ 119.446523476000038, -3.332424198999945 ], [ 119.442109768000023, -3.338297086999944 ], [ 119.418406243000049, -3.333941104999951 ], [ 119.411779920000072, -3.321915784999931 ], [ 119.399968910000098, -3.322066206999978 ], [ 119.395605593000028, -3.309600210999974 ], [ 119.370849793000048, -3.308180823999976 ], [ 119.337101342000096, -3.289455798999938 ], [ 119.335133495000036, -3.270599622999953 ], [ 119.295960653000066, -3.263642033999929 ], [ 119.311598772000025, -3.239776055999926 ], [ 119.287496973000088, -3.213734805999934 ], [ 119.289549308, -3.19804367699993 ], [ 119.260927158000072, -3.172757869999941 ], [ 119.257281130000024, -3.157985456999938 ], [ 119.269109431000061, -3.138854590999927 ], [ 119.262112591000118, -3.120335506999936 ], [ 119.274741615000039, -3.094650153999964 ], [ 119.268081504000065, -3.074415217999956 ], [ 119.251023068000109, -3.073604693999926 ], [ 119.222041233000027, -3.084169500999963 ], [ 119.206885281000041, -3.101562761999958 ], [ 119.155386609000061, -3.108193609999944 ], [ 119.149062495000067, -3.116786575999924 ], [ 119.131045810000046, -3.096937490999949 ], [ 119.112207293000097, -3.092527681999968 ], [ 119.08052486400004, -3.113029228999949 ], [ 119.066543177000085, -3.108218434999969 ], [ 119.057560097000078, -3.047480327999949 ], [ 119.075888469, -3.038347000999977 ], [ 119.082169676000035, -3.017902556999957 ], [ 119.068439134000073, -2.988252124999974 ], [ 119.02613666600007, -2.960421943999961 ], [ 119.032626761000074, -2.92627288999995 ], [ 119.046275350000087, -2.923497009999949 ], [ 119.055145315000118, -2.908091055999932 ], [ 119.035042867000016, -2.909374591999949 ], [ 119.022060527, -2.897912252999959 ], [ 119.025330754000038, -2.888583897999979 ], [ 119.013410314000112, -2.867417873999955 ], [ 119.022978554000019, -2.852037811999935 ], [ 119.025437722000106, -2.805518482999958 ], [ 119.013099241000077, -2.773561207999933 ], [ 119.026250890000028, -2.742929323999931 ], [ 119.045493778000036, -2.736466223999969 ], [ 119.061754717000099, -2.704039900999931 ], [ 119.080295580000097, -2.702487429999962 ], [ 119.102205592000018, -2.669075074999967 ], [ 119.138459486000102, -2.654256891999978 ] ] ] } },
{ "type": "Feature", "properties": { "kemendagri_kab_code": 7604, "kemendagri_kab_name": "Kabupaten Polewali Mandar", "kemendagri_prov_code": 76, "kemendagri_prov_name": "Sulawesi Barat" }, "geometry": { "type": "MultiPolygon", "coordinates": [ [ [ [ 119.389529622000055, -3.488733403999959 ], [ 119.389063648000047, -3.489061718999949 ], [ 119.389153935000081, -3.488662826999928 ], [ 119.389529622000055, -3.488733403999959 ] ] ], [ [ [ 119.355870126000013, -3.486883451999972 ], [ 119.358772081000097, -3.488298163999957 ], [ 119.355079403000104, -3.488201652999976 ], [ 119.355870126000013, -3.486883451999972 ] ] ], [ [ [ 119.37158626300004, -3.467957657999932 ], [ 119.373962537000011, -3.48211691399996 ], [ 119.364247430000091, -3.484321719999969 ], [ 119.362617773000011, -3.471461103999957 ], [ 119.37158626300004, -3.467957657999932 ] ] ], [ [ [ 119.416520735000063, -3.467686258999947 ], [ 119.414917506000052, -3.477496887999962 ], [ 119.408095728000035, -3.47435543499995 ], [ 119.410309168000026, -3.470709247999935 ], [ 119.416520735000063, -3.467686258999947 ] ] ], [ [ [ 119.391841563000071, -3.46533179499994 ], [ 119.395926965000058, -3.472247211999957 ], [ 119.394393552000111, -3.477218788999949 ], [ 119.389441623000039, -3.470340633999967 ], [ 119.391841563000071, -3.46533179499994 ] ] ], [ [ [ 119.379213382000103, -3.469641632999981 ], [ 119.378020390000074, -3.468919912999979 ], [ 119.378110915000093, -3.468123914999978 ], [ 119.379213382000103, -3.469641632999981 ] ] ], [ [ [ 119.376849739000022, -3.466929300999936 ], [ 119.374755182000058, -3.466310563999969 ], [ 119.376136477000045, -3.465182211999945 ], [ 119.376849739000022, -3.466929300999936 ] ] ], [ [ [ 119.381323922000092, -3.460422077999965 ], [ 119.37808437000001, -3.458583833999967 ], [ 119.378543044000025, -3.458072709999954 ], [ 119.381323922000092, -3.460422077999965 ] ] ], [ [ [ 119.278511765000076, -3.446733221999978 ], [ 119.277955509000094, -3.447088375999954 ], [ 119.278141697000024, -3.446695286999955 ], [ 119.278511765000076, -3.446733221999978 ] ] ], [ [ [ 119.264850592000016, -3.074203841999974 ], [ 119.274741615000039, -3.094650153999964 ], [ 119.262112591000118, -3.120335506999936 ], [ 119.269109431000061, -3.138854590999927 ], [ 119.257281130000024, -3.157985456999938 ], [ 119.260927158000072, -3.172757869999941 ], [ 119.289549308, -3.19804367699993 ], [ 119.287496973000088, -3.213734805999934 ], [ 119.311598772000025, -3.239776055999926 ], [ 119.295960653000066, -3.263642033999929 ], [ 119.335629165000114, -3.270866891999958 ], [ 119.337101342000096, -3.289455798999938 ], [ 119.370849793000048, -3.308180823999976 ], [ 119.395605593000028, -3.309600210999974 ], [ 119.399968910000098, -3.322066206999978 ], [ 119.411779920000072, -3.321915784999931 ], [ 119.411875051000038, -3.329837221999981 ], [ 119.430206656000109, -3.334935624999957 ], [ 119.451109402000043, -3.354521108999961 ], [ 119.465477867000118, -3.375876310999956 ], [ 119.459455052000067, -3.384265583999934 ], [ 119.474312766000025, -3.41299731099997 ], [ 119.469177039000101, -3.433735463999938 ], [ 119.478299623000112, -3.447256918999926 ], [ 119.475263816000052, -3.457679688999974 ], [ 119.492891436000036, -3.483624113999952 ], [ 119.474234796000019, -3.502275057999952 ], [ 119.452899590000015, -3.47839655599995 ], [ 119.444055505000051, -3.476691573999972 ], [ 119.441782380000063, -3.484142356999939 ], [ 119.426742286000035, -3.472992726999962 ], [ 119.428531415000066, -3.459726770999964 ], [ 119.411307739000108, -3.466762939999967 ], [ 119.386660367000104, -3.449973863999958 ], [ 119.376349406000031, -3.454502948999959 ], [ 119.373411063000049, -3.463309269999968 ], [ 119.344043078000027, -3.434025485999939 ], [ 119.304800130000103, -3.425470508999979 ], [ 119.285371818000044, -3.429380838999975 ], [ 119.276913364000052, -3.447377899999935 ], [ 119.27977002700004, -3.45101871199995 ], [ 119.289288241, -3.440564106999943 ], [ 119.289247458000091, -3.446920950999925 ], [ 119.237193368000021, -3.47190939099994 ], [ 119.235121704000107, -3.485386226999935 ], [ 119.144489358000101, -3.491667313999926 ], [ 119.108249796000109, -3.516314002999934 ], [ 119.064824818000034, -3.50256445399998 ], [ 119.040434783000023, -3.51621910199998 ], [ 119.020146734000036, -3.515522752999971 ], [ 119.004152587000021, -3.533079678999968 ], [ 118.981831629000112, -3.497988132999978 ], [ 118.966222932000051, -3.498374364999961 ], [ 118.963786920000075, -3.472356249999962 ], [ 118.949141346000033, -3.458544234999977 ], [ 118.951370181000016, -3.444884155999944 ], [ 118.915142061000097, -3.408630097999946 ], [ 118.914409459000012, -3.386374346999958 ], [ 118.922666510000113, -3.386689868999952 ], [ 118.924678468000025, -3.369366061999926 ], [ 118.939297785, -3.355683934999945 ], [ 118.928506465000055, -3.341240413999969 ], [ 118.924697739000067, -3.292710047999947 ], [ 118.915100686000073, -3.277530211999931 ], [ 118.909682935000092, -3.237875920999954 ], [ 118.91671486700011, -3.224284261999969 ], [ 118.901631143000031, -3.198218224999948 ], [ 118.909559497000032, -3.163924549999933 ], [ 118.954548729000066, -3.159626905999971 ], [ 118.946374257000116, -3.105444846999944 ], [ 118.962089982000066, -3.088742509999975 ], [ 118.983532546000106, -3.099860607999972 ], [ 119.003595776000111, -3.08522316799997 ], [ 119.025402031000112, -3.090882800999964 ], [ 119.037673140000038, -3.084600557999977 ], [ 119.065389442000082, -3.115437919999977 ], [ 119.098323382000103, -3.105241415999956 ], [ 119.109465047000072, -3.093237658999954 ], [ 119.12351899600003, -3.094174502999977 ], [ 119.149062495000067, -3.116786575999924 ], [ 119.155386609000061, -3.108193609999944 ], [ 119.206885281000041, -3.101562761999958 ], [ 119.222041233000027, -3.084169500999963 ], [ 119.264850592000016, -3.074203841999974 ] ] ] ] } },
{ "type": "Feature", "properties": { "kemendagri_kab_code": 7605, "kemendagri_kab_name": "Kabupaten Majene", "kemendagri_prov_code": 76, "kemendagri_prov_name": "Sulawesi Barat" }, "geometry": { "type": "MultiPolygon", "coordinates": [ [ [ [ 119.000230411000075, -3.564221656999962 ], [ 118.999938385000064, -3.564049160999957 ], [ 119.000359092000053, -3.563951623999969 ], [ 119.000230411000075, -3.564221656999962 ] ] ], [ [ [ 119.001030649000086, -3.561825191999958 ], [ 119.000522825000075, -3.561850122999942 ], [ 119.000689848000093, -3.561625349999929 ], [ 119.001030649000086, -3.561825191999958 ] ] ], [ [ [ 118.844665689000067, -3.339148653999928 ], [ 118.842882374000055, -3.339455423999937 ], [ 118.842833727000084, -3.337016787999971 ], [ 118.844665689000067, -3.339148653999928 ] ] ], [ [ [ 118.848415419000048, -3.311436727999933 ], [ 118.847992054000088, -3.311208564999959 ], [ 118.848278461000064, -3.311088918999928 ], [ 118.848415419000048, -3.311436727999933 ] ] ], [ [ [ 118.942027830000029, -2.914953313999945 ], [ 118.9551227500001, -2.928202446999933 ], [ 118.974660648000054, -2.928470232999928 ], [ 118.980312211000069, -2.945060732999934 ], [ 119.000964523000107, -2.960837295999966 ], [ 119.02613666600007, -2.960421943999961 ], [ 119.066684247000012, -2.986474434999934 ], [ 119.082743145000109, -3.024479786999962 ], [ 119.056686471000035, -3.053519048999931 ], [ 119.066503856000054, -3.108100761999935 ], [ 119.070644273000084, -3.10678777399994 ], [ 119.074136700000054, -3.111740494999935 ], [ 119.062866826000118, -3.114084558999934 ], [ 119.037673140000038, -3.084600557999977 ], [ 119.025402031000112, -3.090882800999964 ], [ 119.003595776000111, -3.08522316799997 ], [ 118.983532546000106, -3.099860607999972 ], [ 118.960213760000102, -3.089347609999948 ], [ 118.946374257000116, -3.105444846999944 ], [ 118.954548729000066, -3.159626905999971 ], [ 118.910349638000071, -3.163082633999977 ], [ 118.9013885170001, -3.188114213999938 ], [ 118.916952681000112, -3.225537705999955 ], [ 118.909682935000092, -3.237875920999954 ], [ 118.915108213000053, -3.277566166999975 ], [ 118.924697739000067, -3.292710047999947 ], [ 118.925421030000052, -3.327886926999952 ], [ 118.939290117000041, -3.355440806999979 ], [ 118.924678468000025, -3.369366061999926 ], [ 118.922666510000113, -3.386689868999952 ], [ 118.914409459000012, -3.386374346999958 ], [ 118.915142061000097, -3.408630097999946 ], [ 118.951370181000016, -3.444884155999944 ], [ 118.949141346000033, -3.458544234999977 ], [ 118.963786920000075, -3.472356249999962 ], [ 118.966222932000051, -3.498374364999961 ], [ 118.981831629000112, -3.497988132999978 ], [ 119.005347888000074, -3.533448647999933 ], [ 118.99471508900001, -3.553720194999926 ], [ 119.000812985000039, -3.563391916999933 ], [ 118.984641657000111, -3.560624116999975 ], [ 118.965535064000051, -3.544960928999956 ], [ 118.946634024000105, -3.552733315999944 ], [ 118.93913584500001, -3.57057991399995 ], [ 118.901736524000057, -3.516410884999971 ], [ 118.895444220000059, -3.486964335999971 ], [ 118.879071633000081, -3.475640408999936 ], [ 118.878877724000063, -3.441145100999961 ], [ 118.845697019000113, -3.379043601999967 ], [ 118.852410782000106, -3.344815555999958 ], [ 118.842496803000017, -3.326053388999981 ], [ 118.858664786000077, -3.302042881999967 ], [ 118.831224285000076, -3.232639397999947 ], [ 118.839253576000033, -3.209120482999936 ], [ 118.828023527000028, -3.167765799999927 ], [ 118.780069004000097, -3.121713988999943 ], [ 118.77555785800007, -3.09222436899995 ], [ 118.779324598000017, -3.080001363999941 ], [ 118.795708802000036, -3.082270566999966 ], [ 118.796244064, -3.070960988999957 ], [ 118.823902018000013, -3.088895752999974 ], [ 118.839995336000015, -3.078871675999949 ], [ 118.859630905000017, -3.031758614999944 ], [ 118.847842077000109, -3.006939561999957 ], [ 118.848517770000058, -2.987699838999959 ], [ 118.869000962000086, -2.956686961999935 ], [ 118.875600916000053, -2.922906634999947 ], [ 118.896003461000078, -2.934999545999972 ], [ 118.942027830000029, -2.914953313999945 ] ] ] ] } },
{ "type": "Feature", "properties": { "kemendagri_kab_code": 7606, "kemendagri_kab_name": "Kabupaten Mamuju Tengah", "kemendagri_prov_code": 76, "kemendagri_prov_name": "Sulawesi Barat" }, "geometry": { "type": "MultiPolygon", "coordinates": [ [ [ [ 119.129459843000063, -2.254725922999967 ], [ 119.126705301000015, -2.254435321999949 ], [ 119.128206208000051, -2.25330035199994 ], [ 119.129459843000063, -2.254725922999967 ] ] ], [ [ [ 119.187877111000034, -2.134988500999953 ], [ 119.188739721000047, -2.135045378999962 ], [ 119.188580868000031, -2.135546100999932 ], [ 119.187877111000034, -2.134988500999953 ] ] ], [ [ [ 119.222550062000096, -2.012605735999955 ], [ 119.221979099, -2.012028838999925 ], [ 119.222473292000018, -2.011857668999937 ], [ 119.222550062000096, -2.012605735999955 ] ] ], [ [ [ 119.218139146000112, -2.008675599999947 ], [ 119.218291779000083, -2.009451752999951 ], [ 119.217939846000036, -2.008860268999968 ], [ 119.218139146000112, -2.008675599999947 ] ] ], [ [ [ 119.321444975000077, -1.943822934999957 ], [ 119.3208178430001, -1.944868926999959 ], [ 119.320799443000055, -1.942805304999979 ], [ 119.321444975000077, -1.943822934999957 ] ] ], [ [ [ 119.303156823000108, -1.890994546999934 ], [ 119.301587467000104, -1.890145003999976 ], [ 119.303091045000087, -1.88968594399995 ], [ 119.303156823000108, -1.890994546999934 ] ] ], [ [ [ 119.441657828000075, -1.732564878999938 ], [ 119.450242662000051, -1.753219614999978 ], [ 119.511635891000083, -1.79339955699993 ], [ 119.527888232, -1.791913097999952 ], [ 119.579784266000047, -1.819357074999971 ], [ 119.593409363000092, -1.810403256999962 ], [ 119.62893637500008, -1.820349621999981 ], [ 119.656992690000038, -1.84193105099996 ], [ 119.678870166000024, -1.824977699999977 ], [ 119.706653030000098, -1.833079405999968 ], [ 119.744265341000073, -1.806577965999963 ], [ 119.777588774000037, -1.811086481999951 ], [ 119.811515025000062, -1.792265481999948 ], [ 119.83667914900002, -1.804289544999961 ], [ 119.850642837, -1.787433544999942 ], [ 119.871491528000092, -1.779693055999928 ], [ 119.858830936000118, -1.80606536199997 ], [ 119.858766849000062, -1.825746166999977 ], [ 119.874869547000117, -1.863245081999935 ], [ 119.853742914, -1.875206671999933 ], [ 119.846975727000085, -1.90216120599996 ], [ 119.861896596000065, -1.914071124999964 ], [ 119.860797101000117, -1.928698194999924 ], [ 119.871155030000068, -1.938893823999933 ], [ 119.848931288000017, -1.988081315999978 ], [ 119.845849934000057, -2.015532572999973 ], [ 119.847550116000093, -2.023946739999928 ], [ 119.870327924000094, -2.018475181999975 ], [ 119.851385773000061, -2.042042394999953 ], [ 119.828374206000035, -2.046729567999932 ], [ 119.817715807000013, -2.059311524999941 ], [ 119.817381283000032, -2.09573706599997 ], [ 119.80471568300004, -2.112026471999968 ], [ 119.792027778000033, -2.108472221999932 ], [ 119.777072536000105, -2.119460369999956 ], [ 119.734296927000059, -2.125595621999935 ], [ 119.711, -2.1425 ], [ 119.659379149000074, -2.135609044999967 ], [ 119.613535649000028, -2.151440979999961 ], [ 119.580465336000088, -2.145496420999962 ], [ 119.575630002000025, -2.133808997999949 ], [ 119.566593996000051, -2.138470002999952 ], [ 119.542373998000016, -2.116105003999962 ], [ 119.526692961000094, -2.124825607999981 ], [ 119.500334774000066, -2.12015066999993 ], [ 119.471619898000085, -2.13861804499993 ], [ 119.468415152000034, -2.159706788999927 ], [ 119.451353224000059, -2.175124699999969 ], [ 119.445549502000063, -2.172197192999931 ], [ 119.433852933000026, -2.194237620999957 ], [ 119.411300350000033, -2.18501250199995 ], [ 119.389649960000042, -2.196262489999981 ], [ 119.371285579000073, -2.192470017999938 ], [ 119.354815103000078, -2.209060764999947 ], [ 119.348749639000062, -2.200787710999975 ], [ 119.334049459000084, -2.201865104999968 ], [ 119.315288538000118, -2.21659796199998 ], [ 119.313116144000105, -2.228012704999969 ], [ 119.293978528000025, -2.227426782999942 ], [ 119.289308248000111, -2.219754311999964 ], [ 119.274450915000102, -2.24368058999994 ], [ 119.251808262000054, -2.248875415999976 ], [ 119.200664565000011, -2.313287773999946 ], [ 119.130237603000069, -2.298387313999967 ], [ 119.130703033000032, -2.275577303999967 ], [ 119.152613448000011, -2.238197175999971 ], [ 119.145159742000033, -2.198491868999952 ], [ 119.16587478200006, -2.160888654999951 ], [ 119.187857554000061, -2.152692369999954 ], [ 119.185261971000045, -2.13670004599993 ], [ 119.189052455000024, -2.136460084999953 ], [ 119.190782707000039, -2.13364970899994 ], [ 119.189533634000099, -2.119620109999971 ], [ 119.200798343000088, -2.100752342999954 ], [ 119.192248383000106, -2.095894304999945 ], [ 119.209309193000081, -2.028066857999931 ], [ 119.222819511000012, -2.012600574999965 ], [ 119.222580781000033, -2.011735169999952 ], [ 119.218972041000029, -2.010661909999953 ], [ 119.218597384000077, -2.008646631999966 ], [ 119.215718041000059, -2.004481307999924 ], [ 119.212728822000031, -2.002088305999962 ], [ 119.212359682000056, -1.997405832999959 ], [ 119.288297801000112, -1.952848072999927 ], [ 119.299724637000054, -1.960394096999948 ], [ 119.317255467000109, -1.952899559999935 ], [ 119.322558205000064, -1.964853619999928 ], [ 119.331902667, -1.961459945999934 ], [ 119.341418554000029, -1.934446280999964 ], [ 119.333203455000103, -1.926947654999935 ], [ 119.335821793000036, -1.913488446999963 ], [ 119.353795282000078, -1.898450000999958 ], [ 119.350246011000081, -1.870783266999979 ], [ 119.363493928000025, -1.858739462999949 ], [ 119.355029986000091, -1.821548631999974 ], [ 119.340890724000019, -1.81849673399995 ], [ 119.342987873000084, -1.783795208999948 ], [ 119.348324781000088, -1.786205441999925 ], [ 119.34669528500001, -1.778048461999958 ], [ 119.352463057000023, -1.782251771999938 ], [ 119.351821885000049, -1.772210579999978 ], [ 119.365268111000091, -1.768890284999941 ], [ 119.377299780000044, -1.753036493999957 ], [ 119.385954162000075, -1.757603079999967 ], [ 119.415292256000043, -1.741826874999958 ], [ 119.412475079000046, -1.733138822999933 ], [ 119.441657828000075, -1.732564878999938 ] ] ], [ [ [ 119.326918762000105, -1.944577834999961 ], [ 119.326730171, -1.944805766999934 ], [ 119.326653922000105, -1.944624259999955 ], [ 119.326918762000105, -1.944577834999961 ] ] ], [ [ [ 119.326088963000075, -1.944411468999931 ], [ 119.325878648000071, -1.944593513999962 ], [ 119.325980518000051, -1.94431267799996 ], [ 119.326088963000075, -1.944411468999931 ] ] ], [ [ [ 119.326473370000031, -1.94457912799993 ], [ 119.326185252000073, -1.94431938799994 ], [ 119.326358826000046, -1.944248110999979 ], [ 119.326473370000031, -1.94457912799993 ] ] ], [ [ [ 119.327178404000051, -1.934588781999935 ], [ 119.335486008000089, -1.938168210999947 ], [ 119.335587393000083, -1.941946327999972 ], [ 119.329591835000087, -1.944808158999933 ], [ 119.328979561000097, -1.943774652999934 ], [ 119.328364175000047, -1.944667718999938 ], [ 119.325956569000027, -1.943917361999979 ], [ 119.323946550000073, -1.944946329999937 ], [ 119.327178404000051, -1.934588781999935 ] ] ], [ [ [ 119.330744631000016, -1.93569043399998 ], [ 119.332637058000046, -1.934029091999946 ], [ 119.332994253000038, -1.934838479999939 ], [ 119.330744631000016, -1.93569043399998 ] ] ] ] } }
]
}
