{
"type": "FeatureCollection",
"name": "93",
"crs": { "type": "name", "properties": { "name": "urn:ogc:def:crs:OGC:1.3:CRS84" } },
"features": [
{ "type": "Feature", "properties": { "kemendagri_kab_code": 9301, "kemendagri_kab_name": "Kabupaten Merauke", "kemendagri_prov_code": 93, "kemendagri_prov_name": "Papua Selatan" }, "geometry": { "type": "MultiPolygon", "coordinates": [ [ [ [ 138.499087291000023, -8.32235598799997 ], [ 138.484565173000078, -8.351793508999947 ], [ 138.407347260000051, -8.398810103999949 ], [ 138.31157418600003, -8.422884994999947 ], [ 138.264015411000059, -8.415807584999925 ], [ 138.26454336900008, -8.390885514999979 ], [ 138.300347314000078, -8.395799920999934 ], [ 138.32173074100001, -8.374887561999969 ], [ 138.346932047000109, -8.382917426999938 ], [ 138.436162491000118, -8.361611209999978 ], [ 138.450164913000094, -8.35006872699995 ], [ 138.468422981000117, -8.353748810999946 ], [ 138.478992091, -8.346411232999969 ], [ 138.488680110000018, -8.325531450999961 ], [ 138.499087291000023, -8.32235598799997 ] ] ], [ [ [ 138.583377534000078, -8.291961754999932 ], [ 138.56974298800003, -8.307553276999954 ], [ 138.565916419000018, -8.322143610999944 ], [ 138.552890306000108, -8.327989500999934 ], [ 138.562021363000099, -8.301073809999934 ], [ 138.583377534000078, -8.291961754999932 ] ] ], [ [ [ 138.814539021000087, -8.138000304999935 ], [ 138.846661340000082, -8.201312749999943 ], [ 138.845882757000027, -8.263181729999928 ], [ 138.876677943000118, -8.287430031999975 ], [ 138.892029770000022, -8.292168532999938 ], [ 138.902632888000085, -8.288883687999942 ], [ 138.915054830000031, -8.299202922999939 ], [ 138.913324731000102, -8.363235746999976 ], [ 138.90267239800005, -8.382509538999955 ], [ 138.870335523000108, -8.392586555999969 ], [ 138.875725002000081, -8.38973120299994 ], [ 138.812923795000074, -8.387375549999945 ], [ 138.797478978000072, -8.378172271999972 ], [ 138.734526171000084, -8.386175299999934 ], [ 138.674404442000082, -8.369839888999934 ], [ 138.578402882000091, -8.358030819999954 ], [ 138.552973056000042, -8.34121670899998 ], [ 138.551472611, -8.330746174999945 ], [ 138.566049442, -8.32307329899993 ], [ 138.585773782000047, -8.290606500999957 ], [ 138.662374640000053, -8.236861227999952 ], [ 138.67860629200004, -8.170402489999958 ], [ 138.745275472000117, -8.165128572999947 ], [ 138.814539021000087, -8.138000304999935 ] ] ], [ [ [ 138.847751284000083, -8.256135686999926 ], [ 138.852449237000087, -8.259647933999929 ], [ 138.859089761000064, -8.266295669999977 ], [ 138.851558015000023, -8.266122745999951 ], [ 138.847751284000083, -8.256135686999926 ] ] ], [ [ [ 138.84855815200001, -8.209788150999941 ], [ 138.886067199000081, -8.238548186999935 ], [ 138.890776576, -8.26628239799993 ], [ 138.876274494000086, -8.271725774999936 ], [ 138.847802433000084, -8.255410204999976 ], [ 138.84855815200001, -8.209788150999941 ] ] ], [ [ [ 138.655659234000041, -8.221968537999942 ], [ 138.651868065000031, -8.232865408999942 ], [ 138.645921122000118, -8.234354246999942 ], [ 138.645222865000051, -8.22765670299998 ], [ 138.655659234000041, -8.221968537999942 ] ] ], [ [ [ 138.692790857000091, -8.156845347999933 ], [ 138.707616580000035, -8.154274655999927 ], [ 138.713669785000093, -8.159986033999928 ], [ 138.706501057000082, -8.164435508999929 ], [ 138.692790857000091, -8.156845347999933 ] ] ], [ [ [ 138.743959722000113, -8.154052405999948 ], [ 138.754314568000041, -8.143994986999928 ], [ 138.757747466000069, -8.145413760999929 ], [ 138.748973343000102, -8.152764349999927 ], [ 138.743959722000113, -8.154052405999948 ] ] ], [ [ [ 138.835975167000015, -8.090752911999971 ], [ 138.837351389000105, -8.085807878999958 ], [ 138.843484949000072, -8.084436947999961 ], [ 138.842563477000112, -8.086185064999938 ], [ 138.835975167000015, -8.090752911999971 ] ] ], [ [ [ 138.675684458000092, -7.366921998999942 ], [ 138.772121993000042, -7.374905011999942 ], [ 138.827217201000053, -7.402323993999971 ], [ 138.867559876000087, -7.440412680999941 ], [ 138.905707297000049, -7.515002514999935 ], [ 138.941221941000094, -7.546330804999968 ], [ 139.088198275000082, -7.573865740999963 ], [ 139.042186838000021, -7.626029990999939 ], [ 139.03311071600001, -7.687065310999969 ], [ 138.994801095000071, -7.745642222999948 ], [ 138.994884033000062, -7.84867001899994 ], [ 138.980050033000111, -7.86150972799993 ], [ 138.916883226000095, -7.884263861999955 ], [ 138.891740014000106, -7.91356318499993 ], [ 138.902688983000075, -7.975091928999973 ], [ 138.888758439000071, -8.036297195999964 ], [ 138.912732323000114, -8.061302067999975 ], [ 138.912994342000047, -8.075950803999945 ], [ 138.83924951500012, -8.072989495999934 ], [ 138.815977947000079, -8.089936726999952 ], [ 138.798401327000079, -8.137625900999979 ], [ 138.754184401000089, -8.142523748999963 ], [ 138.735778144000051, -8.153713468999968 ], [ 138.708111771000063, -8.145948145999967 ], [ 138.679815193000081, -8.14924511199996 ], [ 138.661732664000056, -8.169754553999951 ], [ 138.65094320500009, -8.20734428999998 ], [ 138.614956174000099, -8.249057831999949 ], [ 138.533873771000117, -8.30471554199994 ], [ 138.48946309400003, -8.319588191999969 ], [ 138.468883862000098, -8.350359095999977 ], [ 138.449054738000086, -8.347198527999979 ], [ 138.434403655000096, -8.359109615999955 ], [ 138.344124363000105, -8.379069236999953 ], [ 138.320907884, -8.370445532999952 ], [ 138.301171926000052, -8.391510206999953 ], [ 138.265443035000089, -8.38554325299998 ], [ 138.255398136000053, -8.391438254999969 ], [ 138.219872783000028, -8.377537443999927 ], [ 138.184359327000038, -8.38392629599997 ], [ 137.951850295000099, -8.384295112999951 ], [ 137.8807433180001, -8.381360421999943 ], [ 137.870133656000121, -8.372344269999928 ], [ 137.856796777000113, -8.384455726999931 ], [ 137.722802189000049, -8.410149145999981 ], [ 137.689337450000039, -8.426738748999981 ], [ 137.676145718000043, -8.456862724999951 ], [ 137.651289868000049, -8.444127849999973 ], [ 137.640810722000083, -8.418558161999954 ], [ 137.660947478000026, -8.313696592999975 ], [ 137.698451487000057, -8.180683298999952 ], [ 137.753769745000113, -8.090832941999963 ], [ 137.767641507, -8.08148334599997 ], [ 137.763657893000072, -8.075203055999964 ], [ 137.772172208000029, -8.062560390999977 ], [ 137.813838695000072, -8.040184987999965 ], [ 137.798208038000098, -8.02038638099998 ], [ 137.797001306000084, -8.004962601999978 ], [ 137.813739807000047, -7.962268925999979 ], [ 137.821501343000023, -7.960403567999947 ], [ 137.819296651000059, -7.94812987499995 ], [ 137.833192338000117, -7.922226806999959 ], [ 137.840969085000097, -7.922597309999958 ], [ 137.835717017000093, -7.91510001599994 ], [ 137.860429616000033, -7.878574279999953 ], [ 137.866438701000106, -7.853913835999947 ], [ 137.877738547000035, -7.846346043999972 ], [ 137.926856437000083, -7.763234374999968 ], [ 137.958094001000063, -7.736355983999943 ], [ 137.971181816000012, -7.735292023999932 ], [ 137.985610088000044, -7.68416964499994 ], [ 138.048167636000017, -7.601688646999946 ], [ 138.085843476000036, -7.574436649999939 ], [ 138.117477484000119, -7.537342624999951 ], [ 138.205038731000059, -7.476623535999977 ], [ 138.315553403000081, -7.429152968999972 ], [ 138.385628611000016, -7.409967642999959 ], [ 138.675684458000092, -7.366921998999942 ] ] ], [ [ [ 138.966899229000092, -8.364329576999978 ], [ 138.947758722000117, -8.367988877999949 ], [ 138.948224932000016, -8.361506265999935 ], [ 138.947819219000053, -8.351866601999973 ], [ 138.944502933000081, -8.34315523999993 ], [ 138.966899229000092, -8.364329576999978 ] ] ], [ [ [ 138.943582768000056, -8.36637084399996 ], [ 138.923517358000026, -8.35660103999993 ], [ 138.919153106000067, -8.338275431999932 ], [ 138.925890740000114, -8.326978549999978 ], [ 138.944269919000021, -8.343040148999933 ], [ 138.943582768000056, -8.36637084399996 ] ] ], [ [ [ 138.933597544, -8.316402346999951 ], [ 138.947871522000014, -8.329777142999944 ], [ 138.971565140000052, -8.336048155999947 ], [ 138.951511033000088, -8.341236847999937 ], [ 138.931171572000039, -8.322171829999945 ], [ 138.933597544, -8.316402346999951 ] ] ], [ [ [ 138.991176987000017, -8.28780468399998 ], [ 138.971425545000102, -8.326719201999936 ], [ 138.951862941000059, -8.327594459999943 ], [ 138.935862179000083, -8.313375071999928 ], [ 138.936108477000062, -8.305474863999962 ], [ 138.952674143000081, -8.296165868999935 ], [ 138.991176987000017, -8.28780468399998 ] ] ], [ [ [ 138.877764164000041, -8.272591334999959 ], [ 138.891833643000041, -8.267708187999972 ], [ 138.900363139000092, -8.281631731999937 ], [ 138.88450854000007, -8.287873103999971 ], [ 138.855788993000033, -8.268969199999958 ], [ 138.877764164000041, -8.272591334999959 ] ] ], [ [ [ 138.992683068000019, -8.287201727999957 ], [ 138.980149725000047, -8.287116799999978 ], [ 138.978383619000056, -8.277634817999967 ], [ 138.992307739000012, -8.264130415999944 ], [ 138.992683068000019, -8.287201727999957 ] ] ], [ [ [ 138.997459437000089, -8.230667624999967 ], [ 138.990453720000119, -8.240467206999938 ], [ 138.994377661000044, -8.262577929999964 ], [ 138.985768300000018, -8.267673581999929 ], [ 138.978986258000077, -8.27450960699997 ], [ 138.97808201600003, -8.277813643999934 ], [ 138.979457669000112, -8.287191150999945 ], [ 138.974929916000065, -8.291204230999938 ], [ 138.95246398800009, -8.295130374999928 ], [ 138.934450136, -8.30293476199995 ], [ 138.924240987000076, -8.278672004999976 ], [ 138.935140672000102, -8.277603713999952 ], [ 138.944760904000077, -8.264561423999965 ], [ 138.961437022000041, -8.259043151999947 ], [ 138.969953966000048, -8.240011807999963 ], [ 138.997459437000089, -8.230667624999967 ] ] ], [ [ [ 139.442914321000103, -8.240671834999944 ], [ 139.441067536000105, -8.24370227299994 ], [ 139.43992666500003, -8.24298209799997 ], [ 139.442914321000103, -8.240671834999944 ] ] ], [ [ [ 138.942981006000082, -7.882340730999942 ], [ 138.91917646100012, -7.896103954999944 ], [ 138.914113499000109, -7.896043064999958 ], [ 138.927545770000052, -7.884757574999981 ], [ 138.942981006000082, -7.882340730999942 ] ] ], [ [ [ 140.845282853000072, -6.615435407999939 ], [ 140.872314413000026, -6.618024028999969 ], [ 140.876845075000119, -6.625079643999925 ], [ 140.855881818000057, -6.643403399999954 ], [ 140.873582284, -6.651758757999971 ], [ 140.86041022400002, -6.662771374999977 ], [ 140.870708062000062, -6.676648833999934 ], [ 140.863025774000107, -6.683640712999932 ], [ 140.845960125000033, -6.681773704999955 ], [ 140.853808045000051, -6.703902292999942 ], [ 140.846232132000068, -6.719980005999957 ], [ 140.882250209000063, -6.734936395999966 ], [ 140.90049289000001, -6.753206275999958 ], [ 140.892911271000116, -6.766183712999975 ], [ 140.879467406000117, -6.769455415999971 ], [ 140.87041487700003, -6.793110891999959 ], [ 140.884980522000092, -6.801504378999937 ], [ 140.887537229000031, -6.812199558999964 ], [ 140.906864983000105, -6.805653179999979 ], [ 140.917164245000095, -6.815622162999944 ], [ 140.918224424000073, -6.826402018999943 ], [ 140.898001546000046, -6.846095814999956 ], [ 140.916125013000055, -6.872063158999936 ], [ 140.940458460000059, -6.872155053999961 ], [ 140.953026409000017, -6.856800884999927 ], [ 140.940043315000025, -6.891330530999937 ], [ 140.953954742000064, -6.910277583999971 ], [ 140.96852151600001, -6.889761932999932 ], [ 140.990061809000053, -6.903612007999925 ], [ 141.000943581000115, -6.890275245999931 ], [ 141.020041789000061, -6.892342214999928 ], [ 141.019625, -9.125541666999936 ], [ 140.936052014000097, -9.09285641699995 ], [ 140.889429252000014, -9.083239031999938 ], [ 140.867942719000098, -9.054214366999929 ], [ 140.817624733000116, -9.014119337999944 ], [ 140.755122370000095, -8.93217466699997 ], [ 140.619904295000083, -8.818442793999964 ], [ 140.530173225000112, -8.688601803999973 ], [ 140.500600036000037, -8.614308186999949 ], [ 140.378754548000074, -8.511790750999978 ], [ 140.355316629000072, -8.472531488999948 ], [ 140.323713610000027, -8.461461224999937 ], [ 140.263113973000031, -8.411002877999977 ], [ 140.230646925000087, -8.375237437999942 ], [ 140.227058813000099, -8.355817159999958 ], [ 140.163707231000103, -8.332183232999967 ], [ 140.055470293000099, -8.254695613999957 ], [ 139.998413302000017, -8.204009271999951 ], [ 139.964917540000101, -8.158868051999946 ], [ 139.950423311, -8.101557520999961 ], [ 139.877167968000094, -8.108386691999954 ], [ 139.833826086000045, -8.100474983999959 ], [ 139.71271390000004, -8.097407858999929 ], [ 139.703725352000106, -8.105248471999971 ], [ 139.584410225000056, -8.129156790999957 ], [ 139.579939976000105, -8.14371454999997 ], [ 139.456545866000056, -8.193319541999927 ], [ 139.339671204000069, -8.205928967999967 ], [ 139.315943219000019, -8.196934604999967 ], [ 139.303620704000082, -8.181450138999935 ], [ 139.276841119000096, -8.175852546999977 ], [ 139.250946616000078, -8.150480200999937 ], [ 139.223375731000033, -8.094778577999932 ], [ 139.207868212000108, -8.09700653799996 ], [ 139.081902925, -8.136908561999974 ], [ 139.067320407000011, -8.153233135999926 ], [ 138.988429310000015, -8.202184734999946 ], [ 138.973620377000088, -8.203091905999941 ], [ 138.994027246000087, -8.227208712999925 ], [ 138.968198352000059, -8.240538580999953 ], [ 138.960271618000093, -8.258867656999939 ], [ 138.943993458000023, -8.263767564999966 ], [ 138.933740109000041, -8.276837071999978 ], [ 138.910847411000077, -8.267119848999926 ], [ 138.900157311000044, -8.236498535999942 ], [ 138.856602534000103, -8.186124477999954 ], [ 138.83554803200002, -8.138711654999952 ], [ 138.835968200000025, -8.114032179999981 ], [ 138.861048924000102, -8.090044623999972 ], [ 138.907237913000017, -8.087658161999968 ], [ 138.924936040000034, -8.075193593999927 ], [ 138.92592689300011, -8.057587445999957 ], [ 138.903257510000117, -8.030256320999968 ], [ 138.92242856300004, -7.968252632999963 ], [ 138.909325381000031, -7.930484676999981 ], [ 138.924964959000022, -7.905563171999972 ], [ 139.018418369000074, -7.853408833999936 ], [ 139.024868619000017, -7.82925402099994 ], [ 139.016635388000054, -7.755984246999958 ], [ 139.053562975000091, -7.698395871999935 ], [ 139.06623232700008, -7.634414499999934 ], [ 139.107965241000102, -7.599482533999947 ], [ 139.108527539000079, -7.56007869299998 ], [ 139.100455535000037, -7.539633631999948 ], [ 139.053300510000099, -7.516697446999956 ], [ 138.963751125000044, -7.518638645999943 ], [ 138.911737865000077, -7.376862200999938 ], [ 138.867301970000085, -7.317540314999974 ], [ 138.812898085000029, -7.297889096999938 ], [ 138.772572337000042, -7.262601529999927 ], [ 138.683879767, -7.22943240099994 ], [ 138.666911814000059, -7.209973953999963 ], [ 138.682234296000047, -7.17324317899994 ], [ 139.524625232000062, -7.323539067999945 ], [ 139.531595459000073, -7.338343649999956 ], [ 139.547436469000104, -7.334382321999954 ], [ 139.550357985000119, -7.348224730999959 ], [ 139.565620478000028, -7.348234230999935 ], [ 139.568172352000033, -7.356598749999932 ], [ 139.581287344000089, -7.35820887999995 ], [ 139.583724013000051, -7.368637382999964 ], [ 139.630391724000106, -7.385844510999959 ], [ 139.647081430000071, -7.38630461799994 ], [ 139.659185204000096, -7.372454993999952 ], [ 139.784186308000017, -7.373289900999964 ], [ 139.792316081000081, -7.34964208599996 ], [ 140.089788805000012, -7.206984525999928 ], [ 140.101575165000099, -7.150032650999947 ], [ 140.112962903000039, -7.148963447999961 ], [ 140.121317832000045, -7.129266466999979 ], [ 140.138155623000102, -7.129813842999965 ], [ 140.167623113000104, -7.090946659999929 ], [ 140.179829196000014, -7.085767252999972 ], [ 140.182376206000072, -7.055301120999957 ], [ 140.195065683000053, -7.055955420999965 ], [ 140.212839055000018, -7.030843986999969 ], [ 140.234768757000097, -7.022010700999942 ], [ 140.255179875000067, -6.981137242999978 ], [ 140.326609610000105, -6.95086904599998 ], [ 140.320393413000033, -6.937581266999928 ], [ 140.354015197000081, -6.927944449999927 ], [ 140.365591275000043, -6.908047694999937 ], [ 140.361129786000106, -6.89442527999995 ], [ 140.3980114310001, -6.900790338999968 ], [ 140.409968223000078, -6.886692031999928 ], [ 140.424007043000074, -6.883896164999953 ], [ 140.44223743200007, -6.850086254999951 ], [ 140.49073807000002, -6.803954120999947 ], [ 140.491304557000035, -6.739023213999928 ], [ 140.534020980000037, -6.712493560999974 ], [ 140.542212386000074, -6.79969786099997 ], [ 140.55256123300012, -6.79868989299996 ], [ 140.547466046000068, -6.800726847999954 ], [ 140.557100713000068, -6.808853081999928 ], [ 140.552600335000079, -6.83404657799997 ], [ 140.567749480000089, -6.835658818999946 ], [ 140.558735002000049, -6.846814232999975 ], [ 140.57135322900001, -6.884475745999964 ], [ 140.55955740200011, -6.898062932999949 ], [ 140.567532452000023, -6.901159652999979 ], [ 140.565855290000059, -6.910806935999972 ], [ 140.573910459000103, -6.91040094899995 ], [ 140.573256681000089, -6.921619718999978 ], [ 140.58792852800002, -6.929323576999934 ], [ 140.5810284800001, -6.937565679999977 ], [ 140.586618410000028, -6.941725641999938 ], [ 140.577514317, -6.941708107999943 ], [ 140.582513334000055, -6.950368409999953 ], [ 140.566620787000033, -6.955038662999925 ], [ 140.559029438000039, -6.945823486999927 ], [ 140.562266116000046, -6.956374442999959 ], [ 140.551255058000038, -6.967355361999978 ], [ 140.557442616000117, -6.981723687999931 ], [ 140.57056883600012, -6.985801313999957 ], [ 140.568468949000021, -7.000904073999948 ], [ 140.585226589000058, -6.999487477999935 ], [ 140.58827907400007, -7.007340967999937 ], [ 140.590175639000108, -7.000132071999928 ], [ 140.595872565000036, -7.010258282999928 ], [ 140.60010043200009, -7.005186738999953 ], [ 140.60139107800012, -7.015480594999929 ], [ 140.589150848000031, -7.024586684999974 ], [ 140.594089194000048, -7.042377344999977 ], [ 140.58873160600001, -7.052554060999967 ], [ 140.605334765000066, -7.062620251999931 ], [ 140.62004420400001, -7.060839622999936 ], [ 140.629703403, -7.039464349999946 ], [ 140.66326325600005, -7.032591905999936 ], [ 140.675377332000039, -7.039616170999977 ], [ 140.684461124000109, -7.025657554999952 ], [ 140.705333959000086, -7.038939865999964 ], [ 140.71307545600007, -7.03211668199998 ], [ 140.744113494000089, -7.035989885999925 ], [ 140.758458194000013, -7.028494860999956 ], [ 140.79583949400012, -7.050545934999946 ], [ 140.812563705000116, -7.04474455299993 ], [ 140.820703611000113, -7.049495279999974 ], [ 140.828905127000098, -7.036569191999945 ], [ 140.817603955000095, -7.02057650699993 ], [ 140.820254, -6.999862505999943 ], [ 140.807039986000063, -6.998592871999961 ], [ 140.798857259000101, -6.97950170699994 ], [ 140.792238290000114, -6.980327752999926 ], [ 140.791745004000063, -6.960981710999931 ], [ 140.782979239000042, -6.951266055999952 ], [ 140.788024833, -6.933985546999963 ], [ 140.754535414000088, -6.885666434999962 ], [ 140.762398046000044, -6.876307177999934 ], [ 140.740398316000096, -6.873128941999937 ], [ 140.739967532000037, -6.862455242999943 ], [ 140.751969842000108, -6.851611946999981 ], [ 140.745172512000067, -6.813241209999944 ], [ 140.72642372200005, -6.786874230999956 ], [ 140.727449722000074, -6.758565009999927 ], [ 140.706956565000041, -6.736004284999979 ], [ 140.718124713000066, -6.725799552999945 ], [ 140.719447001000049, -6.69591064399998 ], [ 140.736088624000104, -6.688983724999957 ], [ 140.761581844000034, -6.69301769599997 ], [ 140.773776946000112, -6.682673388999945 ], [ 140.783011440000109, -6.687161453999977 ], [ 140.804349433000084, -6.667298568999968 ], [ 140.801182448000077, -6.643208060999939 ], [ 140.803862527000092, -6.649736534999931 ], [ 140.822537874000091, -6.646313532999955 ], [ 140.828191189000108, -6.637322821999931 ], [ 140.849505244000056, -6.631209884999976 ], [ 140.852569421000112, -6.623001754999962 ], [ 140.845282853000072, -6.615435407999939 ] ] ] ] } },
{ "type": "Feature", "properties": { "kemendagri_kab_code": 9302, "kemendagri_kab_name": "Kabupaten Boven Digoel", "kemendagri_prov_code": 93, "kemendagri_prov_name": "Papua Selatan" }, "geometry": { "type": "Polygon", "coordinates": [ [ [ 141.000747244000081, -5.168995590999941 ], [ 140.999975380000024, -6.32231244999997 ], [ 140.959733323000023, -6.325854524999954 ], [ 140.969495488000121, -6.344577091999952 ], [ 140.959932334000086, -6.353869174999943 ], [ 140.977545067000051, -6.364883691999978 ], [ 140.943879429000049, -6.372522722999975 ], [ 140.942292492000092, -6.384291617999963 ], [ 140.949578125000016, -6.389649241999962 ], [ 140.976857310000014, -6.382782740999971 ], [ 140.9823031090001, -6.389470682999956 ], [ 140.942111246000081, -6.412654172999964 ], [ 140.956094656000118, -6.419145881999953 ], [ 140.953460551000035, -6.43340380099994 ], [ 140.945733701000108, -6.437097280999978 ], [ 140.925831090000088, -6.418180690999975 ], [ 140.917336494000097, -6.422973014999968 ], [ 140.918568549000042, -6.436461097999938 ], [ 140.938885225000035, -6.444933946999981 ], [ 140.924447611000119, -6.458187232999933 ], [ 140.925188269000046, -6.466982827999971 ], [ 140.946720883000012, -6.467471841999952 ], [ 140.948197328000106, -6.479135848999931 ], [ 140.961068755000042, -6.486232543999961 ], [ 140.928326005000031, -6.493487509999966 ], [ 140.920909872000038, -6.503398890999961 ], [ 140.929929180000045, -6.536927777999949 ], [ 140.922085657000025, -6.551241938999965 ], [ 140.936740021000105, -6.561927960999981 ], [ 140.913304500000095, -6.557005451999942 ], [ 140.890542659000062, -6.562538942999936 ], [ 140.88912072700009, -6.573814160999973 ], [ 140.910538143000053, -6.570534620999979 ], [ 140.903709638, -6.592500487999928 ], [ 140.88930400300012, -6.605553993999933 ], [ 140.882415405000074, -6.593332982999925 ], [ 140.868345277000117, -6.605667568999934 ], [ 140.842470926000033, -6.610341493999954 ], [ 140.852569421000112, -6.623001754999962 ], [ 140.849505244000056, -6.631209884999976 ], [ 140.828191189000108, -6.637322821999931 ], [ 140.822475871000051, -6.646338945999958 ], [ 140.803862527000092, -6.649736534999931 ], [ 140.801182448000077, -6.643208060999939 ], [ 140.804349433000084, -6.667298568999968 ], [ 140.783011440000109, -6.687161453999977 ], [ 140.773776946000112, -6.682673388999945 ], [ 140.761581844000034, -6.69301769599997 ], [ 140.736088624000104, -6.688983724999957 ], [ 140.719447001000049, -6.69591064399998 ], [ 140.718124713000066, -6.725799552999945 ], [ 140.706956565000041, -6.736004284999979 ], [ 140.727449722000074, -6.758565009999927 ], [ 140.72642372200005, -6.786874230999956 ], [ 140.745172512000067, -6.813241209999944 ], [ 140.751969842000108, -6.851611946999981 ], [ 140.739967532000037, -6.862455242999943 ], [ 140.740398316000096, -6.873128941999937 ], [ 140.762398046000044, -6.876307177999934 ], [ 140.754535414000088, -6.885666434999962 ], [ 140.788024833, -6.933985546999963 ], [ 140.782979239000042, -6.951266055999952 ], [ 140.791745004000063, -6.960981710999931 ], [ 140.792285162000098, -6.980427052999971 ], [ 140.798857259000101, -6.97950170699994 ], [ 140.807039986000063, -6.998592871999961 ], [ 140.820254, -6.999862505999943 ], [ 140.817342249000035, -7.018940867999959 ], [ 140.828732378000041, -7.035452563999968 ], [ 140.826399317000096, -7.044531028999927 ], [ 140.803092824000032, -7.052671359999977 ], [ 140.758458194000013, -7.028494860999956 ], [ 140.744113494000089, -7.035989885999925 ], [ 140.71307545600007, -7.03211668199998 ], [ 140.705333959000086, -7.038939865999964 ], [ 140.684461124000109, -7.025657554999952 ], [ 140.675377332000039, -7.039616170999977 ], [ 140.66326325600005, -7.032591905999936 ], [ 140.629703403, -7.039464349999946 ], [ 140.62004420400001, -7.060839622999936 ], [ 140.605334765000066, -7.062620251999931 ], [ 140.58873160600001, -7.052554060999967 ], [ 140.594089194000048, -7.042377344999977 ], [ 140.589150848000031, -7.024586684999974 ], [ 140.60139107800012, -7.015480594999929 ], [ 140.60010043200009, -7.005186738999953 ], [ 140.595872565000036, -7.010258282999928 ], [ 140.590175639000108, -7.000132071999928 ], [ 140.58827907400007, -7.007340967999937 ], [ 140.585226589000058, -6.999487477999935 ], [ 140.568468949000021, -7.000904073999948 ], [ 140.57056883600012, -6.985801313999957 ], [ 140.557442616000117, -6.981723687999931 ], [ 140.551255058000038, -6.967355361999978 ], [ 140.562266116000046, -6.956374442999959 ], [ 140.559029438000039, -6.945823486999927 ], [ 140.566620787000033, -6.955038662999925 ], [ 140.582513334000055, -6.950368409999953 ], [ 140.577514317, -6.941708107999943 ], [ 140.586618410000028, -6.941725641999938 ], [ 140.5810284800001, -6.937565679999977 ], [ 140.58792852800002, -6.929323576999934 ], [ 140.573256681000089, -6.921619718999978 ], [ 140.573910459000103, -6.91040094899995 ], [ 140.565855290000059, -6.910806935999972 ], [ 140.567532452000023, -6.901159652999979 ], [ 140.55955740200011, -6.898062932999949 ], [ 140.57135322900001, -6.884475745999964 ], [ 140.558735002000049, -6.846814232999975 ], [ 140.567749480000089, -6.835658818999946 ], [ 140.552600335000079, -6.83404657799997 ], [ 140.557100713000068, -6.808853081999928 ], [ 140.547466046000068, -6.800726847999954 ], [ 140.55256123300012, -6.79868989299996 ], [ 140.542212386000074, -6.79969786099997 ], [ 140.534020980000037, -6.712493560999974 ], [ 140.491304557000035, -6.739023213999928 ], [ 140.49073807000002, -6.803954120999947 ], [ 140.44223743200007, -6.850086254999951 ], [ 140.424007043000074, -6.883896164999953 ], [ 140.409968223000078, -6.886692031999928 ], [ 140.3980114310001, -6.900790338999968 ], [ 140.361129786000106, -6.89442527999995 ], [ 140.365591275000043, -6.908047694999937 ], [ 140.354015197000081, -6.927944449999927 ], [ 140.320393413000033, -6.937581266999928 ], [ 140.326609610000105, -6.95086904599998 ], [ 140.255179875000067, -6.981137242999978 ], [ 140.234768757000097, -7.022010700999942 ], [ 140.212839055000018, -7.030843986999969 ], [ 140.195065683000053, -7.055955420999965 ], [ 140.182376206000072, -7.055301120999957 ], [ 140.179829196000014, -7.085767252999972 ], [ 140.167623113000104, -7.090946659999929 ], [ 140.138155623000102, -7.129813842999965 ], [ 140.121317832000045, -7.129266466999979 ], [ 140.112962903000039, -7.148963447999961 ], [ 140.101575165000099, -7.150032650999947 ], [ 140.096896856000058, -7.189653387999954 ], [ 140.084810185000038, -7.210137886999973 ], [ 140.08168364800008, -7.184700290999956 ], [ 140.060665075000088, -7.140275753999958 ], [ 140.079384227000105, -7.08064952899997 ], [ 140.066875469000024, -7.018423555999959 ], [ 140.040986933000113, -6.97483183099996 ], [ 140.056786554000041, -6.95122757799993 ], [ 140.052217989000042, -6.929526892999945 ], [ 140.07583317700005, -6.920137214999954 ], [ 140.068005276, -6.882871340999941 ], [ 140.065991667000048, -6.465577777999954 ], [ 139.939696814000058, -6.468476779999946 ], [ 139.886570161, -6.499725471999966 ], [ 139.797563889000116, -6.497902777999968 ], [ 139.717674457000044, -6.433649034999974 ], [ 139.707511111000031, -6.393347221999932 ], [ 139.821255556000096, -6.265588888999957 ], [ 139.811177778000115, -6.21541111099998 ], [ 139.827402868000036, -6.189528950999943 ], [ 139.862813889000108, -6.170233332999942 ], [ 139.858041667000066, -5.907888888999935 ], [ 139.842554089000032, -5.814581123999972 ], [ 139.717688310000085, -5.737670783999931 ], [ 139.713365802000112, -5.687638436999976 ], [ 139.816886111000031, -5.581866666999929 ], [ 139.772575435000022, -5.303796432999945 ], [ 139.7570750000001, -5.293852777999973 ], [ 139.775471332000052, -5.286298898999974 ], [ 139.793727765000085, -5.295130914999959 ], [ 139.851365222000027, -5.297693158999948 ], [ 139.880341459000078, -5.280879628999969 ], [ 139.890323691000049, -5.24163621699995 ], [ 139.940655293000077, -5.182572688999926 ], [ 139.953653682000095, -5.152763838999931 ], [ 139.970620600000075, -5.143356733999951 ], [ 139.987428601000033, -5.057493845999943 ], [ 139.887649045000103, -5.060770613999978 ], [ 139.907446957000047, -5.048086994999949 ], [ 139.943188408000083, -5.047733971999946 ], [ 139.949687832000109, -5.040957885999944 ], [ 140.020591408000087, -5.041408979999972 ], [ 140.040915914000038, -5.053616425999962 ], [ 140.091297425000107, -5.041991166999935 ], [ 140.1099011230001, -5.029330025999968 ], [ 140.108404614000051, -5.049493301999973 ], [ 140.111800713000093, -5.055102165999926 ], [ 140.140169649000086, -5.05487846099993 ], [ 140.185586735000015, -5.038292996999928 ], [ 140.215868779000061, -5.056017193999935 ], [ 140.237970916000108, -5.047494014999927 ], [ 140.257235292000018, -5.060892941999953 ], [ 140.255971282000019, -5.073766367999951 ], [ 140.284274937000077, -5.121449373999951 ], [ 140.275173251000069, -5.119016059999979 ], [ 140.268557079000061, -5.134499411999968 ], [ 140.295033228000079, -5.131096472999957 ], [ 140.303551286000015, -5.142308757999956 ], [ 140.296364864000111, -5.153990519999979 ], [ 140.310106355000016, -5.157572123999955 ], [ 140.315995643000065, -5.169714337999949 ], [ 140.352081070000054, -5.174658144999967 ], [ 140.352958332000071, -5.18651247899993 ], [ 140.387478357000077, -5.19621955599996 ], [ 140.387897728000098, -5.21273810699995 ], [ 140.412846225000067, -5.211949348999951 ], [ 140.434760126000015, -5.22794246199993 ], [ 140.469052046000115, -5.219637859999978 ], [ 140.515846464000106, -5.225959734999947 ], [ 140.521996581000053, -5.242040316999976 ], [ 140.544916928000021, -5.238210573999936 ], [ 140.554157470000064, -5.256063767999933 ], [ 140.593357758000025, -5.250434257999927 ], [ 140.636338259000013, -5.264729720999981 ], [ 140.724281229000098, -5.232415813999978 ], [ 140.726337560000047, -5.241391632999978 ], [ 140.741565841000011, -5.245772811999927 ], [ 140.753752460000101, -5.232785867999951 ], [ 140.79086506200008, -5.236032562999981 ], [ 140.788253, -5.230491898999958 ], [ 140.798983856000063, -5.224566172999971 ], [ 140.811970302000077, -5.236770878999948 ], [ 140.823287547000064, -5.23630576499994 ], [ 140.853657462000115, -5.228510708999977 ], [ 140.860479355000052, -5.217562907999934 ], [ 140.869635314000107, -5.221503968999968 ], [ 140.900891358000081, -5.191764226999965 ], [ 140.957476359000111, -5.195339342999944 ], [ 140.957697905000032, -5.189577036999935 ], [ 140.978049835000093, -5.185880330999964 ], [ 140.989694749000023, -5.193376478999937 ], [ 141.000747244000081, -5.168995590999941 ] ] ] } },
{ "type": "Feature", "properties": { "kemendagri_kab_code": 9303, "kemendagri_kab_name": "Kabupaten Mappi", "kemendagri_prov_code": 93, "kemendagri_prov_name": "Papua Selatan" }, "geometry": { "type": "MultiPolygon", "coordinates": [ [ [ [ 138.811749654000096, -6.830039822999936 ], [ 138.796429802000034, -6.827231349999977 ], [ 138.788102277000121, -6.806600231999937 ], [ 138.811749654000096, -6.830039822999936 ] ] ], [ [ [ 138.642068341000027, -6.735135250999974 ], [ 138.672183077000113, -6.753038064999942 ], [ 138.736243180000088, -6.759644771999945 ], [ 138.777232687000037, -6.800556135999955 ], [ 138.798755537000034, -6.834922984999935 ], [ 138.772568719000105, -6.846008239999946 ], [ 138.729122284000027, -6.88320409399995 ], [ 138.676383581000096, -6.86773736899994 ], [ 138.664760813000044, -6.821051881999949 ], [ 138.641456316000017, -6.807175032999965 ], [ 138.616773276000117, -6.770404165999935 ], [ 138.619328333000112, -6.738717136999981 ], [ 138.642068341000027, -6.735135250999974 ] ] ], [ [ [ 138.69570671300005, -6.626639440999952 ], [ 138.819813196000041, -6.703273183999954 ], [ 138.827608606000013, -6.740500483999938 ], [ 138.819993874000033, -6.772354935999942 ], [ 138.831022411000049, -6.789681434999977 ], [ 138.872238315000118, -6.80385346199995 ], [ 138.90924618400004, -6.786686033999956 ], [ 138.927695170000106, -6.788138231999937 ], [ 138.944429466000088, -6.799442114999977 ], [ 138.944077501000038, -6.826329975999954 ], [ 138.88791441, -6.818962515999942 ], [ 138.850648736000039, -6.828611813999942 ], [ 138.832610652000085, -6.824949041999957 ], [ 138.757449054000062, -6.753574687999958 ], [ 138.715783235000117, -6.732075489999943 ], [ 138.673967233000099, -6.724703703999978 ], [ 138.668599341000117, -6.655170313999974 ], [ 138.69570671300005, -6.626639440999952 ] ] ], [ [ [ 139.713365802000112, -5.687638436999976 ], [ 139.717688310000085, -5.737670783999931 ], [ 139.842554089000032, -5.814581123999972 ], [ 139.858041667000066, -5.907888888999935 ], [ 139.862813889000108, -6.170233332999942 ], [ 139.827402868000036, -6.189528950999943 ], [ 139.811177778000115, -6.21541111099998 ], [ 139.821255556000096, -6.265588888999957 ], [ 139.707511111000031, -6.393347221999932 ], [ 139.717674457000044, -6.433649034999974 ], [ 139.797563889000116, -6.497902777999968 ], [ 139.886570161, -6.499725471999966 ], [ 139.939696814000058, -6.468476779999946 ], [ 140.065991667000048, -6.465577777999954 ], [ 140.068005276, -6.882871340999941 ], [ 140.07583317700005, -6.920137214999954 ], [ 140.052217989000042, -6.929526892999945 ], [ 140.056786554000041, -6.95122757799993 ], [ 140.040986933000113, -6.97483183099996 ], [ 140.066875469000024, -7.018423555999959 ], [ 140.079384227000105, -7.08064952899997 ], [ 140.060665075000088, -7.140275753999958 ], [ 140.08168364800008, -7.184700290999956 ], [ 140.084810185000038, -7.210137886999973 ], [ 139.792316081000081, -7.34964208599996 ], [ 139.784186308000017, -7.373289900999964 ], [ 139.659185204000096, -7.372454993999952 ], [ 139.647081430000071, -7.38630461799994 ], [ 139.589281070000084, -7.371674500999973 ], [ 139.57758917700005, -7.355063150999968 ], [ 139.549101275000112, -7.347333323999976 ], [ 139.549592195000059, -7.335598785999935 ], [ 139.531595459000073, -7.338343649999956 ], [ 139.524625232000062, -7.323539067999945 ], [ 138.682234296000047, -7.17324317899994 ], [ 138.705988738000087, -7.07469053799997 ], [ 138.67539935800005, -7.052765888999943 ], [ 138.677851908000093, -7.047388568999963 ], [ 138.605627285000082, -7.002262129999963 ], [ 138.564104637000014, -6.934195664999947 ], [ 138.575342134000039, -6.910237585999937 ], [ 138.628188763000026, -6.875986120999926 ], [ 138.684074457000065, -6.900817007999933 ], [ 138.725392498000019, -6.900750341999981 ], [ 138.758799435000014, -6.886976772999958 ], [ 138.798288392000018, -6.850912016999928 ], [ 138.856603307000114, -6.852181453999947 ], [ 138.904206099000021, -6.838322880999954 ], [ 138.94064925400005, -6.845167680999964 ], [ 138.951857535000045, -6.826973318999933 ], [ 138.948148084000081, -6.795643992999942 ], [ 138.931224481000072, -6.783661420999977 ], [ 138.907817349000084, -6.781165382999973 ], [ 138.874836495000068, -6.79787026899993 ], [ 138.831345842000019, -6.781823986999939 ], [ 138.834310512000116, -6.73659011899997 ], [ 138.823260476000087, -6.695318920999966 ], [ 138.7961862840001, -6.667806895999945 ], [ 138.682488155000101, -6.607094190999931 ], [ 138.666923988, -6.588846044999968 ], [ 138.666361106000068, -6.573895553999932 ], [ 138.648761403000094, -6.573338599999943 ], [ 138.604407327000104, -6.523813821999966 ], [ 138.78319444400006, -6.403058332999933 ], [ 138.872338889000048, -6.178520832999936 ], [ 138.918734444000052, -6.152730555999938 ], [ 138.922940556000071, -5.656640555999957 ], [ 139.092526667000016, -5.562505832999932 ], [ 139.137728889000073, -5.646094443999971 ], [ 139.503842778000035, -5.59845833299994 ], [ 139.493383333000111, -5.5098 ], [ 139.563685833000022, -5.41534722199998 ], [ 139.69468757300001, -5.363718998999957 ], [ 139.724616346000062, -5.304320554999947 ], [ 139.7570750000001, -5.293852777999973 ], [ 139.772575435000022, -5.303796432999945 ], [ 139.816886111000031, -5.581866666999929 ], [ 139.713365802000112, -5.687638436999976 ] ] ] ] } },
{ "type": "Feature", "properties": { "kemendagri_kab_code": 9304, "kemendagri_kab_name": "Kabupaten Asmat", "kemendagri_prov_code": 93, "kemendagri_prov_name": "Papua Selatan" }, "geometry": { "type": "MultiPolygon", "coordinates": [ [ [ [ 137.82786013000009, -4.541468619999932 ], [ 137.940526881000096, -4.603116138999951 ], [ 137.974663601000088, -4.600074186999962 ], [ 137.974307091000014, -4.590936230999944 ], [ 137.994844165000018, -4.586072691999959 ], [ 138.029434532000096, -4.612210380999954 ], [ 138.038874342000099, -4.593675842999971 ], [ 138.050980225000103, -4.595315128999971 ], [ 138.059634685000105, -4.587321193999969 ], [ 138.070068083000024, -4.565338486999963 ], [ 138.108775799000114, -4.574722816999952 ], [ 138.132907655000054, -4.58892917299994 ], [ 138.124572734000026, -4.605537334999951 ], [ 138.142234283000107, -4.629622474999962 ], [ 138.153817909000054, -4.676006427999937 ], [ 138.170025198000076, -4.684390529999973 ], [ 138.192663645000039, -4.713479837999955 ], [ 138.202190123000037, -4.702885565999964 ], [ 138.211198202000105, -4.709455296999977 ], [ 138.243490253000118, -4.670033731999979 ], [ 138.281233794000059, -4.680646352999929 ], [ 138.301473495000096, -4.665094971999963 ], [ 138.325739436000049, -4.667533952999975 ], [ 138.339191178000078, -4.706267409999953 ], [ 138.356441350000068, -4.727232543999946 ], [ 138.346656875, -4.744708877999926 ], [ 138.357554961000119, -4.745365083999957 ], [ 138.355982235000056, -4.75641604499998 ], [ 138.373428198000056, -4.768114950999973 ], [ 138.363914838000028, -4.783758595999927 ], [ 138.370096905000082, -4.786970704999931 ], [ 138.366204721000031, -4.797159822999959 ], [ 138.372971194000115, -4.798342961999936 ], [ 138.371765608000032, -4.786217841999928 ], [ 138.368790667000098, -4.783001859999956 ], [ 138.380148640000016, -4.770832625999958 ], [ 138.374858737000068, -4.751534935999928 ], [ 138.380063262000021, -4.729000465999945 ], [ 138.368595492000054, -4.692717677999951 ], [ 138.375468513000101, -4.688609166999925 ], [ 138.410970080000084, -4.702862732999961 ], [ 138.419212929000082, -4.713874014999931 ], [ 138.459207835000029, -4.68845756099995 ], [ 138.504994458000056, -4.722037487999955 ], [ 138.523780663000025, -4.712941504999947 ], [ 138.535493520000045, -4.720748897999954 ], [ 138.556409336000115, -4.703618 ], [ 138.572305357000118, -4.707180654999945 ], [ 138.586908399000095, -4.698615090999965 ], [ 138.602953229000036, -4.723862013999963 ], [ 138.611997885000051, -4.718273043999943 ], [ 138.624859791000063, -4.723066044999939 ], [ 138.628792792000013, -4.716194498999926 ], [ 138.736478709000039, -4.718854214999965 ], [ 138.752779408000038, -4.708829824999953 ], [ 138.766642839000042, -4.722919925999975 ], [ 138.807597417000011, -4.72722224599994 ], [ 138.807861230000071, -4.744891948999964 ], [ 138.799592985000118, -4.749265335999951 ], [ 138.807592535000026, -4.767000897999935 ], [ 138.85460325300005, -4.701626722999947 ], [ 138.866713428000025, -4.716542874999959 ], [ 138.899141702000065, -4.727970341999935 ], [ 138.942694173000064, -4.763774162999937 ], [ 138.978923180000038, -4.757270202999962 ], [ 138.978835373000038, -4.766411658999971 ], [ 138.989726446000077, -4.771030405999966 ], [ 138.955258395000101, -4.786314149999953 ], [ 138.945127246000084, -4.802859890999969 ], [ 138.948987185000078, -4.81369482599996 ], [ 138.93254571500006, -4.831607063999968 ], [ 138.994035632000077, -4.833643668999969 ], [ 139.012124243000017, -4.842989711999962 ], [ 139.021816027000114, -4.837689399999931 ], [ 139.059127594000074, -4.867511824999951 ], [ 139.044425452000041, -4.871585311999979 ], [ 139.030166437000048, -4.859025475999943 ], [ 139.006547276000106, -4.875874267999961 ], [ 138.997086446000026, -4.873685043999956 ], [ 138.990721762000021, -4.885029055999951 ], [ 138.997631177000017, -4.891371362999962 ], [ 138.994483328000115, -4.901502889999961 ], [ 138.957390684000075, -4.923285692999968 ], [ 138.915717098000073, -4.914792058999979 ], [ 138.898194328000045, -4.927519385999972 ], [ 138.888563960000056, -4.921732979999945 ], [ 138.887851447000116, -4.956765109999935 ], [ 139.038403549, -4.983099423999931 ], [ 139.156641586000092, -4.993319112999927 ], [ 139.498206094000011, -5.002265940999962 ], [ 139.54870741600007, -5.039229321999926 ], [ 139.579221092000012, -5.05269670499996 ], [ 139.621550624000065, -5.058815541999934 ], [ 139.887935047000042, -5.063327382999944 ], [ 139.987428601000033, -5.057493845999943 ], [ 139.98047401700012, -5.118634045999954 ], [ 139.970620600000075, -5.143356733999951 ], [ 139.953653682000095, -5.152763838999931 ], [ 139.940655293000077, -5.182572688999926 ], [ 139.890151182000068, -5.241911218999974 ], [ 139.887921370000072, -5.270249404999959 ], [ 139.87934408600006, -5.281786699999941 ], [ 139.851365222000027, -5.297693158999948 ], [ 139.764132246000031, -5.287249077999945 ], [ 139.724616346000062, -5.304320554999947 ], [ 139.69468757300001, -5.363718998999957 ], [ 139.563685833000022, -5.41534722199998 ], [ 139.493383333000111, -5.5098 ], [ 139.503842778000035, -5.59845833299994 ], [ 139.137728889000073, -5.646094443999971 ], [ 139.092526667000016, -5.562505832999932 ], [ 138.922940556000071, -5.656640555999957 ], [ 138.918734444000052, -6.152730555999938 ], [ 138.872338889000048, -6.178520832999936 ], [ 138.78319444400006, -6.403058332999933 ], [ 138.604407327000104, -6.523813821999966 ], [ 138.422131091000097, -6.348664022999969 ], [ 138.420926507000104, -6.337986889999968 ], [ 138.432932760000085, -6.323223847999941 ], [ 138.411769757000116, -6.293018116999974 ], [ 138.383840012000064, -6.202579447999938 ], [ 138.383566681000048, -6.183876891999944 ], [ 138.395530290000011, -6.169813504999979 ], [ 138.354605348000064, -6.104855406999945 ], [ 138.350049064000018, -6.073782874999949 ], [ 138.279233767000051, -5.949443128999974 ], [ 138.284615164000115, -5.94301760899998 ], [ 138.252316370000017, -5.917451159999928 ], [ 138.252517845000057, -5.874540336999928 ], [ 138.26731725500008, -5.863702056999955 ], [ 138.276721217000045, -5.841042823999942 ], [ 138.231479134000097, -5.824375862999943 ], [ 138.184433867000052, -5.824067458999934 ], [ 138.165927153000098, -5.813721848999933 ], [ 138.154164346000016, -5.767671392999944 ], [ 138.157619841000042, -5.755175214999952 ], [ 138.176967920000038, -5.743930820999935 ], [ 138.166076845000021, -5.724099707999926 ], [ 138.132374327000093, -5.720959726999979 ], [ 138.096783510000023, -5.735154370999965 ], [ 138.093291013000112, -5.745718254999929 ], [ 138.066100439000024, -5.723997237999981 ], [ 138.066339114000016, -5.700535915999978 ], [ 138.055588158000091, -5.691392221999934 ], [ 138.046116311000105, -5.648871327999927 ], [ 138.049360773000103, -5.580936713999961 ], [ 138.065687242000081, -5.556041514999947 ], [ 138.134080613000037, -5.536673969999981 ], [ 138.128019309000024, -5.531236177999972 ], [ 138.08159975600006, -5.533705750999957 ], [ 138.083721157000014, -5.525271068999928 ], [ 138.060486264000019, -5.517648663999978 ], [ 138.054025878000061, -5.504569431999926 ], [ 138.009137684000052, -5.506327245999955 ], [ 137.899562574000015, -5.38674881299994 ], [ 137.893174348000116, -5.36943568199996 ], [ 137.863115608000044, -5.350093836999974 ], [ 137.847007419000079, -5.371927149999976 ], [ 137.812452363000034, -5.380561049999926 ], [ 137.773870209000052, -5.362593837999952 ], [ 137.768822129000114, -5.348212515999933 ], [ 137.746982643000024, -5.358152713999971 ], [ 137.749132709000037, -5.372666282999944 ], [ 137.735086022000019, -5.371696812999971 ], [ 137.723183272000028, -5.351513800999953 ], [ 137.726159859000063, -5.332855916999961 ], [ 137.732742592000022, -5.315383485999973 ], [ 137.753134185000022, -5.311506925999936 ], [ 137.740169692000109, -5.286748039999964 ], [ 137.732077145000062, -5.279037395999978 ], [ 137.716881907000015, -5.274440277999929 ], [ 137.681354006000106, -5.237506283999949 ], [ 137.684340071000065, -5.221075311999925 ], [ 137.653903790000072, -5.207776306999961 ], [ 137.639715014000103, -5.215474643999926 ], [ 137.552486503000068, -5.169316185999946 ], [ 137.559815728000103, -5.144276684999966 ], [ 137.613808317, -5.140020265999965 ], [ 137.650788653000063, -5.111863522999954 ], [ 137.664068352000072, -5.116671169999961 ], [ 137.660620780000045, -5.105708924999931 ], [ 137.645771133000039, -5.099158150999926 ], [ 137.654318362000026, -5.079256576999967 ], [ 137.637233139000045, -5.071182820999979 ], [ 137.667609339000023, -5.028416461999939 ], [ 137.683602349000012, -5.036207734999948 ], [ 137.686697822000042, -5.024384507999969 ], [ 137.700553309000043, -5.03423173799996 ], [ 137.708261436000043, -5.020675478999976 ], [ 137.720398379000017, -5.025422516999981 ], [ 137.727860131000057, -5.014043869999966 ], [ 137.747831836000046, -5.009305558999927 ], [ 137.74455393900007, -5.004051659999959 ], [ 137.752944106000086, -5.01142779099996 ], [ 137.763515846000018, -5.007813151999926 ], [ 137.785785053000041, -5.027719046999948 ], [ 137.819959818000029, -5.025905648999981 ], [ 137.817526474000033, -5.012808894999978 ], [ 137.808794460000058, -5.012305925999954 ], [ 137.818757599000037, -5.006232617999956 ], [ 137.805348079000055, -5.001639220999948 ], [ 137.819203178000066, -4.995035746999974 ], [ 137.814230725000016, -4.992392922999954 ], [ 137.824801067000067, -4.981659202999936 ], [ 137.820502740000052, -4.978718582999932 ], [ 137.831985825000061, -4.97591850699996 ], [ 137.823618583000098, -4.964354679999929 ], [ 137.833443920000036, -4.950214764999942 ], [ 137.829964301000018, -4.944316178999941 ], [ 137.842070635000027, -4.944832429999963 ], [ 137.83965644400007, -4.934717780999961 ], [ 137.85045186900004, -4.93222499899997 ], [ 137.836883829000044, -4.902150239999969 ], [ 137.824847651000027, -4.895673144999932 ], [ 137.842092703000048, -4.890397764999932 ], [ 137.865111196000043, -4.86341423999994 ], [ 137.89965277400006, -4.764046594999968 ], [ 137.892116048000048, -4.751452449999931 ], [ 137.850948987000038, -4.725187109999979 ], [ 137.837216253000065, -4.723994826999956 ], [ 137.833959383000092, -4.714890626999932 ], [ 137.827963344000068, -4.718224669999927 ], [ 137.830438273000027, -4.704483331999938 ], [ 137.823943144000054, -4.713379023999948 ], [ 137.826615960000026, -4.705532410999979 ], [ 137.818040677000113, -4.708863831999963 ], [ 137.819609812000067, -4.703075299999966 ], [ 137.816057382000054, -4.696140543999945 ], [ 137.81718387300009, -4.702716805999955 ], [ 137.806695441000102, -4.702497221999977 ], [ 137.808651368000028, -4.688258962999953 ], [ 137.801578867000103, -4.693577805999951 ], [ 137.790244293000114, -4.681810653999946 ], [ 137.78360973700012, -4.684065043999965 ], [ 137.786159268000119, -4.673373072999937 ], [ 137.752933826000117, -4.631138594999925 ], [ 137.740040684000064, -4.595604685999945 ], [ 137.743924383000035, -4.575872365999942 ], [ 137.81153693400006, -4.56970113999995 ], [ 137.819459530000017, -4.560405039999978 ], [ 137.817810820000091, -4.544596913999953 ], [ 137.82786013000009, -4.541468619999932 ] ] ], [ [ [ 137.719944217000034, -5.285938324999961 ], [ 137.736659044000021, -5.288914429999977 ], [ 137.720288853000056, -5.292890436999926 ], [ 137.719944217000034, -5.285938324999961 ] ] ], [ [ [ 137.51634402600007, -5.21041242299998 ], [ 137.51761465800007, -5.204680301999929 ], [ 137.519206517000043, -5.211654501999931 ], [ 137.51634402600007, -5.21041242299998 ] ] ], [ [ [ 137.5146032130001, -5.178725345999965 ], [ 137.508716921000087, -5.181039470999963 ], [ 137.509639091000054, -5.196254845999931 ], [ 137.496037114000046, -5.185567381999931 ], [ 137.509558634000086, -5.172256473999937 ], [ 137.5146032130001, -5.178725345999965 ] ] ] ] } }
]
}
