{
"type": "FeatureCollection",
"name": "94",
"crs": { "type": "name", "properties": { "name": "urn:ogc:def:crs:OGC:1.3:CRS84" } },
"features": [
{ "type": "Feature", "properties": { "kemendagri_kab_code": 9401, "kemendagri_kab_name": "Kabupaten Nabire", "kemendagri_prov_code": 94, "kemendagri_prov_name": "Papua Tengah" }, "geometry": { "type": "MultiPolygon", "coordinates": [ [ [ [ 134.83111181300012, -3.123626212999966 ], [ 134.83090955900002, -3.122650633999967 ], [ 134.831385451000074, -3.122531659999936 ], [ 134.83111181300012, -3.123626212999966 ] ] ], [ [ [ 134.8432833600001, -3.053799804999926 ], [ 134.842973802000074, -3.059778473999927 ], [ 134.835791395000115, -3.063774382999952 ], [ 134.842098009000097, -3.057760660999975 ], [ 134.8432833600001, -3.053799804999926 ] ] ], [ [ [ 134.841621020000048, -3.055908358999943 ], [ 134.840279232000057, -3.055364775999976 ], [ 134.84040338300008, -3.055100313999958 ], [ 134.841621020000048, -3.055908358999943 ] ] ], [ [ [ 134.84498580200011, -3.047753252999939 ], [ 134.844424615000094, -3.047227556999928 ], [ 134.844629077000036, -3.04711984599993 ], [ 134.84498580200011, -3.047753252999939 ] ] ], [ [ [ 134.835752687000081, -3.021472032999952 ], [ 134.84551776100011, -3.04458602099993 ], [ 134.836223424000082, -3.050258974999963 ], [ 134.841256956000052, -3.043737447999945 ], [ 134.831850608000082, -3.041717694999932 ], [ 134.837457692000044, -3.031940383999938 ], [ 134.828802490000044, -3.026260461999925 ], [ 134.835752687000081, -3.021472032999952 ] ] ], [ [ [ 134.828192497000032, -3.027148766999971 ], [ 134.827772644000106, -3.026623158999939 ], [ 134.828180222000015, -3.026585913999952 ], [ 134.828192497000032, -3.027148766999971 ] ] ], [ [ [ 134.844745273000058, -3.003975380999975 ], [ 134.844685787000117, -3.004284710999968 ], [ 134.844590609000079, -3.004201429999966 ], [ 134.844745273000058, -3.003975380999975 ] ] ], [ [ [ 134.849968190000027, -2.988235246999977 ], [ 134.850146650000056, -2.987866430999929 ], [ 134.850158547000092, -2.98827093899996 ], [ 134.849968190000027, -2.988235246999977 ] ] ], [ [ [ 134.840878649000047, -2.970579645999976 ], [ 134.841509207000058, -2.97204301499994 ], [ 134.840961931000038, -2.971876451999947 ], [ 134.840878649000047, -2.970579645999976 ] ] ], [ [ [ 134.847136632000115, -2.956255290999934 ], [ 134.847505448000106, -2.956219598999951 ], [ 134.847481654000035, -2.956505134999929 ], [ 134.847136632000115, -2.956255290999934 ] ] ], [ [ [ 134.799095978000082, -2.920992788999968 ], [ 134.79913384800011, -2.920611417999964 ], [ 134.799290591000045, -2.920604462999961 ], [ 134.799095978000082, -2.920992788999968 ] ] ], [ [ [ 134.80439608800009, -2.920551119999971 ], [ 134.804048352000109, -2.920528395999952 ], [ 134.804335589000061, -2.920416407999937 ], [ 134.80439608800009, -2.920551119999971 ] ] ], [ [ [ 134.800063333000026, -2.920315782999978 ], [ 134.799723530000051, -2.920574003999945 ], [ 134.799733097000058, -2.920409621999966 ], [ 134.800063333000026, -2.920315782999978 ] ] ], [ [ [ 134.827945403000058, -2.91386106899995 ], [ 134.827790739000079, -2.913908658999958 ], [ 134.827790739000079, -2.913813479999931 ], [ 134.827945403000058, -2.91386106899995 ] ] ], [ [ [ 134.803627312000117, -2.911624375999963 ], [ 134.803948540000079, -2.911422121999976 ], [ 134.804079410000099, -2.911505402999978 ], [ 134.803627312000117, -2.911624375999963 ] ] ], [ [ [ 134.802901577000057, -2.911148483999966 ], [ 134.803520237000043, -2.911231764999968 ], [ 134.80256845200006, -2.911207969999964 ], [ 134.802901577000057, -2.911148483999966 ] ] ], [ [ [ 134.801331132000087, -2.911207969999964 ], [ 134.801866511000071, -2.911017613999945 ], [ 134.802140149000024, -2.911112791999926 ], [ 134.801331132000087, -2.911207969999964 ] ] ], [ [ [ 134.853953788000013, -2.885573401999977 ], [ 134.854167939000035, -2.884490746999973 ], [ 134.854691421000098, -2.885049920999961 ], [ 134.853953788000013, -2.885573401999977 ] ] ], [ [ [ 134.85548854000001, -2.882218361999946 ], [ 134.855964432000064, -2.882242155999961 ], [ 134.855476642000099, -2.882515794999961 ], [ 134.85548854000001, -2.882218361999946 ] ] ], [ [ [ 134.856154789000016, -2.881920928999932 ], [ 134.856666373000053, -2.881932825999968 ], [ 134.856166687000041, -2.882432512999969 ], [ 134.856154789000016, -2.881920928999932 ] ] ], [ [ [ 134.822152291000066, -2.87961285199998 ], [ 134.822782849000077, -2.879589056999976 ], [ 134.822295059000112, -2.879827003999935 ], [ 134.822152291000066, -2.87961285199998 ] ] ], [ [ [ 134.824032066000086, -2.879719927999929 ], [ 134.823449098000083, -2.878446916999962 ], [ 134.824448471000096, -2.878006715999959 ], [ 134.824032066000086, -2.879719927999929 ] ] ], [ [ [ 134.830329211000048, -2.874356539999951 ], [ 134.830308927000033, -2.874922718999926 ], [ 134.829961081000079, -2.873726801999965 ], [ 134.830329211000048, -2.874356539999951 ] ] ], [ [ [ 134.806740991000083, -2.685688159999927 ], [ 134.84735239400004, -2.687389305999943 ], [ 134.863314745000025, -2.707585859999938 ], [ 134.837805070000059, -2.724655602999974 ], [ 134.805066835000048, -2.712534879999964 ], [ 134.806740991000083, -2.685688159999927 ] ] ], [ [ [ 136.01139344000012, -2.705852437999965 ], [ 136.048000958000102, -2.720454882999945 ], [ 136.053294042000061, -2.74146032699997 ], [ 136.044086581000101, -2.743858586999977 ], [ 136.057664530000011, -2.757222273999957 ], [ 136.049768825000115, -2.771026053999947 ], [ 136.088910959000032, -2.779354167999941 ], [ 136.143234967000012, -2.772896788999958 ], [ 136.147289005000061, -2.778662023999971 ], [ 136.138540067, -2.786896183999943 ], [ 136.143726555000057, -2.797315742999956 ], [ 136.146501797000042, -2.783454472999949 ], [ 136.153716576000079, -2.794113214999925 ], [ 136.162827245000017, -2.788677353999958 ], [ 136.163060249000068, -2.799571774999947 ], [ 136.180704571000092, -2.792581029999951 ], [ 136.183518761000073, -2.810336962999941 ], [ 136.188898972000061, -2.798247060999927 ], [ 136.204756982000049, -2.800728953999965 ], [ 136.202401481000038, -2.809880260999932 ], [ 136.217407289000107, -2.806780671999945 ], [ 136.218821523000088, -2.81747861499997 ], [ 136.229225507000024, -2.822462328999961 ], [ 136.222245386000054, -2.833831241999974 ], [ 136.231044740000016, -2.829216504999977 ], [ 136.229342348000046, -2.84142511999994 ], [ 136.238976404000027, -2.835591570999952 ], [ 136.246796907000089, -2.842076308999935 ], [ 136.239384398000084, -2.855160344999945 ], [ 136.242814357000043, -2.861218899999926 ], [ 136.251389041000039, -2.86216507599994 ], [ 136.24414579200004, -2.850553794999939 ], [ 136.253525930000023, -2.856149310999967 ], [ 136.265059111000028, -2.850499424999953 ], [ 136.260601677000068, -2.867251779999947 ], [ 136.273225244000059, -2.877447983999957 ], [ 136.265466856000103, -2.887121420999961 ], [ 136.280508268000062, -2.870998864999933 ], [ 136.278791979000061, -2.885266925999929 ], [ 136.295265955000104, -2.881749045999925 ], [ 136.28785257800007, -2.899644211999941 ], [ 136.29700888900004, -2.904249586999924 ], [ 136.288680046000081, -2.910929142999976 ], [ 136.299800211000047, -2.911919748999935 ], [ 136.3014842340001, -2.923629071999926 ], [ 136.310177449000093, -2.920592891999945 ], [ 136.301266751000071, -2.930106127999977 ], [ 136.304161011000019, -2.936259618999941 ], [ 136.311959970000089, -2.931668334999927 ], [ 136.308937286000059, -2.936959310999953 ], [ 136.319816906000028, -2.939779976999944 ], [ 136.305031451000104, -2.953846370999941 ], [ 136.297564798000053, -2.98713361199998 ], [ 136.311114483000097, -3.001142809999976 ], [ 136.310116418000121, -3.017761848999953 ], [ 136.319634837000081, -3.013732646999927 ], [ 136.318866100000037, -3.02428221599996 ], [ 136.329247104000046, -3.031420314999934 ], [ 136.322821320000116, -3.036607427999968 ], [ 136.331295232000116, -3.049130356999967 ], [ 136.325419326000087, -3.054791578999925 ], [ 136.335419146000049, -3.054165934999958 ], [ 136.324029009000014, -3.066200743999957 ], [ 136.332866091000028, -3.074680292999972 ], [ 136.334844140000087, -3.099209610999935 ], [ 136.314265649000049, -3.132689996999943 ], [ 136.324363331000086, -3.14891960999995 ], [ 136.321032821000017, -3.167811988999972 ], [ 136.35628487200006, -3.187307272999931 ], [ 136.355345150000062, -3.200325057999976 ], [ 136.378125318000116, -3.231898741999942 ], [ 136.379833902000087, -3.264848112999971 ], [ 136.394795665000061, -3.296923455999945 ], [ 136.392073715000038, -3.355817226999932 ], [ 136.384057756000061, -3.348063446999959 ], [ 136.388716325000019, -3.317422776999933 ], [ 136.379581907000102, -3.312226314999975 ], [ 136.34866643600003, -3.321166594999966 ], [ 136.305414840000026, -3.360851837999974 ], [ 136.281914753000024, -3.350594713999953 ], [ 136.282859490000078, -3.330107140999928 ], [ 136.265994112000044, -3.309981751999942 ], [ 136.239709153000035, -3.29725050199994 ], [ 136.223099781000087, -3.311256894999929 ], [ 136.212000854000053, -3.296310450999954 ], [ 136.187905612, -3.301107909999928 ], [ 136.179821254000103, -3.320806028999925 ], [ 136.182441587000085, -3.345792426999935 ], [ 136.154442529000107, -3.363733746999969 ], [ 136.159512679000045, -3.443797118999953 ], [ 136.151241558000038, -3.465356062999945 ], [ 136.129095011000118, -3.478492696999979 ], [ 136.102666738000039, -3.470140275999938 ], [ 136.090761497000017, -3.503925039999956 ], [ 136.055355451000082, -3.529326915999945 ], [ 136.051614413000038, -3.545336581999948 ], [ 136.019179138000027, -3.555702232999977 ], [ 135.990408586000058, -3.620631207999963 ], [ 136.000598099000058, -3.627266185999929 ], [ 136.01550166800007, -3.691110924999975 ], [ 136.032886076000068, -3.71142051399994 ], [ 136.068583989000103, -3.723702241999945 ], [ 136.077803779000078, -3.736060463999934 ], [ 136.093748737000055, -3.738505521999969 ], [ 136.102267595000058, -3.731315153999958 ], [ 136.11678361700001, -3.743654796999976 ], [ 136.115658295000117, -3.779724766999948 ], [ 136.101562648000026, -3.806810732999963 ], [ 136.116917531000013, -3.856932978999964 ], [ 136.126272398000083, -3.856798357999935 ], [ 136.127104764000023, -3.887456965999945 ], [ 136.119244417000118, -3.903940779999971 ], [ 136.102908034000052, -3.910981204999928 ], [ 136.081405446000076, -3.892262843999958 ], [ 136.060014271000114, -3.886097402999951 ], [ 136.040762213000107, -3.854320950999977 ], [ 136.011196248000033, -3.902740536999943 ], [ 135.969691687000022, -3.892740348999951 ], [ 135.954427155000076, -3.915417157999968 ], [ 135.921110550000094, -3.911010845999954 ], [ 135.907312107000052, -3.897050228999944 ], [ 135.850119566000103, -3.891558268999972 ], [ 135.835288351000031, -3.902750810999976 ], [ 135.76814382800012, -3.910220326999934 ], [ 135.705259606000027, -3.89035449499994 ], [ 135.696481089000031, -3.879399644999978 ], [ 135.683973467000101, -3.883287342999949 ], [ 135.676339940000048, -3.90327919899994 ], [ 135.650149824000096, -3.921428484999979 ], [ 135.623915638000085, -3.933341146999965 ], [ 135.582961941, -3.927302469999972 ], [ 135.569121701000086, -3.946783867999955 ], [ 135.552742881000086, -3.93073747699998 ], [ 135.530051416000106, -3.932324068999947 ], [ 135.504821384000024, -3.90894717599997 ], [ 135.495384883000042, -3.889180384999975 ], [ 135.456830054000079, -3.878329 ], [ 135.44470569300006, -3.864736235999942 ], [ 135.422434918000022, -3.876091282999937 ], [ 135.411822268000037, -3.893533022999975 ], [ 135.386214960000075, -3.885078160999967 ], [ 135.362399010000104, -3.862746991999927 ], [ 135.304697046000115, -3.859907508999925 ], [ 135.31373118700003, -3.81943051899998 ], [ 135.2917627490001, -3.80329960399996 ], [ 135.276399555000012, -3.823790164999934 ], [ 135.245269374000031, -3.824051545999964 ], [ 135.148126461000061, -3.74698566099994 ], [ 135.135021266000081, -3.68321644699995 ], [ 135.14622216600003, -3.664338421999958 ], [ 135.14276489100007, -3.655901882999956 ], [ 135.159368487000052, -3.632337703999951 ], [ 135.188762737000047, -3.62490571099994 ], [ 135.190845728000113, -3.613852836999968 ], [ 135.182274009000025, -3.605345247999935 ], [ 135.202815395000016, -3.584888473999968 ], [ 135.17494178700008, -3.57340940399996 ], [ 135.139061207000054, -3.612519921999933 ], [ 135.132606441, -3.581067834999942 ], [ 135.072140718000014, -3.584180097999933 ], [ 135.049855867000019, -3.610671865999961 ], [ 135.035212198000067, -3.600215706999961 ], [ 135.014253906000022, -3.598845137999945 ], [ 135.010199304000025, -3.582455409999966 ], [ 134.989583654000057, -3.584225728999968 ], [ 134.992034689000093, -3.563301700999943 ], [ 135.006663616000083, -3.551445131999969 ], [ 134.986336546000075, -3.542229955999971 ], [ 134.988696972000071, -3.531227327999943 ], [ 134.976533167000071, -3.513904851999939 ], [ 134.964190427000062, -3.510718277999956 ], [ 134.957408963000034, -3.490388162999977 ], [ 134.938777783000091, -3.488151469999934 ], [ 134.924908286000118, -3.476458036999929 ], [ 134.926888607000024, -3.459877647999974 ], [ 134.917378821000057, -3.438847780999936 ], [ 134.868718300000069, -3.424155069999927 ], [ 134.863868195, -3.402837856999952 ], [ 134.847013767000021, -3.383976288999975 ], [ 134.832866353000099, -3.386207135999939 ], [ 134.809837967000021, -3.369370391999951 ], [ 134.767534817000069, -3.377905299999952 ], [ 134.76049161200001, -3.387765785999932 ], [ 134.751857341000118, -3.370430123999938 ], [ 134.727586839000082, -3.361316787999954 ], [ 134.727002543000026, -3.316689089999954 ], [ 134.704999260000022, -3.292622163999965 ], [ 134.693701526000041, -3.29115935699997 ], [ 134.682456388000105, -3.257696838999948 ], [ 134.682222875000093, -3.202960166999958 ], [ 134.671362554000098, -3.191100521999942 ], [ 134.670360324000058, -3.17023602699993 ], [ 134.64701703500009, -3.166774461999978 ], [ 134.642967897000062, -3.143391591999944 ], [ 134.614605628000049, -3.137482846999944 ], [ 134.608837814000026, -3.127660431999971 ], [ 134.614567556000111, -3.11410146999998 ], [ 134.633197435000056, -3.114661128999956 ], [ 134.616980351000052, -3.083555131999958 ], [ 134.627602265000064, -3.076416748999975 ], [ 134.631352412000069, -3.051430092999965 ], [ 134.621692204000055, -2.997723200999928 ], [ 134.613979419000088, -2.99237147599996 ], [ 134.611349976000042, -2.964388735999933 ], [ 134.620584803000042, -2.963361087999942 ], [ 134.603738219000093, -2.924433105999981 ], [ 134.608853361000115, -2.906267850999939 ], [ 134.585257885000033, -2.802683416999969 ], [ 134.586701653000091, -2.795303295999929 ], [ 134.621065403000102, -2.790393482999946 ], [ 134.637481691000062, -2.757637254999963 ], [ 134.661429328000054, -2.756301105999967 ], [ 134.656374665000044, -2.771599787999946 ], [ 134.664560011000049, -2.785138920999941 ], [ 134.66163327400011, -2.836832711999932 ], [ 134.667486748000101, -2.866825817999938 ], [ 134.690615109000078, -2.896914101999926 ], [ 134.690611520000061, -2.904257763999965 ], [ 134.689806092000026, -2.907550292999929 ], [ 134.687016036000045, -2.907942824999964 ], [ 134.690109454000094, -2.896698216999937 ], [ 134.680972324000095, -2.889769225999942 ], [ 134.673643584000047, -2.922263145999977 ], [ 134.69061957100007, -2.934564759999944 ], [ 134.693843740000034, -2.948496503999934 ], [ 134.686407924000036, -2.966306768999971 ], [ 134.691533284000116, -2.971160869999949 ], [ 134.729126388000054, -2.980783409999958 ], [ 134.740190882000093, -2.990670070999954 ], [ 134.769517739000094, -2.990551097999969 ], [ 134.777941030000079, -2.982722670999976 ], [ 134.777167706000114, -2.941272459999936 ], [ 134.79734553500009, -2.951420861999964 ], [ 134.817642337000052, -2.940975026999979 ], [ 134.819593496000039, -2.935859185999959 ], [ 134.803163317000099, -2.932123431999969 ], [ 134.806101952000063, -2.922272463999946 ], [ 134.80421028000012, -2.911517299999957 ], [ 134.823055611000086, -2.917918050999958 ], [ 134.832049974000029, -2.91275461999993 ], [ 134.82346011900006, -2.900702649999971 ], [ 134.829588107000063, -2.877828256999976 ], [ 134.841247465000038, -2.89381823399998 ], [ 134.852835441000025, -2.886156369999981 ], [ 134.846184848, -2.898517668999943 ], [ 134.852347652000049, -2.916482599999938 ], [ 134.841663871000037, -2.940265312999941 ], [ 134.84983732000012, -2.953852035999944 ], [ 134.833216785000104, -2.959824482999977 ], [ 134.831479779000119, -2.968045519999976 ], [ 134.852764057000059, -3.002595293999946 ], [ 134.847231811000029, -3.000798800999974 ], [ 134.833918726000093, -3.006473815999925 ], [ 134.827053981000063, -3.01400480999996 ], [ 134.818666381000071, -3.011803807999968 ], [ 134.811004517000015, -3.03762095999997 ], [ 134.817693985000119, -3.052600150999979 ], [ 134.811183779000089, -3.064578357999949 ], [ 134.81926442800011, -3.067433709999932 ], [ 134.829640684000083, -3.094132641999977 ], [ 134.838320937000049, -3.095805807999966 ], [ 134.829992823000111, -3.100041248999958 ], [ 134.825331321000021, -3.08659146499997 ], [ 134.813046897000049, -3.08187227999997 ], [ 134.818549708000091, -3.106018851999977 ], [ 134.809855157000015, -3.104191425999943 ], [ 134.807816057000082, -3.118685601999971 ], [ 134.815240740000036, -3.120410939999942 ], [ 134.800186103000101, -3.131276367999931 ], [ 134.823874671000112, -3.134625354999969 ], [ 134.831747948000043, -3.124819877999926 ], [ 134.862536621000118, -3.159144743999946 ], [ 134.860171678000029, -3.179133169999943 ], [ 134.861785352000084, -3.181207594999933 ], [ 134.86438423300001, -3.180258843999979 ], [ 134.865195074000098, -3.184062728999947 ], [ 134.848684586000104, -3.192516688999945 ], [ 134.854870275000053, -3.194785175999925 ], [ 134.851058300000091, -3.206506187999935 ], [ 134.859330954000029, -3.226360154999952 ], [ 134.866807532000053, -3.204348855999967 ], [ 134.873684173000015, -3.208512911999946 ], [ 134.869639090000078, -3.222361374999934 ], [ 134.875392626, -3.22532380399997 ], [ 134.863662244000011, -3.230826466999929 ], [ 134.862106540000013, -3.250789177999934 ], [ 134.87766393600009, -3.246846601999948 ], [ 134.888026490000016, -3.258720111999935 ], [ 134.914590398000087, -3.260521663999953 ], [ 134.93489382000007, -3.272014875999957 ], [ 134.917198681000059, -3.244252988999961 ], [ 134.926407196000014, -3.237757059999979 ], [ 134.943801055000108, -3.247239211999954 ], [ 134.956864296000049, -3.244824059999928 ], [ 134.949904373000095, -3.223492191999981 ], [ 134.960457282000107, -3.225645603999965 ], [ 134.963610068000094, -3.248631196999952 ], [ 134.952819212, -3.248321866999959 ], [ 134.953283207000027, -3.270950540999934 ], [ 134.945240629000068, -3.283716348999974 ], [ 134.964684119000026, -3.307843728999956 ], [ 135.009777196000073, -3.33862341899993 ], [ 135.050091578000092, -3.328938006999977 ], [ 135.07004335900001, -3.33432748499996 ], [ 135.088006398000061, -3.345650272999933 ], [ 135.097883052000043, -3.372446450999973 ], [ 135.112589486000047, -3.38178848299998 ], [ 135.163520485000049, -3.370412011999974 ], [ 135.198843583000098, -3.381524093999928 ], [ 135.239652113000034, -3.375870331999977 ], [ 135.341551756000058, -3.397442688999945 ], [ 135.349337201000026, -3.387835138999947 ], [ 135.412971279000089, -3.367865987999949 ], [ 135.465488383000093, -3.374771850999934 ], [ 135.503313870000056, -3.356151945999954 ], [ 135.55804619200012, -3.300514594999925 ], [ 135.566278373000046, -3.267371371999957 ], [ 135.554455475000054, -3.26315963299993 ], [ 135.55621382400011, -3.257478835999962 ], [ 135.572742723000033, -3.234142021999958 ], [ 135.584023592000108, -3.235922495999944 ], [ 135.584249641000042, -3.212925005999978 ], [ 135.611662194000019, -3.180206514999952 ], [ 135.641840033000108, -3.162122294999961 ], [ 135.648304731000053, -3.168440981999936 ], [ 135.695535426000106, -3.15306667599998 ], [ 135.718193245000066, -3.127696360999948 ], [ 135.749405822000085, -3.117645452999966 ], [ 135.761475640000072, -3.09885729399997 ], [ 135.762475073000019, -3.110255860999928 ], [ 135.766758044000085, -3.110730803999957 ], [ 135.769280273000049, -3.106923665999943 ], [ 135.770424264000098, -3.10193740099993 ], [ 135.764479216000041, -3.090393934999952 ], [ 135.76790174000007, -3.087620877999939 ], [ 135.729979090000029, -3.075231192999979 ], [ 135.730233336000083, -3.067650242999946 ], [ 135.757620038000027, -3.049500117999969 ], [ 135.777612648000058, -3.06133626999997 ], [ 135.803225663000035, -3.048334197999964 ], [ 135.825477195000076, -3.02761967899994 ], [ 135.826875659000052, -3.013671166999927 ], [ 135.862131134000037, -3.000947675999953 ], [ 135.864121605000037, -2.991503800999965 ], [ 135.872563196000101, -2.998056144999964 ], [ 135.873859963000086, -2.997520807999933 ], [ 135.87579495500006, -2.991255536999972 ], [ 135.874377984000034, -2.986977704999958 ], [ 135.880051792000017, -2.992394139999931 ], [ 135.87954031400011, -2.985836192999955 ], [ 135.883596858000033, -2.989004439999974 ], [ 135.886464726000099, -2.990581906999978 ], [ 135.89409420100003, -2.990377835999936 ], [ 135.893565096000088, -2.982800390999955 ], [ 135.890819989000079, -2.977231980999932 ], [ 135.891917270000022, -2.975228745999971 ], [ 135.897792717000016, -2.973780574999978 ], [ 135.89882469600002, -2.975376197999935 ], [ 135.904810487000077, -2.978422945999966 ], [ 135.907569667000075, -2.97676456399995 ], [ 135.910580686000117, -2.973896698999965 ], [ 135.913087111000095, -2.963177683999959 ], [ 135.914946752000105, -2.968895529999941 ], [ 135.923728707, -2.960908041999971 ], [ 135.929239196000026, -2.939402921999942 ], [ 135.937796080000112, -2.944404099999929 ], [ 135.929469125000082, -2.884064805999969 ], [ 135.913331557000106, -2.897711297999933 ], [ 135.912384245000112, -2.879401994999967 ], [ 135.90544679300001, -2.870034204999968 ], [ 135.926755381000021, -2.859543002999942 ], [ 135.946906650000074, -2.832849115999977 ], [ 135.961939274000088, -2.794154898999977 ], [ 135.945806964000099, -2.78276279399995 ], [ 135.966734798000061, -2.764827509999975 ], [ 135.980472022000072, -2.764859328999933 ], [ 135.980225326000095, -2.754542538999942 ], [ 136.013690724000071, -2.718185093999978 ], [ 136.01139344000012, -2.705852437999965 ] ] ], [ [ [ 135.093437790000053, -3.290782031999925 ], [ 135.093539569000086, -3.28941241299998 ], [ 135.093809552000039, -3.290762336999933 ], [ 135.093437790000053, -3.290782031999925 ] ] ], [ [ [ 134.866166872, -3.243843163999941 ], [ 134.866473763000045, -3.244863506999934 ], [ 134.86437115800004, -3.244217323999976 ], [ 134.866166872, -3.243843163999941 ] ] ], [ [ [ 135.081503938000083, -3.216155644999958 ], [ 135.08036701900005, -3.215402185999949 ], [ 135.082125009000038, -3.214301143999933 ], [ 135.081503938000083, -3.216155644999958 ] ] ], [ [ [ 134.861326751000092, -3.179133909999962 ], [ 134.860486435000098, -3.179232252999952 ], [ 134.860486136000077, -3.178980539999941 ], [ 134.861326751000092, -3.179133909999962 ] ] ], [ [ [ 134.892669979000061, -3.162756004999949 ], [ 134.895204106000051, -3.165587563999964 ], [ 134.892598595000095, -3.166134839999927 ], [ 134.892669979000061, -3.162756004999949 ] ] ], [ [ [ 134.891147124000099, -3.162951120999935 ], [ 134.891139986000098, -3.16259420199998 ], [ 134.891546874000028, -3.162794075999955 ], [ 134.891147124000099, -3.162951120999935 ] ] ], [ [ [ 135.54662246800001, -3.105288842999926 ], [ 135.547562356000071, -3.103968241999951 ], [ 135.547574253000107, -3.105788529999927 ], [ 135.54662246800001, -3.105288842999926 ] ] ], [ [ [ 135.588274933000093, -3.103981328999964 ], [ 135.588120269000115, -3.10381476699996 ], [ 135.588298728000041, -3.103838561999964 ], [ 135.588274933000093, -3.103981328999964 ] ] ], [ [ [ 135.156661333000102, -3.102170350999927 ], [ 135.157258428000091, -3.103307257999973 ], [ 135.156391313000086, -3.103065486999981 ], [ 135.156661333000102, -3.102170350999927 ] ] ], [ [ [ 135.587287457000116, -3.094582457999934 ], [ 135.585824089000084, -3.105230545999973 ], [ 135.580601172000115, -3.101256846999945 ], [ 135.587287457000116, -3.094582457999934 ] ] ], [ [ [ 135.561910505000014, -3.090624224999942 ], [ 135.560539936000055, -3.088468432999946 ], [ 135.562210317000108, -3.087840255999936 ], [ 135.561910505000014, -3.090624224999942 ] ] ], [ [ [ 135.589050638000117, -3.086698113999944 ], [ 135.588865039000098, -3.086826604999942 ], [ 135.587865666000084, -3.086526792999962 ], [ 135.587380256000074, -3.085670186999948 ], [ 135.589050638000117, -3.086698113999944 ] ] ], [ [ [ 135.581940808000013, -3.091909133999934 ], [ 135.572118393000096, -3.088968119999947 ], [ 135.591491964000056, -3.072378517999937 ], [ 135.593433605000087, -3.078603187999931 ], [ 135.581940808000013, -3.091909133999934 ] ] ], [ [ [ 134.862912089000019, -3.052765566999938 ], [ 134.863406025000018, -3.053435898999965 ], [ 134.86259373900009, -3.053089545999967 ], [ 134.862912089000019, -3.052765566999938 ] ] ], [ [ [ 134.861063258000058, -3.049149083999964 ], [ 134.862628941000025, -3.050073422999958 ], [ 134.862530838000112, -3.05042844299993 ], [ 134.861063258000058, -3.049149083999964 ] ] ], [ [ [ 134.858154017000061, -3.04192659499995 ], [ 134.856957212000111, -3.04211513599995 ], [ 134.857505440000068, -3.041163234999942 ], [ 134.858154017000061, -3.04192659499995 ] ] ], [ [ [ 135.056446492000077, -3.010041736999938 ], [ 135.055670593000059, -3.007472379999967 ], [ 135.056027513000117, -3.006116086999953 ], [ 135.056446492000077, -3.010041736999938 ] ] ], [ [ [ 134.857189854000012, -2.992958476999945 ], [ 134.857070881000027, -2.988211451999973 ], [ 134.858581839000067, -2.988366117999931 ], [ 134.857189854000012, -2.992958476999945 ] ] ], [ [ [ 134.85686862700004, -2.880517046999955 ], [ 134.856725860000097, -2.88090965899994 ], [ 134.85686862700004, -2.880386176999934 ], [ 134.85686862700004, -2.880517046999955 ] ] ], [ [ [ 134.857630055000072, -2.878803834999928 ], [ 134.857463493000068, -2.879041780999955 ], [ 134.857439698, -2.878815732999954 ], [ 134.857630055000072, -2.878803834999928 ] ] ], [ [ [ 134.883717104000084, -2.547635387999946 ], [ 134.883357952000097, -2.545607920999942 ], [ 134.884296380000023, -2.546025 ], [ 134.883717104000084, -2.547635387999946 ] ] ], [ [ [ 134.96233419400005, -2.395671154999945 ], [ 134.961084977000041, -2.393696202999934 ], [ 134.96185830200011, -2.392684930999962 ], [ 134.96233419400005, -2.395671154999945 ] ] ], [ [ [ 134.865718560000118, -2.276298355999927 ], [ 134.864326575000064, -2.274823089999927 ], [ 134.865611484000055, -2.274597040999936 ], [ 134.865718560000118, -2.276298355999927 ] ] ], [ [ [ 135.65825707800002, -3.152071865999972 ], [ 135.659259115000054, -3.153748462999943 ], [ 135.654577929000084, -3.154649713999959 ], [ 135.65825707800002, -3.152071865999972 ] ] ], [ [ [ 135.768161926000062, -3.103675701999975 ], [ 135.764402378000113, -3.109124666999946 ], [ 135.762201376, -3.105912394999962 ], [ 135.768161926000062, -3.103675701999975 ] ] ], [ [ [ 135.763771821000091, -3.104651280999974 ], [ 135.764497556000038, -3.103877955999963 ], [ 135.764604632000101, -3.104401437999968 ], [ 135.763771821000091, -3.104651280999974 ] ] ], [ [ [ 135.588691339000093, -3.103338874999963 ], [ 135.588810312000078, -3.103671998999971 ], [ 135.588465290000045, -3.103612512999973 ], [ 135.588691339000093, -3.103338874999963 ] ] ], [ [ [ 135.625938946000019, -3.099524598999949 ], [ 135.625950843000055, -3.098751273999937 ], [ 135.626319660000036, -3.099798236999959 ], [ 135.625938946000019, -3.099524598999949 ] ] ], [ [ [ 135.598253917000079, -3.100773815999958 ], [ 135.59886067900004, -3.09453962799995 ], [ 135.602917660000116, -3.096336120999979 ], [ 135.598253917000079, -3.100773815999958 ] ] ], [ [ [ 135.604773640000076, -3.095491412999934 ], [ 135.606570133000105, -3.097323596999956 ], [ 135.604607078000072, -3.096145763999971 ], [ 135.604773640000076, -3.095491412999934 ] ] ], [ [ [ 135.603726828000049, -3.094672476999961 ], [ 135.603647685000055, -3.094066882999925 ], [ 135.603889544000026, -3.094154089999961 ], [ 135.603726828000049, -3.094672476999961 ] ] ], [ [ [ 135.609139951000088, -3.070483276999937 ], [ 135.625855664000028, -3.077823913999964 ], [ 135.619740450000108, -3.097347391999961 ], [ 135.612732937000033, -3.09574125599994 ], [ 135.617253913000013, -3.080786342999943 ], [ 135.609139951000088, -3.070483276999937 ] ] ], [ [ [ 135.780178204000094, -3.057683099999963 ], [ 135.781415524000067, -3.05607458399993 ], [ 135.781986594000045, -3.057264314999941 ], [ 135.780178204000094, -3.057683099999963 ] ] ], [ [ [ 135.797324600000024, -3.043777529999943 ], [ 135.794600117000073, -3.04669236999996 ], [ 135.792173067000022, -3.046775650999962 ], [ 135.797324600000024, -3.043777529999943 ] ] ], [ [ [ 135.799834932000067, -3.033367387999931 ], [ 135.791923223000026, -3.039387423999926 ], [ 135.792042196000011, -3.04802486799997 ], [ 135.773470504000102, -3.057744965999973 ], [ 135.770139258000086, -3.045324178999977 ], [ 135.799834932000067, -3.033367387999931 ] ] ], [ [ [ 135.796920091000061, -3.043420610999931 ], [ 135.798097925000093, -3.042421236999928 ], [ 135.797455470000045, -3.043634761999954 ], [ 135.796920091000061, -3.043420610999931 ] ] ], [ [ [ 135.872670233, -2.99790152199995 ], [ 135.866109931000096, -2.99166123599997 ], [ 135.866195550000043, -2.989601486999959 ], [ 135.873279940000089, -2.991755492999971 ], [ 135.872670233, -2.99790152199995 ] ] ], [ [ [ 135.88886009700002, -2.987778620999961 ], [ 135.881896876000042, -2.98718751399997 ], [ 135.880675181000015, -2.984332712999958 ], [ 135.88886009700002, -2.987778620999961 ] ] ], [ [ [ 135.8875177970001, -2.981698061999964 ], [ 135.892716531000019, -2.989459195999927 ], [ 135.882302401000061, -2.983225494999942 ], [ 135.8875177970001, -2.981698061999964 ] ] ], [ [ [ 135.893210087000057, -2.982685876999938 ], [ 135.887612846000025, -2.979947331999938 ], [ 135.888453948000119, -2.976199088999977 ], [ 135.893210087000057, -2.982685876999938 ] ] ], [ [ [ 135.90568263900002, -2.977264020999939 ], [ 135.906383866000056, -2.97701441199996 ], [ 135.905487797000092, -2.97757272399997 ], [ 135.90568263900002, -2.977264020999939 ] ] ], [ [ [ 135.905987310000114, -2.969007106999925 ], [ 135.904551341000115, -2.977847320999956 ], [ 135.898920757000042, -2.974777545999927 ], [ 135.905987310000114, -2.969007106999925 ] ] ], [ [ [ 135.730231515000014, -2.94102731299995 ], [ 135.806683597000074, -2.942426435999948 ], [ 135.796047406000071, -2.949850354999967 ], [ 135.781670703000032, -2.945838583999944 ], [ 135.773696148000113, -2.95880054099996 ], [ 135.744660566000107, -2.960429437999949 ], [ 135.756572515000016, -2.965250466999976 ], [ 135.741398926000102, -2.968758231999971 ], [ 135.730966421000062, -2.982706900999972 ], [ 135.709742978, -2.973522145999937 ], [ 135.709921561000101, -2.959570406999944 ], [ 135.718833201000052, -2.953926354999965 ], [ 135.7254447790001, -2.959334311999953 ], [ 135.730231515000014, -2.94102731299995 ] ] ], [ [ [ 135.727614108000012, -2.933336895999958 ], [ 135.731797201000063, -2.937746036999954 ], [ 135.726947858000017, -2.939675779999959 ], [ 135.727614108000012, -2.933336895999958 ] ] ], [ [ [ 135.689764021000087, -2.925491812999951 ], [ 135.737210474000108, -2.913784863999979 ], [ 135.73285606100012, -2.920828068999981 ], [ 135.717568024000116, -2.929382230999977 ], [ 135.672715183000037, -2.942957055999955 ], [ 135.689764021000087, -2.925491812999951 ] ] ], [ [ [ 135.90881907500011, -2.880123598999944 ], [ 135.908210190000091, -2.888096477999966 ], [ 135.904980893000015, -2.890223009999943 ], [ 135.900720152000076, -2.878159797999956 ], [ 135.90881907500011, -2.880123598999944 ] ] ] ] } },
{ "type": "Feature", "properties": { "kemendagri_kab_code": 9402, "kemendagri_kab_name": "Kabupaten Puncak Jaya", "kemendagri_prov_code": 94, "kemendagri_prov_name": "Papua Tengah" }, "geometry": { "type": "Polygon", "coordinates": [ [ [ 138.176784723000083, -3.110052413999938 ], [ 138.116965111000013, -3.117140780999932 ], [ 138.074658690000092, -3.131349082999975 ], [ 138.071906438000042, -3.198042383999962 ], [ 138.061878309, -3.209686301999966 ], [ 138.075227504000054, -3.225730443999964 ], [ 138.086613637000028, -3.225059635999969 ], [ 138.078665121000085, -3.243097428999931 ], [ 138.105860481000036, -3.272097905999942 ], [ 138.110110125000119, -3.286930438999946 ], [ 138.103434638000067, -3.306485055999929 ], [ 138.125842679000016, -3.294573511999943 ], [ 138.135358084000018, -3.297707043999935 ], [ 138.125613696000073, -3.318886229999976 ], [ 138.132649127000036, -3.328936695999971 ], [ 138.113705647000074, -3.334529044999954 ], [ 138.115086115000054, -3.401847787999941 ], [ 138.149947010000119, -3.426092041999937 ], [ 138.150785535000068, -3.436923185999945 ], [ 138.166178107000064, -3.434523996999928 ], [ 138.179259217000094, -3.445635652999954 ], [ 138.205511818000105, -3.433007733999943 ], [ 138.212615275000076, -3.441189092999934 ], [ 138.230438609000089, -3.441051994999953 ], [ 138.230797581000047, -3.471033214999977 ], [ 138.255565310000065, -3.473466597999959 ], [ 138.271007087000044, -3.490304555999955 ], [ 138.266500935000067, -3.517999761999931 ], [ 138.271956981000017, -3.526914130999955 ], [ 138.255372197000042, -3.557710200999963 ], [ 138.261453035000045, -3.595776162999925 ], [ 138.254800772000067, -3.619644471999948 ], [ 138.280616877000057, -3.650617159999967 ], [ 138.280328541000017, -3.67313495999997 ], [ 138.288612685000089, -3.685959619999949 ], [ 138.277651729000013, -3.696014601999934 ], [ 138.282657780000022, -3.704193159999932 ], [ 138.321067293000056, -3.707397903999947 ], [ 138.325212635000071, -3.718703994999942 ], [ 138.343396237000093, -3.726125443999933 ], [ 138.336638568000012, -3.746969521999972 ], [ 138.348628839000071, -3.76516972099995 ], [ 138.353940074000093, -3.825646321999955 ], [ 138.318021173000034, -3.837758619999931 ], [ 138.309641472000067, -3.828481254999929 ], [ 138.281122138000114, -3.821780830999955 ], [ 138.24496652400012, -3.840880282999933 ], [ 138.236192250000045, -3.869071767999969 ], [ 138.214246998000021, -3.885222879999958 ], [ 138.153210844000114, -3.911117457999978 ], [ 138.104153749000034, -3.911686560999954 ], [ 138.08573379500001, -3.907983917999957 ], [ 138.091819988000111, -3.903726608999932 ], [ 138.080346753000072, -3.889837408999938 ], [ 138.079526891000114, -3.873266417999957 ], [ 138.045931835000033, -3.851118483999926 ], [ 138.009978441000044, -3.84602098199997 ], [ 137.975138671000082, -3.859417567999969 ], [ 137.954304481, -3.848496944999965 ], [ 137.929999699000064, -3.849120890999927 ], [ 137.914314852000075, -3.814078551999955 ], [ 137.889920787000051, -3.809290499999975 ], [ 137.873057615000107, -3.78972908399993 ], [ 137.87953790600011, -3.766733467999927 ], [ 137.869873681000058, -3.72714612599998 ], [ 137.862772126000095, -3.718881557999964 ], [ 137.840104952000047, -3.719451165999942 ], [ 137.829524907000064, -3.694801326999936 ], [ 137.816160782000111, -3.684856501999946 ], [ 137.789471875000118, -3.708395856999971 ], [ 137.74896628800002, -3.724893773999952 ], [ 137.690130894000049, -3.711536422999927 ], [ 137.667546908000077, -3.692745516999935 ], [ 137.658544945000017, -3.681719875999931 ], [ 137.656877507000104, -3.652083491999974 ], [ 137.638076973000011, -3.64280602599996 ], [ 137.633660857000109, -3.611042299999951 ], [ 137.599193600000035, -3.605886289999944 ], [ 137.594353040000101, -3.593632409999941 ], [ 137.593872865000094, -3.575244237999925 ], [ 137.623693700000103, -3.565545559999975 ], [ 137.646706449000021, -3.537873833999924 ], [ 137.645209591000025, -3.526006362999965 ], [ 137.622449805000088, -3.50326548399994 ], [ 137.60627738300002, -3.461035875999926 ], [ 137.563897238000095, -3.438139790999969 ], [ 137.546611191000011, -3.441025925999952 ], [ 137.508485269000062, -3.428155560999926 ], [ 137.502274566000096, -3.404363491999959 ], [ 137.490841841000019, -3.407107009999947 ], [ 137.479720286000088, -3.385802775999935 ], [ 137.464376523000055, -3.380085016999942 ], [ 137.459472603000108, -3.357425014999933 ], [ 137.467147385000089, -3.352465562999953 ], [ 137.469406211000091, -3.324309032999963 ], [ 137.45980291300009, -3.299612167999953 ], [ 137.465735756000072, -3.286025429999938 ], [ 137.457935042000031, -3.27989202699996 ], [ 137.436939862000031, -3.288861586999928 ], [ 137.435065031000022, -3.265990167999973 ], [ 137.438052762000098, -3.248983471999964 ], [ 137.448966319000078, -3.229270011999972 ], [ 137.463051807000056, -3.222232810999969 ], [ 137.464240835000055, -3.209587927999962 ], [ 137.535796019000031, -3.14451721599994 ], [ 137.549171127000022, -3.121887016999949 ], [ 137.564933980000092, -3.115807940999957 ], [ 137.56755410300002, -3.100497471999972 ], [ 137.601294779000114, -3.10550602099994 ], [ 137.623351913000079, -3.091449358999967 ], [ 137.641016235000052, -3.097984733999965 ], [ 137.65714175700009, -3.084499003999952 ], [ 137.657949162000023, -3.067660616999945 ], [ 137.702546739000013, -3.03849162299997 ], [ 137.71197535400006, -3.041882354999927 ], [ 137.712921040000083, -3.057797649999941 ], [ 137.724943942000095, -3.065765130999978 ], [ 137.769123148000062, -3.049091590999979 ], [ 137.77072707800005, -3.064245713999981 ], [ 137.789628861000097, -3.083912914999928 ], [ 137.80660609500012, -3.065714978999949 ], [ 137.833285094000075, -3.071049780999942 ], [ 137.846710626000117, -3.048873755999978 ], [ 137.862168026000063, -3.056511156999932 ], [ 137.881537131000073, -3.083251017999942 ], [ 137.884907226000109, -3.039727171999971 ], [ 137.895858573000055, -3.038024298999972 ], [ 137.89944614400008, -3.051524796999956 ], [ 137.907895610000082, -3.051074756999981 ], [ 137.89842297600012, -3.014743956999951 ], [ 137.930263733000061, -3.025646170999948 ], [ 137.946660599000097, -3.003771785999959 ], [ 137.961120864, -3.00124806599996 ], [ 137.968325591000053, -3.011409855999943 ], [ 137.95827246500005, -3.027971283999932 ], [ 137.978405623000072, -3.03122441599993 ], [ 138.00986204600008, -3.021981453999956 ], [ 137.998223769000106, -2.992230271999972 ], [ 138.02582234800002, -3.015566284999977 ], [ 138.040985817000092, -2.989034636999975 ], [ 138.054840452, -2.983047490999979 ], [ 138.063697630000092, -2.996601003999956 ], [ 138.059554280000043, -3.022670747999939 ], [ 138.087145883000062, -3.029671122999957 ], [ 138.106977346, -3.023097539999981 ], [ 138.125044044000106, -3.027288935999934 ], [ 138.143974357000047, -3.046760529999972 ], [ 138.151698408000016, -3.03869399499996 ], [ 138.139197199000023, -3.023353669999949 ], [ 138.149778705000017, -3.00269394399993 ], [ 138.144537876000072, -2.993760726999938 ], [ 138.13263582400009, -2.992298578999964 ], [ 138.109967746000052, -3.007232777999945 ], [ 138.101743602000056, -3.00000001199993 ], [ 138.123924458000033, -2.977438044999928 ], [ 138.150867309000091, -2.984017834999975 ], [ 138.160395268000116, -2.970778148999955 ], [ 138.176057557000036, -2.996681384999931 ], [ 138.176784723000083, -3.110052413999938 ] ] ] } },
{ "type": "Feature", "properties": { "kemendagri_kab_code": 9403, "kemendagri_kab_name": "Kabupaten Paniai", "kemendagri_prov_code": 94, "kemendagri_prov_name": "Papua Tengah" }, "geometry": { "type": "Polygon", "coordinates": [ [ [ 136.392073715000038, -3.355817226999932 ], [ 136.368950372000086, -3.408417224999937 ], [ 136.37720318300012, -3.455470077999962 ], [ 136.422279676000016, -3.498928550999949 ], [ 136.417596312000114, -3.518358104999947 ], [ 136.435894488000031, -3.557248930999947 ], [ 136.470111514000109, -3.554949873999931 ], [ 136.479472476000069, -3.579534400999933 ], [ 136.498823071000061, -3.597106915999973 ], [ 136.513592103000065, -3.587727610999934 ], [ 136.540556382000091, -3.610662432999959 ], [ 136.578944315000058, -3.612945098999944 ], [ 136.590022281000074, -3.676222604999964 ], [ 136.564911764000044, -3.710880379999935 ], [ 136.58375709500001, -3.729122659999973 ], [ 136.616491292000092, -3.728859643999954 ], [ 136.664229229000057, -3.753546551999932 ], [ 136.68118288800008, -3.748192764999942 ], [ 136.714346626000065, -3.774366835999956 ], [ 136.779486846000054, -3.790395774999979 ], [ 136.805631174000041, -3.807264868999937 ], [ 136.841923903000065, -3.802768972999957 ], [ 136.860959591000096, -3.826563582999938 ], [ 136.924494007000021, -3.832667137999977 ], [ 136.932742781000115, -3.825648017999924 ], [ 136.996448908000048, -3.83966275399996 ], [ 136.993499707000069, -3.852745438999932 ], [ 137.009347150000053, -3.882460006999963 ], [ 137.021732966000059, -3.942793403999929 ], [ 137.095801244000086, -4.034225333999927 ], [ 137.082161642000074, -4.038765223999974 ], [ 137.072704712000018, -4.055303429999981 ], [ 137.039637333000087, -4.044162693999965 ], [ 137.031865130000028, -4.049028094999926 ], [ 137.02816223700006, -4.077226591999931 ], [ 137.011125667000101, -4.077786197999956 ], [ 137.019618395000066, -4.112901034999936 ], [ 137.008570644000088, -4.130669449999971 ], [ 136.997770107000065, -4.133165521999956 ], [ 136.989157833000036, -4.118948771999953 ], [ 136.978004106000071, -4.117369054999926 ], [ 136.961784244000114, -4.125102755999933 ], [ 136.935241800000085, -4.120632199999932 ], [ 136.922278169000037, -4.128494924999927 ], [ 136.880737439000086, -4.116112451999925 ], [ 136.863833212000031, -4.100821856999971 ], [ 136.847955274000014, -4.108433179999963 ], [ 136.817202105000092, -4.08852699199997 ], [ 136.775036545000034, -4.07851570899993 ], [ 136.723126863000061, -4.090734343999941 ], [ 136.723904838000067, -4.10714229599995 ], [ 136.736975427000061, -4.11998508399995 ], [ 136.760662080000088, -4.12528961299995 ], [ 136.770624811000062, -4.165361959999927 ], [ 136.755455747000042, -4.177110547999973 ], [ 136.723002215000065, -4.179172047999941 ], [ 136.69819996700005, -4.192428328999938 ], [ 136.680205293000085, -4.188710420999939 ], [ 136.660723456000028, -4.171459328999958 ], [ 136.636928846000046, -4.171161895999944 ], [ 136.573880640000084, -4.148070277999977 ], [ 136.576735993000057, -4.133222441999976 ], [ 136.60224481900002, -4.128008670999975 ], [ 136.601835629000107, -4.097346977999962 ], [ 136.575523222000015, -4.081925845999933 ], [ 136.566405063000047, -4.084077300999979 ], [ 136.571504032000121, -4.06386092799994 ], [ 136.561108141000091, -4.06540475099996 ], [ 136.556998838000027, -4.050869069999976 ], [ 136.508494266000071, -4.020846280999933 ], [ 136.431896952000102, -4.016698388999941 ], [ 136.397528837000095, -4.002796125999964 ], [ 136.393264806000047, -4.010147227999937 ], [ 136.362515666000036, -4.005145937999941 ], [ 136.348613140000111, -3.995427019999966 ], [ 136.357065888000079, -3.989627359999929 ], [ 136.348709174000078, -3.97259147799997 ], [ 136.314937733000079, -3.995654112999944 ], [ 136.273436504000074, -3.980236982999941 ], [ 136.214293952000048, -3.998250764999966 ], [ 136.188976235000041, -3.976648841999975 ], [ 136.206974228000036, -3.953350051999962 ], [ 136.19449747200008, -3.950546251999981 ], [ 136.167765526000039, -3.962094159999936 ], [ 136.144083385000044, -3.94670872699993 ], [ 136.143360676000043, -3.929294653999932 ], [ 136.127672625000059, -3.904554977999965 ], [ 136.126272398000083, -3.856798357999935 ], [ 136.116917531000013, -3.856932978999964 ], [ 136.101562648000026, -3.806810732999963 ], [ 136.115658295000117, -3.779724766999948 ], [ 136.116641153000046, -3.743247943999961 ], [ 136.102267595000058, -3.731315153999958 ], [ 136.093748737000055, -3.738505521999969 ], [ 136.077803779000078, -3.736060463999934 ], [ 136.068583989000103, -3.723702241999945 ], [ 136.026273530000026, -3.70575219899996 ], [ 136.014077493000059, -3.686940308999965 ], [ 136.000551965000113, -3.627145811999981 ], [ 135.990408586000058, -3.620631207999963 ], [ 136.019179138000027, -3.555702232999977 ], [ 136.051614413000038, -3.545336581999948 ], [ 136.055355451000082, -3.529326915999945 ], [ 136.090761497000017, -3.503925039999956 ], [ 136.102666738000039, -3.470140275999938 ], [ 136.129095011000118, -3.478492696999979 ], [ 136.153267912000047, -3.462086026999941 ], [ 136.159512679000045, -3.443797118999953 ], [ 136.154442529000107, -3.363733746999969 ], [ 136.182441587000085, -3.345792426999935 ], [ 136.179821254000103, -3.320806028999925 ], [ 136.187905612, -3.301107909999928 ], [ 136.212000854000053, -3.296310450999954 ], [ 136.223099781000087, -3.311256894999929 ], [ 136.239709153000035, -3.29725050199994 ], [ 136.265994112000044, -3.309981751999942 ], [ 136.282859490000078, -3.330107140999928 ], [ 136.281914753000024, -3.350594713999953 ], [ 136.305414840000026, -3.360851837999974 ], [ 136.34866643600003, -3.321166594999966 ], [ 136.380040251000082, -3.312225673999933 ], [ 136.388716325000019, -3.317422776999933 ], [ 136.384057756000061, -3.348063446999959 ], [ 136.392073715000038, -3.355817226999932 ] ] ] } },
{ "type": "Feature", "properties": { "kemendagri_kab_code": 9404, "kemendagri_kab_name": "Kabupaten Mimika", "kemendagri_prov_code": 94, "kemendagri_prov_name": "Papua Tengah" }, "geometry": { "type": "MultiPolygon", "coordinates": [ [ [ [ 136.448919341000078, -4.736268483999936 ], [ 136.451663021000059, -4.736019475999967 ], [ 136.452042384000038, -4.737856773999965 ], [ 136.448919341000078, -4.736268483999936 ] ] ], [ [ [ 136.445310690000042, -4.719060340999931 ], [ 136.434060647000024, -4.727683665999962 ], [ 136.429841814000042, -4.724621140999943 ], [ 136.433160825000073, -4.723482350999973 ], [ 136.434714613000097, -4.721580843999959 ], [ 136.435630048, -4.722513597999978 ], [ 136.436870405000036, -4.722899065999968 ], [ 136.445310690000042, -4.719060340999931 ] ] ], [ [ [ 136.429432686000041, -4.720640659999958 ], [ 136.434958984000104, -4.720753683999931 ], [ 136.429334533000088, -4.723998673999972 ], [ 136.429432686000041, -4.720640659999958 ] ] ], [ [ [ 136.428344796000033, -4.721224340999925 ], [ 136.427141979000112, -4.719771679999951 ], [ 136.430143669000017, -4.718818705999979 ], [ 136.428344796000033, -4.721224340999925 ] ] ], [ [ [ 136.313557491000097, -4.662683663999928 ], [ 136.311587298000063, -4.666481283999929 ], [ 136.30901748000008, -4.663740144999963 ], [ 136.313557491000097, -4.662683663999928 ] ] ], [ [ [ 136.209026233000031, -4.652922036999939 ], [ 136.205504630000064, -4.650585405999948 ], [ 136.205753760000107, -4.649503227999958 ], [ 136.209026233000031, -4.652922036999939 ] ] ], [ [ [ 136.205521762000103, -4.64938187499996 ], [ 136.204782940000086, -4.649135600999955 ], [ 136.204836478000061, -4.648757266999951 ], [ 136.205521762000103, -4.64938187499996 ] ] ], [ [ [ 136.090363003000107, -4.600681394999981 ], [ 136.090367762000028, -4.601476134999928 ], [ 136.090210717000105, -4.60151420699998 ], [ 136.090363003000107, -4.600681394999981 ] ] ], [ [ [ 137.118546774000038, -4.032034204999945 ], [ 137.124115331000098, -4.039483664999977 ], [ 137.151848348000044, -4.038285275999954 ], [ 137.162740149000115, -4.063974547999976 ], [ 137.184430083000052, -4.075364888999957 ], [ 137.193059332000075, -4.057386507999979 ], [ 137.213130099000068, -4.066363359999968 ], [ 137.236993725000048, -4.057468425999957 ], [ 137.266727894000041, -4.069751302999975 ], [ 137.283947611000031, -4.053820966999979 ], [ 137.325416782000048, -4.071939642999951 ], [ 137.408642136000026, -4.07480929299993 ], [ 137.420911686000068, -4.09209218899997 ], [ 137.488041797000051, -4.120463249999943 ], [ 137.51145736400008, -4.14454220999994 ], [ 137.561602917000073, -4.148446157999956 ], [ 137.564765467000029, -4.169000695999955 ], [ 137.580169740000088, -4.182101935999981 ], [ 137.578633141000068, -4.192177847999972 ], [ 137.619728142000099, -4.18721549199995 ], [ 137.630096821000052, -4.198970978999967 ], [ 137.66427550100002, -4.203039789999934 ], [ 137.711490041000047, -4.191618792999975 ], [ 137.729755834000116, -4.200115893999964 ], [ 137.753677796000034, -4.191295664999927 ], [ 137.780660068000088, -4.192609172999937 ], [ 137.818889063000029, -4.198420255999963 ], [ 137.836847311000042, -4.211592476999954 ], [ 137.842154067000024, -4.193253089999928 ], [ 137.873891963000119, -4.177527957999928 ], [ 137.925574917000063, -4.190353239999979 ], [ 137.924969943000065, -4.162457052999969 ], [ 137.95400952500006, -4.16567592499996 ], [ 137.948096718000102, -4.151093594999963 ], [ 137.958105363000072, -4.15336412399995 ], [ 137.964858082000092, -4.17049293599996 ], [ 137.958873068000116, -4.203817565999941 ], [ 137.879853193000031, -4.206329118999975 ], [ 137.877300437000031, -4.239670718999946 ], [ 137.898486251, -4.259962167999959 ], [ 137.880574061000061, -4.275841594999974 ], [ 137.869494467000095, -4.27299187899996 ], [ 137.859391444000039, -4.281127842999979 ], [ 137.86384832900012, -4.294370828999945 ], [ 137.881428029000062, -4.304392800999949 ], [ 137.874395839000044, -4.318873692999944 ], [ 137.884919511000021, -4.342111083999953 ], [ 137.860714668000014, -4.35228935799995 ], [ 137.85752212400007, -4.364996514999973 ], [ 137.864533048000112, -4.371972288999928 ], [ 137.864744540000061, -4.40294076899994 ], [ 137.87561787300001, -4.396777247999978 ], [ 137.894389378000028, -4.408881237999935 ], [ 137.866651980000029, -4.409563220999928 ], [ 137.855934457000103, -4.451225371999953 ], [ 137.844589131000021, -4.45981884899993 ], [ 137.834573295000041, -4.485688386999925 ], [ 137.841592381000055, -4.493232740999929 ], [ 137.833753892000118, -4.499999983999942 ], [ 137.829537655000081, -4.541315668999971 ], [ 137.817810820000091, -4.544596913999953 ], [ 137.819459530000017, -4.560405039999978 ], [ 137.81153693400006, -4.56970113999995 ], [ 137.743924383000035, -4.575872365999942 ], [ 137.740040684000064, -4.595604685999945 ], [ 137.752933826000117, -4.631138594999925 ], [ 137.786159268000119, -4.673373072999937 ], [ 137.78360973700012, -4.684065043999965 ], [ 137.790244293000114, -4.681810653999946 ], [ 137.801578867000103, -4.693577805999951 ], [ 137.808651368000028, -4.688258962999953 ], [ 137.806695441000102, -4.702497221999977 ], [ 137.81718387300009, -4.702716805999955 ], [ 137.816057382000054, -4.696140543999945 ], [ 137.819609812000067, -4.703075299999966 ], [ 137.818040677000113, -4.708863831999963 ], [ 137.826615960000026, -4.705532410999979 ], [ 137.823943144000054, -4.713379023999948 ], [ 137.830438273000027, -4.704483331999938 ], [ 137.827963344000068, -4.718224669999927 ], [ 137.833959383000092, -4.714890626999932 ], [ 137.837216253000065, -4.723994826999956 ], [ 137.850948987000038, -4.725187109999979 ], [ 137.892116048000048, -4.751452449999931 ], [ 137.89965277400006, -4.764046594999968 ], [ 137.865111196000043, -4.86341423999994 ], [ 137.842092703000048, -4.890397764999932 ], [ 137.824847651000027, -4.895673144999932 ], [ 137.836883829000044, -4.902150239999969 ], [ 137.85045186900004, -4.93222499899997 ], [ 137.83965644400007, -4.934717780999961 ], [ 137.842070635000027, -4.944832429999963 ], [ 137.829964301000018, -4.944316178999941 ], [ 137.833443920000036, -4.950214764999942 ], [ 137.823618583000098, -4.964354679999929 ], [ 137.831985825000061, -4.97591850699996 ], [ 137.820502740000052, -4.978718582999932 ], [ 137.824801067000067, -4.981659202999936 ], [ 137.814230725000016, -4.992392922999954 ], [ 137.819203178000066, -4.995035746999974 ], [ 137.805348079000055, -5.001639220999948 ], [ 137.818757599000037, -5.006232617999956 ], [ 137.808794460000058, -5.012305925999954 ], [ 137.817526474000033, -5.012808894999978 ], [ 137.819959818000029, -5.025905648999981 ], [ 137.785785053000041, -5.027719046999948 ], [ 137.763515846000018, -5.007813151999926 ], [ 137.752944106000086, -5.01142779099996 ], [ 137.74455393900007, -5.004051659999959 ], [ 137.747831836000046, -5.009305558999927 ], [ 137.727860131000057, -5.014043869999966 ], [ 137.720398379000017, -5.025422516999981 ], [ 137.708261436000043, -5.020675478999976 ], [ 137.700553309000043, -5.03423173799996 ], [ 137.686697822000042, -5.024384507999969 ], [ 137.683602349000012, -5.036207734999948 ], [ 137.66819453800008, -5.028126303999954 ], [ 137.637233139000045, -5.071182820999979 ], [ 137.654318362000026, -5.079256576999967 ], [ 137.645771133000039, -5.099158150999926 ], [ 137.660620780000045, -5.105708924999931 ], [ 137.663091228000098, -5.117751204999934 ], [ 137.650788653000063, -5.111863522999954 ], [ 137.613808317, -5.140020265999965 ], [ 137.580722700000024, -5.138053051999975 ], [ 137.557642495000096, -5.145599804999961 ], [ 137.547613301000069, -5.137404645999936 ], [ 137.5201919860001, -5.134699173999934 ], [ 137.497799414000042, -5.14593100299993 ], [ 137.475238273000059, -5.115639676999933 ], [ 137.44939075700006, -5.099001016999978 ], [ 137.438492825000026, -5.099857622999934 ], [ 137.435290417000033, -5.11471217999997 ], [ 137.42268403300011, -5.124862960999963 ], [ 137.416407530000015, -5.113076369999931 ], [ 137.395026487000109, -5.107960052999942 ], [ 137.340652430000091, -5.057189956999935 ], [ 137.328393786000106, -5.026782019999928 ], [ 137.307484570000042, -5.012082106999969 ], [ 137.295656983000072, -5.010694761999957 ], [ 137.281546184000035, -5.024425143999963 ], [ 137.246919316000117, -5.002525060999972 ], [ 137.238352314000053, -4.986526546999926 ], [ 137.21184908400005, -4.977472697999929 ], [ 137.201301959000034, -4.996200035999948 ], [ 137.186463656000114, -4.998532196999975 ], [ 137.181704575000026, -5.007638552999936 ], [ 137.165615850000108, -4.985612377999928 ], [ 137.14906669800007, -4.977319955999974 ], [ 137.158358494000026, -4.98048463899994 ], [ 137.155586422000056, -4.975761408999972 ], [ 137.126235830000041, -4.960544012999947 ], [ 137.115063145000022, -4.95967290699997 ], [ 137.107897576000028, -4.974336939999944 ], [ 137.093758423000054, -4.974564971999939 ], [ 137.05960343300012, -4.935308912999972 ], [ 137.032027891000098, -4.917746714999964 ], [ 137.007395567000117, -4.935962304999975 ], [ 136.984234979000121, -4.931422864999945 ], [ 136.97449262300006, -4.937561873999925 ], [ 136.957924050000088, -4.91693033699994 ], [ 136.92723073500008, -4.898850639999978 ], [ 136.927713137000069, -4.885753379999926 ], [ 136.900117753000018, -4.880559722999976 ], [ 136.830799808000052, -4.913851785999952 ], [ 136.827867556000115, -4.909439004999967 ], [ 136.796706461000099, -4.893635886999959 ], [ 136.788896648000105, -4.878435356999944 ], [ 136.808098, -4.833555 ], [ 136.843608876000076, -4.835889627999961 ], [ 136.845031635000055, -4.827733548999959 ], [ 136.817004162000103, -4.821831989999964 ], [ 136.787202035000064, -4.832041496999977 ], [ 136.768132274000095, -4.813714022999932 ], [ 136.753577846000098, -4.870497369999953 ], [ 136.738672902000076, -4.871496743999955 ], [ 136.697051995000038, -4.842152694999925 ], [ 136.677516297000011, -4.846522963999973 ], [ 136.643003598000064, -4.821838859999957 ], [ 136.631486067000083, -4.82639792599997 ], [ 136.572792666000055, -4.800535280999952 ], [ 136.56625439000004, -4.78202119499997 ], [ 136.541264807000061, -4.788304851999953 ], [ 136.532175266000081, -4.780048121999926 ], [ 136.540407747000017, -4.773322290999943 ], [ 136.518249471000104, -4.769435725999926 ], [ 136.488158666000118, -4.73969475499996 ], [ 136.464553223000053, -4.742063160999976 ], [ 136.464102156000081, -4.733650219999959 ], [ 136.45503257300004, -4.722812948999945 ], [ 136.453048102000025, -4.722998546999975 ], [ 136.449201447000064, -4.728938472999971 ], [ 136.446388626000044, -4.742040262999978 ], [ 136.436329454000088, -4.73588340799995 ], [ 136.443366710000078, -4.739297933999978 ], [ 136.444708330000026, -4.733277104999956 ], [ 136.436412577000056, -4.73276544099997 ], [ 136.447510839000074, -4.719224047999944 ], [ 136.446130752000045, -4.718296057999964 ], [ 136.436675188000095, -4.722645905999968 ], [ 136.434892732000094, -4.720087743999954 ], [ 136.430231130000038, -4.718087410999942 ], [ 136.427134737000074, -4.718270390999976 ], [ 136.423684519000062, -4.721250665999946 ], [ 136.415127094000013, -4.699557536999976 ], [ 136.396867507000024, -4.70331204799993 ], [ 136.368313797000042, -4.678192494999962 ], [ 136.324536156000022, -4.665954490999979 ], [ 136.322937855000077, -4.655493833999969 ], [ 136.305193636000013, -4.661327041999925 ], [ 136.297236045000091, -4.675119805999941 ], [ 136.28838587700011, -4.664888004999966 ], [ 136.232452661000025, -4.662489428999947 ], [ 136.232502788000033, -4.652335677999929 ], [ 136.224138983000103, -4.649242378999929 ], [ 136.205602881000118, -4.64668606999993 ], [ 136.202099786000076, -4.648594719999949 ], [ 136.204461344000038, -4.654472876999932 ], [ 136.142716255000096, -4.630804460999968 ], [ 136.131918158000076, -4.622298418999947 ], [ 136.137288867000052, -4.614372580999941 ], [ 136.12988550700004, -4.608251464999967 ], [ 136.110111775000064, -4.620873162999942 ], [ 136.094466978000014, -4.600019607999968 ], [ 136.076059618000045, -4.592480524999928 ], [ 136.076536550000014, -4.583542593999937 ], [ 136.055286924000029, -4.586531872999956 ], [ 136.067993245000025, -4.586389104999967 ], [ 136.059648971000115, -4.589888630999951 ], [ 136.037279013000102, -4.577703395999947 ], [ 135.983536953000112, -4.541652380999949 ], [ 135.985683227000095, -4.535251630999937 ], [ 135.955079274000013, -4.525188374999971 ], [ 135.956177195, -4.521405640999944 ], [ 135.946865216000106, -4.50404046899996 ], [ 135.926063760000034, -4.491959121999969 ], [ 135.792565926000066, -4.483745406999958 ], [ 135.718816929000013, -4.497157438999977 ], [ 135.662874859000112, -4.479660270999943 ], [ 135.59964977300001, -4.47354551799998 ], [ 135.527601273000073, -4.449097611999946 ], [ 135.413906171, -4.435895907999964 ], [ 135.416042872000048, -4.432653484999946 ], [ 135.408254358000022, -4.428214560999947 ], [ 135.401921434000087, -4.426619005999953 ], [ 135.377317939000022, -4.426393940999958 ], [ 135.34670712500008, -4.431846236999945 ], [ 135.338931484000113, -4.445010074999971 ], [ 135.295788302000119, -4.443811579999931 ], [ 135.211085527000023, -4.465411596999957 ], [ 135.204249144000073, -4.457441446999951 ], [ 135.203152015000114, -4.45913098099993 ], [ 135.202763687000015, -4.463730002999966 ], [ 135.20181186700006, -4.464702443999954 ], [ 135.11555997500011, -4.408066512999937 ], [ 135.097535558000118, -4.40759062099994 ], [ 135.061605697000118, -4.386443161999978 ], [ 135.070228819000022, -4.380635513999948 ], [ 135.072912851000069, -4.387545468999974 ], [ 135.069701677000012, -4.378020382999978 ], [ 135.065727388000028, -4.375534357999925 ], [ 135.040041831000053, -4.375586870999939 ], [ 135.014813350000054, -4.336909700999968 ], [ 135.01242199100011, -4.336885906999953 ], [ 135.007889118000094, -4.342346769999949 ], [ 135.006378161000043, -4.336743138999964 ], [ 134.997042060000012, -4.332602764999933 ], [ 134.990865671000051, -4.333282450999945 ], [ 134.987018994000096, -4.32549720399993 ], [ 134.933381767000014, -4.28630456999997 ], [ 134.947991658000092, -4.305197489999955 ], [ 134.937568750000082, -4.300688629999968 ], [ 134.898582130000023, -4.257315179999978 ], [ 134.814727250000033, -4.252033768999979 ], [ 134.807176145000085, -4.234271834999959 ], [ 134.839205168000035, -4.222668060999979 ], [ 134.842392776000111, -4.208684050999977 ], [ 134.85500313600005, -4.209196473999953 ], [ 134.852851308000027, -4.193316349999975 ], [ 134.875261776000116, -4.191136725999968 ], [ 134.882876090000082, -4.16100141499993 ], [ 134.904574827000033, -4.170720505999952 ], [ 134.928952850000087, -4.167236282999966 ], [ 134.962612063000051, -4.153824544999964 ], [ 134.974760333000063, -4.136137017999943 ], [ 134.990466943000115, -4.135821875999966 ], [ 134.999921487000051, -4.122241156999962 ], [ 135.003402102000109, -4.092189659999974 ], [ 135.01259382100011, -4.07957866199996 ], [ 135.040806763000091, -4.066856453999947 ], [ 135.042041682000104, -4.049404034999952 ], [ 135.070566513000017, -4.055709318999959 ], [ 135.0875, -4.050833332999957 ], [ 135.091314929000077, -4.082069343999933 ], [ 135.148223204000033, -4.076626567999938 ], [ 135.151049783000076, -4.088848548999977 ], [ 135.119725003000099, -4.120450829999925 ], [ 135.119614768000019, -4.130815782999946 ], [ 135.138126344000057, -4.139233059999981 ], [ 135.127456518000031, -4.164429634999976 ], [ 135.129499686000031, -4.171263102999944 ], [ 135.175880477000078, -4.186163273999966 ], [ 135.179074337000088, -4.195077698999967 ], [ 135.190166046000058, -4.190416386999971 ], [ 135.195273616, -4.177130030999933 ], [ 135.220853119000026, -4.172177538999961 ], [ 135.247101917, -4.179333803999953 ], [ 135.277616289000093, -4.166904043999978 ], [ 135.301311191000082, -4.188134099999957 ], [ 135.303205106000064, -4.207983300999956 ], [ 135.329233219000116, -4.188527363999981 ], [ 135.344863033000024, -4.200850746999947 ], [ 135.35785463600007, -4.193393260999926 ], [ 135.394236722000073, -4.215871516999925 ], [ 135.395567774000028, -4.231387902999927 ], [ 135.416099586000087, -4.237536880999926 ], [ 135.416870521000078, -4.244215973999928 ], [ 135.459437531000049, -4.251385587999948 ], [ 135.476617014000112, -4.243567793999944 ], [ 135.483695057000091, -4.217208586999959 ], [ 135.502816073000076, -4.20266486099996 ], [ 135.584375365000028, -4.218431676999955 ], [ 135.599014168000053, -4.206130695999946 ], [ 135.619306603000041, -4.232642136999971 ], [ 135.636929088000102, -4.215512046999947 ], [ 135.682904515000018, -4.195034092999947 ], [ 135.696716184000024, -4.231014883999933 ], [ 135.708696967000037, -4.242546064999942 ], [ 135.711345791000099, -4.268650022999964 ], [ 135.72180774800006, -4.261210505999941 ], [ 135.756617592000111, -4.282006661999958 ], [ 135.804757812000048, -4.282791785999962 ], [ 135.82132397700002, -4.298074439999937 ], [ 135.902889511000012, -4.281251539999971 ], [ 135.980887600000074, -4.278610435999951 ], [ 136.021118723000086, -4.285563692999972 ], [ 136.037585640000088, -4.30045344399997 ], [ 136.038478547000068, -4.343276304999961 ], [ 136.030895303000079, -4.364696766999941 ], [ 136.005147203000092, -4.370209648999946 ], [ 136.023113796000075, -4.390990645999977 ], [ 136.045035396000117, -4.399104461999968 ], [ 136.067010782000011, -4.395656379999934 ], [ 136.077643931000011, -4.402777550999929 ], [ 136.090998846000048, -4.388579558999936 ], [ 136.129930078000029, -4.37745873199998 ], [ 136.152889562000041, -4.342994245999932 ], [ 136.202360620000036, -4.361489587999927 ], [ 136.237115015000086, -4.340351938999959 ], [ 136.249495355000022, -4.342697363999946 ], [ 136.252469126000051, -4.32880027899995 ], [ 136.305731301000037, -4.328837104999934 ], [ 136.317001097000116, -4.346447292999926 ], [ 136.356196914000066, -4.334725519999949 ], [ 136.36226832400007, -4.341260979999959 ], [ 136.395608931000083, -4.337101912999969 ], [ 136.445988341000088, -4.309278161999941 ], [ 136.484858756000108, -4.317199895999977 ], [ 136.518067042000098, -4.30637059999998 ], [ 136.527245391000065, -4.318846537999946 ], [ 136.517555090000087, -4.321526084999959 ], [ 136.519539989, -4.327176043999941 ], [ 136.565920511000058, -4.332400615999973 ], [ 136.566527948000044, -4.345331525999939 ], [ 136.573222379000072, -4.345429301999957 ], [ 136.56954148300008, -4.355726116999961 ], [ 136.58057899400012, -4.364513235999937 ], [ 136.574786652000057, -4.370249446999935 ], [ 136.595865686000025, -4.380233059999966 ], [ 136.599745823000035, -4.394626907999964 ], [ 136.643464299000016, -4.377154170999972 ], [ 136.65915941500009, -4.381327746999943 ], [ 136.673810385000024, -4.40157291099996 ], [ 136.680601378000119, -4.396852373999934 ], [ 136.685860485000035, -4.402343353999925 ], [ 136.715382097000088, -4.386420308999959 ], [ 136.730744966000088, -4.346537047999959 ], [ 136.727350946000115, -4.331762536999975 ], [ 136.739123813000106, -4.311383956999975 ], [ 136.785129682000047, -4.314413977999948 ], [ 136.798841181000057, -4.303121811999972 ], [ 136.802705535000086, -4.284909407999976 ], [ 136.787616800000023, -4.244402588999947 ], [ 136.826847131000022, -4.235522352999965 ], [ 136.832947798000077, -4.219466075999946 ], [ 136.845745875000034, -4.20863567899994 ], [ 136.860028201000091, -4.209773241999926 ], [ 136.874889582000037, -4.184542137999927 ], [ 136.889602497000055, -4.178127102999952 ], [ 136.906632364000075, -4.182346511999981 ], [ 136.927714047000109, -4.169376976999956 ], [ 136.929358346000072, -4.136710682999933 ], [ 136.922599743000092, -4.128472614999964 ], [ 136.935241800000085, -4.120632199999932 ], [ 136.961784244000114, -4.125102755999933 ], [ 136.978004106000071, -4.117369054999926 ], [ 136.989157833000036, -4.118948771999953 ], [ 136.997770107000065, -4.133165521999956 ], [ 137.007143209000105, -4.131476843999963 ], [ 137.019618395000066, -4.112901034999936 ], [ 137.011125667000101, -4.077786197999956 ], [ 137.02816223700006, -4.077226591999931 ], [ 137.036085924000076, -4.04505606999993 ], [ 137.072704712000018, -4.055303429999981 ], [ 137.082161642000074, -4.038765223999974 ], [ 137.118546774000038, -4.032034204999945 ] ] ], [ [ [ 135.946647257000109, -4.504979958999968 ], [ 135.94695777700008, -4.506155412999931 ], [ 135.946565166000028, -4.50500137399996 ], [ 135.946647257000109, -4.504979958999968 ] ] ], [ [ [ 135.20397407300004, -4.460766650999972 ], [ 135.204271695000102, -4.458883897999954 ], [ 135.205496928000116, -4.461432899999977 ], [ 135.20397407300004, -4.460766650999972 ] ] ], [ [ [ 135.405837510000083, -4.432805393999956 ], [ 135.408413277000022, -4.434845781999968 ], [ 135.405641204000062, -4.433441899999934 ], [ 135.405837510000083, -4.432805393999956 ] ] ], [ [ [ 135.37668024300001, -4.428454553999927 ], [ 135.410739229000114, -4.431198761999951 ], [ 135.349123705000011, -4.437297582999975 ], [ 135.37668024300001, -4.428454553999927 ] ] ], [ [ [ 134.930068748000053, -4.300481532999925 ], [ 135.007004272000017, -4.342766313999959 ], [ 135.009202894000055, -4.34243794899993 ], [ 135.014185485000098, -4.337441080999952 ], [ 135.018240087000095, -4.347606137999946 ], [ 134.958625428000119, -4.325090508999949 ], [ 134.935143764000031, -4.308537375999947 ], [ 134.930068748000053, -4.300481532999925 ] ] ], [ [ [ 137.180704768000055, -5.025748084999975 ], [ 137.191166782000096, -5.032660180999926 ], [ 137.195302761000107, -5.042808819999948 ], [ 137.180704768000055, -5.025748084999975 ] ] ], [ [ [ 136.832216681000091, -4.920406061999927 ], [ 136.837670261000085, -4.91961779199994 ], [ 136.839019415000053, -4.921416664999981 ], [ 136.832216681000091, -4.920406061999927 ] ] ], [ [ [ 136.882629010000073, -4.912638581999943 ], [ 136.881130667000093, -4.912607137999942 ], [ 136.882533832000036, -4.910953922999965 ], [ 136.882629010000073, -4.912638581999943 ] ] ], [ [ [ 136.819360721000066, -4.908530887999973 ], [ 136.831704043000059, -4.917402840999955 ], [ 136.804137913000091, -4.899313369999959 ], [ 136.819360721000066, -4.908530887999973 ] ] ], [ [ [ 136.803264206000108, -4.897152110999968 ], [ 136.79149063300008, -4.89485831099995 ], [ 136.793283656000085, -4.891380337999976 ], [ 136.797525819000043, -4.895031830999926 ], [ 136.803264206000108, -4.897152110999968 ] ] ], [ [ [ 136.698449928000059, -4.850493101999973 ], [ 136.705602588000033, -4.85134970799993 ], [ 136.715896136000083, -4.857303119999926 ], [ 136.703603841000017, -4.856846262999966 ], [ 136.698449928000059, -4.850493101999973 ] ] ], [ [ [ 136.779879916000027, -4.828529937999974 ], [ 136.787145785000121, -4.837269137999954 ], [ 136.793520355000055, -4.833467954999946 ], [ 136.794922709000048, -4.845029327999953 ], [ 136.778324940000061, -4.868267681999953 ], [ 136.767409163000025, -4.860005002999969 ], [ 136.779879916000027, -4.828529937999974 ] ] ], [ [ [ 136.46153705800009, -4.732612397999958 ], [ 136.459226006000108, -4.735452879999968 ], [ 136.460097484000016, -4.731250156999977 ], [ 136.46153705800009, -4.732612397999958 ] ] ], [ [ [ 136.462318992000064, -4.734055912999963 ], [ 136.46239037600003, -4.732878079999978 ], [ 136.462997138000105, -4.733615712999949 ], [ 136.462318992000064, -4.734055912999963 ] ] ], [ [ [ 136.450746747000039, -4.731285382999943 ], [ 136.450029340000015, -4.730703603999928 ], [ 136.450543303000018, -4.729925520999927 ], [ 136.450746747000039, -4.731285382999943 ] ] ], [ [ [ 136.459954161000041, -4.731095154999934 ], [ 136.45896906400003, -4.732226587999946 ], [ 136.457265410000105, -4.72788062199993 ], [ 136.459954161000041, -4.731095154999934 ] ] ], [ [ [ 136.458592346000046, -4.732253743999934 ], [ 136.450273036000112, -4.732656943999928 ], [ 136.454109917000096, -4.723555504999979 ], [ 136.458592346000046, -4.732253743999934 ] ] ], [ [ [ 136.458013082000093, -4.727834504999976 ], [ 136.456604441000081, -4.726397309999925 ], [ 136.456223727000065, -4.725017222999952 ], [ 136.458013082000093, -4.727834504999976 ] ] ] ] } },
{ "type": "Feature", "properties": { "kemendagri_kab_code": 9405, "kemendagri_kab_name": "Kabupaten Puncak", "kemendagri_prov_code": 94, "kemendagri_prov_name": "Papua Tengah" }, "geometry": { "type": "Polygon", "coordinates": [ [ [ 137.683382164000022, -3.048749657999963 ], [ 137.657949162000023, -3.067660616999945 ], [ 137.65714175700009, -3.084499003999952 ], [ 137.641016235000052, -3.097984733999965 ], [ 137.623351913000079, -3.091449358999967 ], [ 137.601294779000114, -3.10550602099994 ], [ 137.56755410300002, -3.100497471999972 ], [ 137.564933980000092, -3.115807940999957 ], [ 137.543273206000094, -3.127454242999931 ], [ 137.535796019000031, -3.14451721599994 ], [ 137.447939511000072, -3.230650909999952 ], [ 137.43781784600003, -3.249478873999976 ], [ 137.436304033000056, -3.28802066399993 ], [ 137.457935042000031, -3.27989202699996 ], [ 137.465735756000072, -3.286025429999938 ], [ 137.45980291300009, -3.299612167999953 ], [ 137.469406211000091, -3.324309032999963 ], [ 137.467147385000089, -3.352465562999953 ], [ 137.459472603000108, -3.357425014999933 ], [ 137.464376523000055, -3.380085016999942 ], [ 137.479720286000088, -3.385802775999935 ], [ 137.490841841000019, -3.407107009999947 ], [ 137.502274566000096, -3.404363491999959 ], [ 137.508485269000062, -3.428155560999926 ], [ 137.546611191000011, -3.441025925999952 ], [ 137.564576142000078, -3.438410559999966 ], [ 137.615575437000075, -3.471845643999927 ], [ 137.622449805000088, -3.50326548399994 ], [ 137.645209591000025, -3.526006362999965 ], [ 137.646706449000021, -3.537873833999924 ], [ 137.623351827000079, -3.56579437399995 ], [ 137.593872865000094, -3.575244237999925 ], [ 137.596035872000016, -3.602836731999957 ], [ 137.632834382000055, -3.609957730999952 ], [ 137.638076973000011, -3.64280602599996 ], [ 137.658913523000024, -3.656534173999944 ], [ 137.660264135000034, -3.685226111999953 ], [ 137.689190781000093, -3.710867709999945 ], [ 137.72424584700002, -3.722251940999968 ], [ 137.760335478000115, -3.723652542999957 ], [ 137.815437237000083, -3.684516053999971 ], [ 137.829524907000064, -3.694801326999936 ], [ 137.840104952000047, -3.719451165999942 ], [ 137.862772126000095, -3.718881557999964 ], [ 137.869873681000058, -3.72714612599998 ], [ 137.87953790600011, -3.766733467999927 ], [ 137.873057615000107, -3.78972908399993 ], [ 137.889920787000051, -3.809290499999975 ], [ 137.914314852000075, -3.814078551999955 ], [ 137.929999699000064, -3.849120890999927 ], [ 137.954304481, -3.848496944999965 ], [ 137.985482930000103, -3.859394401999964 ], [ 138.022686294000096, -3.844792558999927 ], [ 138.053847912000037, -3.854529889999981 ], [ 138.079526891000114, -3.873266417999957 ], [ 138.061128941000106, -3.87661337399993 ], [ 138.056473241000049, -3.887764832999949 ], [ 138.024078858000053, -3.884635622999951 ], [ 137.96186930600004, -3.934896477999928 ], [ 137.96961052100005, -3.972064367999963 ], [ 137.962045853000063, -3.991458548999958 ], [ 137.949114731, -4.000162751999937 ], [ 137.960121972000024, -4.000758226999949 ], [ 137.963839179000047, -4.011004901999968 ], [ 137.946098266000035, -4.025084695999965 ], [ 137.960152977000121, -4.02935079599996 ], [ 137.977018344000044, -4.058069903999979 ], [ 137.968351263000045, -4.072780248999948 ], [ 137.98779162400001, -4.090190125999925 ], [ 137.983856958000047, -4.109091688999968 ], [ 138.005526911000061, -4.120491072999926 ], [ 137.979890892000071, -4.121431112999971 ], [ 137.958725901000093, -4.138448252999979 ], [ 137.947889887000088, -4.150345602999948 ], [ 137.95400952500006, -4.16567592499996 ], [ 137.924969943000065, -4.162457052999969 ], [ 137.925574917000063, -4.190353239999979 ], [ 137.873891963000119, -4.177527957999928 ], [ 137.842154067000024, -4.193253089999928 ], [ 137.836847311000042, -4.211592476999954 ], [ 137.818889063000029, -4.198420255999963 ], [ 137.780660068000088, -4.192609172999937 ], [ 137.753677796000034, -4.191295664999927 ], [ 137.729755834000116, -4.200115893999964 ], [ 137.711490041000047, -4.191618792999975 ], [ 137.66427550100002, -4.203039789999934 ], [ 137.630096821000052, -4.198970978999967 ], [ 137.619728142000099, -4.18721549199995 ], [ 137.578365016000021, -4.192119310999942 ], [ 137.580169740000088, -4.182101935999981 ], [ 137.564765467000029, -4.169000695999955 ], [ 137.561602917000073, -4.148446157999956 ], [ 137.51145736400008, -4.14454220999994 ], [ 137.488041797000051, -4.120463249999943 ], [ 137.420911686000068, -4.09209218899997 ], [ 137.408642136000026, -4.07480929299993 ], [ 137.325416782000048, -4.071939642999951 ], [ 137.283947611000031, -4.053820966999979 ], [ 137.266727894000041, -4.069751302999975 ], [ 137.236993725000048, -4.057468425999957 ], [ 137.213130099000068, -4.066363359999968 ], [ 137.193059332000075, -4.057386507999979 ], [ 137.184430083000052, -4.075364888999957 ], [ 137.162740149000115, -4.063974547999976 ], [ 137.151848348000044, -4.038285275999954 ], [ 137.123798788000045, -4.039240465999967 ], [ 137.109987324000031, -4.019150205999949 ], [ 137.149707764000027, -3.988477824999961 ], [ 137.14107389600008, -3.963139547999958 ], [ 137.145842839000011, -3.956159106999962 ], [ 137.152922089000072, -3.95035478799997 ], [ 137.180434607000052, -3.954072695999969 ], [ 137.19690490500011, -3.943967476999944 ], [ 137.214473978000115, -3.95696087999994 ], [ 137.242107476000115, -3.929396066999971 ], [ 137.234985940000115, -3.892830286999981 ], [ 137.255068591000054, -3.879219769999963 ], [ 137.246121817000017, -3.840672501999961 ], [ 137.207067958000039, -3.812325380999937 ], [ 137.207503743000075, -3.776266462999956 ], [ 137.235224792000054, -3.735991918999957 ], [ 137.239112299000112, -3.714765213999954 ], [ 137.26198721500009, -3.705706228999929 ], [ 137.283874277000109, -3.674434172999952 ], [ 137.350904799000091, -3.616034862999925 ], [ 137.357374474000039, -3.592175841999961 ], [ 137.348580288000107, -3.579217631999938 ], [ 137.308367989000089, -3.555077350999966 ], [ 137.282376286000044, -3.505906874999937 ], [ 137.287442119000048, -3.469905306999976 ], [ 137.252252491000036, -3.497088924999957 ], [ 137.228079956000101, -3.50563922799995 ], [ 137.204480308000029, -3.534203121999951 ], [ 137.170984426000018, -3.550879951999946 ], [ 137.12880743900007, -3.548074658999951 ], [ 137.128206708000107, -3.555649412999969 ], [ 137.11187221900002, -3.563091451999981 ], [ 137.042550863000088, -3.533680003999962 ], [ 137.027760289000071, -3.545679959999973 ], [ 137.004991654000037, -3.501952659999972 ], [ 136.983126637000055, -3.492332264999959 ], [ 136.966006474000096, -3.431951957999956 ], [ 136.952767312000105, -3.426885841999933 ], [ 136.945372089000102, -3.41294144799997 ], [ 136.944059843000105, -3.339316948999965 ], [ 136.918314668000107, -3.329793767999945 ], [ 136.923091369000076, -3.305597920999958 ], [ 136.901444010000091, -3.287000230999979 ], [ 136.899875658000042, -3.27130834899998 ], [ 136.88745842000003, -3.264660628999934 ], [ 136.877843698000106, -3.270804445999943 ], [ 136.869385590000093, -3.252489515999969 ], [ 136.889066747000015, -3.229877699999975 ], [ 136.886577638000063, -3.223612277999962 ], [ 136.899488898000072, -3.219674947999977 ], [ 136.898025149000091, -3.193634093999947 ], [ 136.906390578000014, -3.20380172299997 ], [ 136.919118628000092, -3.18826140699997 ], [ 136.913234138000121, -3.164977990999944 ], [ 136.92095018100008, -3.161098223999943 ], [ 136.924182186000053, -3.139678358999959 ], [ 136.949962181000046, -3.123323360999962 ], [ 136.966616472000055, -3.13206047999995 ], [ 136.969250721000094, -3.123485635999941 ], [ 136.97804923800004, -3.123724147999951 ], [ 136.985025641000107, -3.133319679999943 ], [ 136.987333384000067, -3.125042220999944 ], [ 137.015408172000093, -3.150529887999937 ], [ 137.026066243000059, -3.141090598999938 ], [ 137.041382749000036, -3.148717848999979 ], [ 137.053571090000105, -3.140931870999964 ], [ 137.068592380000041, -3.160154081999963 ], [ 137.074128631, -3.155450127999927 ], [ 137.08597816200006, -3.162720244999946 ], [ 137.094637912000053, -3.154661018999946 ], [ 137.106214030000046, -3.156458274999977 ], [ 137.106988889000036, -3.137859065999976 ], [ 137.125215569000034, -3.122938285999965 ], [ 137.13425996300009, -3.134819543999924 ], [ 137.161221810000029, -3.132004036999945 ], [ 137.180752177000045, -3.122636105999959 ], [ 137.187698964000106, -3.107109927999943 ], [ 137.196762582000019, -3.121287691999953 ], [ 137.211350096000047, -3.109791363999932 ], [ 137.219392939000045, -3.123768562999942 ], [ 137.233605744000101, -3.115430010999944 ], [ 137.250986208000086, -3.12310716199994 ], [ 137.259132732000012, -3.109618849999947 ], [ 137.289896515, -3.113134336999963 ], [ 137.294217637000088, -3.101790323999978 ], [ 137.316414583000096, -3.102255937999928 ], [ 137.330158140000094, -3.090409726999951 ], [ 137.348455518000037, -3.090223090999928 ], [ 137.359369312000013, -3.068337997999947 ], [ 137.380260980000116, -3.096724967999933 ], [ 137.410251011000014, -3.087997685999937 ], [ 137.426549199000078, -3.104987260999962 ], [ 137.443563918000109, -3.10749461599994 ], [ 137.487692439000057, -3.096845514999927 ], [ 137.522324930000082, -3.081176650999964 ], [ 137.53128176600012, -3.068165195999939 ], [ 137.550472214000024, -3.070776248999948 ], [ 137.553498888000036, -3.050864918999935 ], [ 137.577202850000049, -3.067687234999937 ], [ 137.620762826000032, -3.040264245999936 ], [ 137.63089078500002, -3.045770532999938 ], [ 137.630195896000032, -3.064832672999955 ], [ 137.641350736000049, -3.056031950999966 ], [ 137.683382164000022, -3.048749657999963 ] ] ] } },
{ "type": "Feature", "properties": { "kemendagri_kab_code": 9406, "kemendagri_kab_name": "Kabupaten Dogiyai", "kemendagri_prov_code": 94, "kemendagri_prov_name": "Papua Tengah" }, "geometry": { "type": "Polygon", "coordinates": [ [ [ 136.126272398000083, -3.856798357999935 ], [ 136.127672625000059, -3.904554977999965 ], [ 136.143360676000043, -3.929294653999932 ], [ 136.144083385000044, -3.94670872699993 ], [ 136.167765526000039, -3.962094159999936 ], [ 136.194722591000072, -3.950523314999941 ], [ 136.207669189000057, -3.958079615999964 ], [ 136.18890409800008, -3.972036030999959 ], [ 136.192295907000016, -3.984943683999973 ], [ 136.180078890000118, -4.000000023999974 ], [ 136.182556138000109, -4.025247663999949 ], [ 136.166027745000065, -4.028564788999972 ], [ 136.159942894000096, -4.046221792999972 ], [ 136.136195345000033, -4.052016542999979 ], [ 136.107562592000022, -4.045583313999941 ], [ 136.090295684000012, -4.058776867999939 ], [ 136.086449262000087, -4.077260336999927 ], [ 136.105283580000105, -4.092571702999976 ], [ 136.072748102000105, -4.140218143999959 ], [ 136.090448221000088, -4.154576430999953 ], [ 136.070453718000067, -4.161493986999972 ], [ 136.047196685000017, -4.184079490999977 ], [ 136.040680834000113, -4.214088918999948 ], [ 136.023853593000013, -4.210823669999968 ], [ 136.010024454000018, -4.225513847999935 ], [ 136.017697297000041, -4.240881042999945 ], [ 136.00300650500003, -4.280726587999936 ], [ 135.902889511000012, -4.281251539999971 ], [ 135.82132397700002, -4.298074439999937 ], [ 135.804757812000048, -4.282791785999962 ], [ 135.756617592000111, -4.282006661999958 ], [ 135.72180774800006, -4.261210505999941 ], [ 135.711345791000099, -4.268650022999964 ], [ 135.708696967000037, -4.242546064999942 ], [ 135.696716184000024, -4.231014883999933 ], [ 135.685069399000099, -4.196196187999931 ], [ 135.675442053000097, -4.193945921999955 ], [ 135.671240018000049, -4.203002505999962 ], [ 135.636929088000102, -4.215512046999947 ], [ 135.619306603000041, -4.232642136999971 ], [ 135.599014168000053, -4.206130695999946 ], [ 135.584375365000028, -4.218431676999955 ], [ 135.502816073000076, -4.20266486099996 ], [ 135.483695057000091, -4.217208586999959 ], [ 135.476617014000112, -4.243567793999944 ], [ 135.459437531000049, -4.251385587999948 ], [ 135.416870521000078, -4.244215973999928 ], [ 135.416099586000087, -4.237536880999926 ], [ 135.395567774000028, -4.231387902999927 ], [ 135.394236722000073, -4.215871516999925 ], [ 135.35785463600007, -4.193393260999926 ], [ 135.344863033000024, -4.200850746999947 ], [ 135.329233219000116, -4.188527363999981 ], [ 135.303205106000064, -4.207983300999956 ], [ 135.301311191000082, -4.188134099999957 ], [ 135.277616289000093, -4.166904043999978 ], [ 135.247101917, -4.179333803999953 ], [ 135.220853119000026, -4.172177538999961 ], [ 135.195273616, -4.177130030999933 ], [ 135.17932101100007, -4.195153837999953 ], [ 135.175880477000078, -4.186163273999966 ], [ 135.129499686000031, -4.171263102999944 ], [ 135.127456518000031, -4.164429634999976 ], [ 135.138126344000057, -4.139233059999981 ], [ 135.119614768000019, -4.130815782999946 ], [ 135.119725003000099, -4.120450829999925 ], [ 135.151049783000076, -4.088848548999977 ], [ 135.148223204000033, -4.076626567999938 ], [ 135.097844963000057, -4.084095300999934 ], [ 135.090340457000025, -4.081650884999931 ], [ 135.08432226900004, -4.060158006999927 ], [ 135.0875, -4.050833332999957 ], [ 135.114050263000081, -4.061036779999938 ], [ 135.139909818000092, -4.05168083999996 ], [ 135.166226707000078, -4.053658131999953 ], [ 135.16986440800008, -4.063075097999956 ], [ 135.195727955000052, -4.058539877999976 ], [ 135.263650879000011, -4.075017025999955 ], [ 135.27116155900012, -4.082828735999954 ], [ 135.31426392100002, -4.079317766999964 ], [ 135.33416666700009, -4.066111110999941 ], [ 135.317578216000015, -4.03947334999998 ], [ 135.282430277000117, -4.034323151999956 ], [ 135.27513561000012, -4.020323264999945 ], [ 135.250042799000084, -4.00614165099995 ], [ 135.256241527000043, -4.000322488999927 ], [ 135.245833333000064, -3.968611110999973 ], [ 135.241498510000042, -3.910597480999968 ], [ 135.268090467000093, -3.893114239999932 ], [ 135.275357277000012, -3.833002409999949 ], [ 135.285383898000077, -3.823565793999933 ], [ 135.300063986000055, -3.82391944799997 ], [ 135.287558247000106, -3.808741027999929 ], [ 135.290630757000031, -3.803000782999959 ], [ 135.31373118700003, -3.81943051899998 ], [ 135.304697046000115, -3.859907508999925 ], [ 135.362399010000104, -3.862746991999927 ], [ 135.386214960000075, -3.885078160999967 ], [ 135.411822268000037, -3.893533022999975 ], [ 135.422434918000022, -3.876091282999937 ], [ 135.44470569300006, -3.864736235999942 ], [ 135.456830054000079, -3.878329 ], [ 135.495384883000042, -3.889180384999975 ], [ 135.504821384000024, -3.90894717599997 ], [ 135.530051416000106, -3.932324068999947 ], [ 135.552742881000086, -3.93073747699998 ], [ 135.569121701000086, -3.946783867999955 ], [ 135.582961941, -3.927302469999972 ], [ 135.623915638000085, -3.933341146999965 ], [ 135.650149824000096, -3.921428484999979 ], [ 135.676339940000048, -3.90327919899994 ], [ 135.683973467000101, -3.883287342999949 ], [ 135.696481089000031, -3.879399644999978 ], [ 135.705259606000027, -3.89035449499994 ], [ 135.76814382800012, -3.910220326999934 ], [ 135.835288351000031, -3.902750810999976 ], [ 135.850119566000103, -3.891558268999972 ], [ 135.907312107000052, -3.897050228999944 ], [ 135.921110550000094, -3.911010845999954 ], [ 135.954427155000076, -3.915417157999968 ], [ 135.969691687000022, -3.892740348999951 ], [ 136.011196248000033, -3.902740536999943 ], [ 136.040762213000107, -3.854320950999977 ], [ 136.060014271000114, -3.886097402999951 ], [ 136.081405446000076, -3.892262843999958 ], [ 136.102908034000052, -3.910981204999928 ], [ 136.119244417000118, -3.903940779999971 ], [ 136.126735818000043, -3.889346374999946 ], [ 136.126272398000083, -3.856798357999935 ] ] ] } },
{ "type": "Feature", "properties": { "kemendagri_kab_code": 9407, "kemendagri_kab_name": "Kabupaten Intan Jaya", "kemendagri_prov_code": 94, "kemendagri_prov_name": "Papua Tengah" }, "geometry": { "type": "Polygon", "coordinates": [ [ [ 136.869357862000015, -3.252047583999968 ], [ 136.877843698000106, -3.270804445999943 ], [ 136.88745842000003, -3.264660628999934 ], [ 136.899875658000042, -3.27130834899998 ], [ 136.901444010000091, -3.287000230999979 ], [ 136.923091369000076, -3.305597920999958 ], [ 136.918314668000107, -3.329793767999945 ], [ 136.944059843000105, -3.339316948999965 ], [ 136.945372089000102, -3.41294144799997 ], [ 136.952767312000105, -3.426885841999933 ], [ 136.966006474000096, -3.431951957999956 ], [ 136.983126637000055, -3.492332264999959 ], [ 137.004991654000037, -3.501952659999972 ], [ 137.027760289000071, -3.545679959999973 ], [ 137.042550863000088, -3.533680003999962 ], [ 137.11187221900002, -3.563091451999981 ], [ 137.128206708000107, -3.555649412999969 ], [ 137.12880743900007, -3.548074658999951 ], [ 137.170984426000018, -3.550879951999946 ], [ 137.204480308000029, -3.534203121999951 ], [ 137.228079956000101, -3.50563922799995 ], [ 137.252252491000036, -3.497088924999957 ], [ 137.287442119000048, -3.469905306999976 ], [ 137.282376286000044, -3.505906874999937 ], [ 137.308367989000089, -3.555077350999966 ], [ 137.348580288000107, -3.579217631999938 ], [ 137.357374474000039, -3.592175841999961 ], [ 137.350904799000091, -3.616034862999925 ], [ 137.283874277000109, -3.674434172999952 ], [ 137.26198721500009, -3.705706228999929 ], [ 137.239112299000112, -3.714765213999954 ], [ 137.235224792000054, -3.735991918999957 ], [ 137.207503743000075, -3.776266462999956 ], [ 137.207067958000039, -3.812325380999937 ], [ 137.246121817000017, -3.840672501999961 ], [ 137.255068591000054, -3.879219769999963 ], [ 137.234985940000115, -3.892830286999981 ], [ 137.242107476000115, -3.929396066999971 ], [ 137.214473978000115, -3.95696087999994 ], [ 137.19690490500011, -3.943967476999944 ], [ 137.177014132000068, -3.954667560999951 ], [ 137.150691345000041, -3.951990666999961 ], [ 137.14107389600008, -3.963139547999958 ], [ 137.149707764000027, -3.988477824999961 ], [ 137.110986698000033, -4.018008063999957 ], [ 137.118328016000078, -4.031377770999939 ], [ 137.108138993000011, -4.029358811999941 ], [ 137.105140058000075, -4.036944590999951 ], [ 137.021732966000059, -3.942793403999929 ], [ 137.009347150000053, -3.882460006999963 ], [ 136.993499707000069, -3.852745438999932 ], [ 136.996448908000048, -3.83966275399996 ], [ 136.932742781000115, -3.825648017999924 ], [ 136.924494007000021, -3.832667137999977 ], [ 136.860959591000096, -3.826563582999938 ], [ 136.841923903000065, -3.802768972999957 ], [ 136.805631174000041, -3.807264868999937 ], [ 136.779486846000054, -3.790395774999979 ], [ 136.714346626000065, -3.774366835999956 ], [ 136.68118288800008, -3.748192764999942 ], [ 136.664229229000057, -3.753546551999932 ], [ 136.616491292000092, -3.728859643999954 ], [ 136.58375709500001, -3.729122659999973 ], [ 136.564911764000044, -3.710880379999935 ], [ 136.590022281000074, -3.676222604999964 ], [ 136.578944315000058, -3.612945098999944 ], [ 136.540556382000091, -3.610662432999959 ], [ 136.513592103000065, -3.587727610999934 ], [ 136.498823071000061, -3.597106915999973 ], [ 136.479472476000069, -3.579534400999933 ], [ 136.470111514000109, -3.554949873999931 ], [ 136.435894488000031, -3.557248930999947 ], [ 136.417596312000114, -3.518358104999947 ], [ 136.422279676000016, -3.498928550999949 ], [ 136.389202787000045, -3.473518566999928 ], [ 136.368802632000097, -3.435053221999965 ], [ 136.370173610000052, -3.401304312999969 ], [ 136.392073715000038, -3.355817226999932 ], [ 136.394795665000061, -3.296923455999945 ], [ 136.379833902000087, -3.264848112999971 ], [ 136.378125318000116, -3.231898741999942 ], [ 136.355345150000062, -3.200325057999976 ], [ 136.35628487200006, -3.187307272999931 ], [ 136.321032821000017, -3.167811988999972 ], [ 136.324363331000086, -3.14891960999995 ], [ 136.314265649000049, -3.132689996999943 ], [ 136.334844140000087, -3.099209610999935 ], [ 136.332866091000028, -3.074680292999972 ], [ 136.324029009000014, -3.066200743999957 ], [ 136.335419146000049, -3.054165934999958 ], [ 136.325419326000087, -3.054791578999925 ], [ 136.331295232000116, -3.049130356999967 ], [ 136.322821320000116, -3.036607427999968 ], [ 136.329529695000019, -3.032428552999932 ], [ 136.318623395000031, -3.022640387999957 ], [ 136.360864135000043, -3.026314506999938 ], [ 136.388282734000086, -3.009300227999972 ], [ 136.405503271000043, -3.01470567299998 ], [ 136.406995239000025, -3.029112861999977 ], [ 136.420795657000099, -3.033936468999968 ], [ 136.437283923000109, -3.054845391999947 ], [ 136.453530884000088, -3.048613786999965 ], [ 136.463236152000036, -3.062339359999953 ], [ 136.533268793000047, -3.056704607999961 ], [ 136.556778940000072, -3.042769980999935 ], [ 136.572282618000031, -3.046545378999951 ], [ 136.578798832000075, -3.064374424999926 ], [ 136.557693394000012, -3.084715769999946 ], [ 136.554560882000033, -3.124418180999953 ], [ 136.542576482000072, -3.153299921999974 ], [ 136.520693896000012, -3.159320913999977 ], [ 136.51727479200008, -3.184443890999944 ], [ 136.532653845000027, -3.225759026999981 ], [ 136.561251920000018, -3.241291355999977 ], [ 136.56728575000011, -3.253975325999932 ], [ 136.618105827000022, -3.236278367999944 ], [ 136.634181773000023, -3.244881460999977 ], [ 136.665601683000091, -3.22514739099995 ], [ 136.710585534000074, -3.225916646999963 ], [ 136.743419192000033, -3.243494020999947 ], [ 136.741908485000067, -3.262723428999948 ], [ 136.758101731000011, -3.275573251999958 ], [ 136.776612690000093, -3.279089226999929 ], [ 136.787736477000067, -3.265766966999934 ], [ 136.800614648000078, -3.26585916199997 ], [ 136.826081246000058, -3.281751955999937 ], [ 136.833547255000099, -3.269328247999965 ], [ 136.851150645000075, -3.261781461999931 ], [ 136.851239994000025, -3.253708116999974 ], [ 136.869357862000015, -3.252047583999968 ] ] ] } },
{ "type": "Feature", "properties": { "kemendagri_kab_code": 9408, "kemendagri_kab_name": "Kabupaten Deiyai", "kemendagri_prov_code": 94, "kemendagri_prov_name": "Papua Tengah" }, "geometry": { "type": "Polygon", "coordinates": [ [ [ 136.880737439000086, -4.116112451999925 ], [ 136.929358346000072, -4.136710682999933 ], [ 136.927714047000109, -4.169376976999956 ], [ 136.906632364000075, -4.182346511999981 ], [ 136.889602497000055, -4.178127102999952 ], [ 136.874889582000037, -4.184542137999927 ], [ 136.860028201000091, -4.209773241999926 ], [ 136.845745875000034, -4.20863567899994 ], [ 136.832947798000077, -4.219466075999946 ], [ 136.826847131000022, -4.235522352999965 ], [ 136.787616800000023, -4.244402588999947 ], [ 136.802705535000086, -4.284909407999976 ], [ 136.798841181000057, -4.303121811999972 ], [ 136.785129682000047, -4.314413977999948 ], [ 136.739123813000106, -4.311383956999975 ], [ 136.727350946000115, -4.331762536999975 ], [ 136.730744966000088, -4.346537047999959 ], [ 136.715382097000088, -4.386420308999959 ], [ 136.686151764000101, -4.402286758999935 ], [ 136.680601378000119, -4.396852373999934 ], [ 136.673810385000024, -4.40157291099996 ], [ 136.65915941500009, -4.381327746999943 ], [ 136.643464299000016, -4.377154170999972 ], [ 136.599745823000035, -4.394626907999964 ], [ 136.595865686000025, -4.380233059999966 ], [ 136.574786652000057, -4.370249446999935 ], [ 136.58057899400012, -4.364513235999937 ], [ 136.56954148300008, -4.355726116999961 ], [ 136.573222379000072, -4.345429301999957 ], [ 136.566527948000044, -4.345331525999939 ], [ 136.565920511000058, -4.332400615999973 ], [ 136.519539989, -4.327176043999941 ], [ 136.517555090000087, -4.321526084999959 ], [ 136.527245391000065, -4.318846537999946 ], [ 136.518067042000098, -4.30637059999998 ], [ 136.484858756000108, -4.317199895999977 ], [ 136.445988341000088, -4.309278161999941 ], [ 136.395608931000083, -4.337101912999969 ], [ 136.36226832400007, -4.341260979999959 ], [ 136.356196914000066, -4.334725519999949 ], [ 136.317001097000116, -4.346447292999926 ], [ 136.305731301000037, -4.328837104999934 ], [ 136.252469126000051, -4.32880027899995 ], [ 136.249495355000022, -4.342697363999946 ], [ 136.237115015000086, -4.340351938999959 ], [ 136.202360620000036, -4.361489587999927 ], [ 136.152889562000041, -4.342994245999932 ], [ 136.129930078000029, -4.37745873199998 ], [ 136.090998846000048, -4.388579558999936 ], [ 136.077643931000011, -4.402777550999929 ], [ 136.024306280000019, -4.391747782999971 ], [ 136.005147203000092, -4.370209648999946 ], [ 136.030895303000079, -4.364696766999941 ], [ 136.040454091000015, -4.331994508999969 ], [ 136.034200089000024, -4.294229766999933 ], [ 136.00300650500003, -4.280726587999936 ], [ 136.017697297000041, -4.240881042999945 ], [ 136.009611523000103, -4.226412657999958 ], [ 136.023853593000013, -4.210823669999968 ], [ 136.040680834000113, -4.214088918999948 ], [ 136.047196685000017, -4.184079490999977 ], [ 136.070453718000067, -4.161493986999972 ], [ 136.090448221000088, -4.154576430999953 ], [ 136.072748102000105, -4.140218143999959 ], [ 136.105283580000105, -4.092571702999976 ], [ 136.086620583000013, -4.077645809999979 ], [ 136.088109729000053, -4.062607814999978 ], [ 136.107562592000022, -4.045583313999941 ], [ 136.136195345000033, -4.052016542999979 ], [ 136.159942894000096, -4.046221792999972 ], [ 136.166027745000065, -4.028564788999972 ], [ 136.182556138000109, -4.025247663999949 ], [ 136.180078890000118, -4.000000023999974 ], [ 136.192530093000073, -3.982489688999976 ], [ 136.20300905900001, -3.994765571999949 ], [ 136.221116242000107, -3.999231650999945 ], [ 136.273436504000074, -3.980236982999941 ], [ 136.314937733000079, -3.995654112999944 ], [ 136.348709174000078, -3.97259147799997 ], [ 136.357065888000079, -3.989627359999929 ], [ 136.348613140000111, -3.995427019999966 ], [ 136.362515666000036, -4.005145937999941 ], [ 136.393264806000047, -4.010147227999937 ], [ 136.397528837000095, -4.002796125999964 ], [ 136.431896952000102, -4.016698388999941 ], [ 136.508494266000071, -4.020846280999933 ], [ 136.556998838000027, -4.050869069999976 ], [ 136.561108141000091, -4.06540475099996 ], [ 136.571504032000121, -4.06386092799994 ], [ 136.566405063000047, -4.084077300999979 ], [ 136.575523222000015, -4.081925845999933 ], [ 136.601835629000107, -4.097346977999962 ], [ 136.60224481900002, -4.128008670999975 ], [ 136.576735993000057, -4.133222441999976 ], [ 136.573880640000084, -4.148070277999977 ], [ 136.636928846000046, -4.171161895999944 ], [ 136.660723456000028, -4.171459328999958 ], [ 136.680205293000085, -4.188710420999939 ], [ 136.69819996700005, -4.192428328999938 ], [ 136.723002215000065, -4.179172047999941 ], [ 136.755455747000042, -4.177110547999973 ], [ 136.770624811000062, -4.165361959999927 ], [ 136.760662080000088, -4.12528961299995 ], [ 136.736975427000061, -4.11998508399995 ], [ 136.723904838000067, -4.10714229599995 ], [ 136.723191278000058, -4.090576916999964 ], [ 136.778181060000065, -4.078279062999968 ], [ 136.817202105000092, -4.08852699199997 ], [ 136.847955274000014, -4.108433179999963 ], [ 136.863833212000031, -4.100821856999971 ], [ 136.880737439000086, -4.116112451999925 ] ] ] } }
]
}
