{
"type": "FeatureCollection",
"name": "95",
"crs": { "type": "name", "properties": { "name": "urn:ogc:def:crs:OGC:1.3:CRS84" } },
"features": [
{ "type": "Feature", "properties": { "kemendagri_kab_code": 9501, "kemendagri_kab_name": "Kabupaten Jayawijaya", "kemendagri_prov_code": 95, "kemendagri_prov_name": "Papua Pegunungan" }, "geometry": { "type": "Polygon", "coordinates": [ [ [ 139.017177708000077, -3.863830424999946 ], [ 139.020477010000036, -3.878407657999958 ], [ 139.014186784000117, -3.888644187999944 ], [ 139.026815863000024, -3.926094721999959 ], [ 139.004815109000106, -3.955795817999956 ], [ 139.01047463000009, -3.965479750999975 ], [ 139.039558965000083, -3.963100923999946 ], [ 139.074882025000079, -3.93238714599994 ], [ 139.085809797000024, -3.938462304999973 ], [ 139.105350828000041, -3.934222054999964 ], [ 139.11622589600006, -3.946468206999953 ], [ 139.141123728000025, -3.953221022999969 ], [ 139.187285625000072, -3.991787870999929 ], [ 139.175515802000064, -4.005386033999969 ], [ 139.199859337000021, -4.045153232999951 ], [ 139.189056773000061, -4.061257509999962 ], [ 139.209160863000079, -4.079226622999954 ], [ 139.205902599000069, -4.090651569999977 ], [ 139.221426032000068, -4.127086977999966 ], [ 139.212558948000037, -4.138950327999964 ], [ 139.220651001000078, -4.154875082999979 ], [ 139.208848798000076, -4.161549760999947 ], [ 139.212789128000054, -4.182127841999943 ], [ 139.107678794000094, -4.175001518999977 ], [ 139.07812155900001, -4.179619567999964 ], [ 139.061736112000062, -4.192884409999976 ], [ 139.015266249000092, -4.191397190999965 ], [ 138.986178305000067, -4.223040134999962 ], [ 138.92570924100005, -4.227767184999948 ], [ 138.919275973000026, -4.257418260999941 ], [ 138.872826620000069, -4.254865529999961 ], [ 138.863191642000061, -4.262093192999941 ], [ 138.834261016000028, -4.240381816999957 ], [ 138.822854262000078, -4.24170167799997 ], [ 138.802712790000101, -4.209945153999968 ], [ 138.793378953000115, -4.221380245999967 ], [ 138.780998713000031, -4.220496806999961 ], [ 138.777596606000088, -4.245674082999926 ], [ 138.753328173000114, -4.267170842999974 ], [ 138.739298614000063, -4.310861114999966 ], [ 138.766104237000036, -4.340917956999931 ], [ 138.761112506000018, -4.36696189099996 ], [ 138.774943422000092, -4.386143552999954 ], [ 138.767339175000075, -4.413994758999934 ], [ 138.777035536000085, -4.440849073999971 ], [ 138.764329736000036, -4.46615245299995 ], [ 138.770090359000051, -4.473617522999973 ], [ 138.62564140500001, -4.47331096299996 ], [ 138.61086402400008, -4.446790700999941 ], [ 138.592881936000026, -4.443198550999966 ], [ 138.59508134500004, -4.430235173999961 ], [ 138.583323275000112, -4.401892695999948 ], [ 138.618515289000015, -4.380187645999968 ], [ 138.61652183700005, -4.362322381999945 ], [ 138.605143431000101, -4.354590393999956 ], [ 138.624171978000049, -4.318415957999946 ], [ 138.628398675000085, -4.266931892999935 ], [ 138.638762650000103, -4.257139251999945 ], [ 138.641015, -4.224209557999927 ], [ 138.665470998000046, -4.16560141399998 ], [ 138.682792324000047, -4.057101633999935 ], [ 138.694975165000074, -4.043395937999946 ], [ 138.694518308000056, -4.03045167099998 ], [ 138.73929024600011, -4.018877971999927 ], [ 138.746295380000106, -3.997253430999933 ], [ 138.727411977000088, -3.982177165999929 ], [ 138.736853678000102, -3.969689753999944 ], [ 138.733602705000067, -3.95253629299998 ], [ 138.726332099000047, -3.938828306999937 ], [ 138.715486794000071, -3.936317239999937 ], [ 138.710862564000081, -3.919860820999929 ], [ 138.70853000000011, -3.90715 ], [ 138.720737949000068, -3.882467743999939 ], [ 138.71137112100007, -3.871607249999954 ], [ 138.692936356000018, -3.875514977999956 ], [ 138.68418650600006, -3.858767148999959 ], [ 138.659374612000079, -3.842896550999967 ], [ 138.642022602000111, -3.815426210999931 ], [ 138.6466574640001, -3.803594493999981 ], [ 138.634487863000118, -3.766766037999957 ], [ 138.646551947000034, -3.755245993999949 ], [ 138.665484946000106, -3.751968062999936 ], [ 138.675386140000114, -3.779646513999978 ], [ 138.723652877000063, -3.776283994999972 ], [ 138.735346720000052, -3.782203580999976 ], [ 138.737398531000053, -3.793574959999944 ], [ 138.749682688000121, -3.788709049999966 ], [ 138.77815592200011, -3.797256940999944 ], [ 138.790327804000071, -3.809215110999958 ], [ 138.881911639, -3.792518597999958 ], [ 138.895782925000049, -3.800752620999958 ], [ 138.893374949000076, -3.810532747999957 ], [ 138.905846619000044, -3.811605578999945 ], [ 138.897735824000051, -3.840011290999939 ], [ 138.904479766, -3.868020594999962 ], [ 138.928519588000086, -3.867751650999935 ], [ 138.963259270000094, -3.892953888999955 ], [ 138.99866045400006, -3.887168505999966 ], [ 138.999761076000027, -3.868094716999963 ], [ 139.017177708000077, -3.863830424999946 ] ] ] } },
{ "type": "Feature", "properties": { "kemendagri_kab_code": 9502, "kemendagri_kab_name": "Kab Pegunungan Bintang", "kemendagri_prov_code": 95, "kemendagri_prov_name": "Papua Pegunungan" }, "geometry": { "type": "Polygon", "coordinates": [ [ [ 140.384221552000099, -3.736524907999978 ], [ 140.403030643000079, -3.736962915999925 ], [ 140.397699605000071, -3.747347103999971 ], [ 140.40792969600011, -3.756714278999937 ], [ 140.39708951700004, -3.770258297999931 ], [ 140.412633148000054, -3.78054046699998 ], [ 140.404013105000104, -3.78927228699996 ], [ 140.417545461000032, -3.801063865999936 ], [ 140.400215028000048, -3.813880196999946 ], [ 140.422171267000067, -3.820118397999977 ], [ 140.414500592000081, -3.842659468999955 ], [ 140.431976319000114, -3.854342267999925 ], [ 140.412346420000063, -3.883882650999965 ], [ 140.417071008000107, -3.899004466999941 ], [ 140.404553754000062, -3.894171719999974 ], [ 140.412862490000066, -3.911415399999953 ], [ 140.405060284000115, -3.914533388999928 ], [ 140.43543752000005, -3.91159539299997 ], [ 140.439568765000104, -3.919890777999967 ], [ 140.427284992000068, -3.93115028699998 ], [ 140.446656055000062, -3.948001906999934 ], [ 140.437833318000116, -3.959155600999964 ], [ 140.470716909000089, -3.965169679999974 ], [ 140.476429719000066, -3.992967439999973 ], [ 140.467659038000079, -3.986439529999927 ], [ 140.464646015000085, -3.991475184999956 ], [ 140.483949625000037, -4.000942775999931 ], [ 140.518940426000086, -4.06367226499998 ], [ 140.531268269000066, -4.062429885999961 ], [ 140.532618568000089, -4.072230265999963 ], [ 140.546420995000062, -4.069788394999932 ], [ 140.558580665000022, -4.08222688099994 ], [ 140.552261851000026, -4.096763350999936 ], [ 140.568940708000014, -4.097266241999932 ], [ 140.56763330900003, -4.116010510999956 ], [ 140.588598559000047, -4.115993636999974 ], [ 140.610308952000082, -4.061871393999979 ], [ 140.640113951000103, -4.064677943999925 ], [ 140.640827789000014, -4.046189531999971 ], [ 140.663846825000064, -4.037458123999954 ], [ 140.684385939000094, -4.04573436499993 ], [ 140.708032572000093, -4.098658332999946 ], [ 140.718585534000113, -4.099210957999958 ], [ 140.720710828000051, -4.082042470999966 ], [ 140.707650252, -4.072318004999943 ], [ 140.680348452000089, -4.006306459999962 ], [ 140.656971352000028, -3.972174780999978 ], [ 140.672654443000056, -3.97115269699998 ], [ 140.676052908000088, -3.979517691999945 ], [ 140.6920904750001, -3.984038667999926 ], [ 140.718408425000121, -4.020468111999946 ], [ 140.77869023300002, -4.000141879999944 ], [ 140.792976957000064, -4.010581885999954 ], [ 140.803363802000035, -4.004039546999934 ], [ 140.812271891000023, -4.013010193999946 ], [ 140.810141197000121, -3.995264248999945 ], [ 140.827515822, -3.999609297999939 ], [ 140.851019626000038, -3.97348838299996 ], [ 140.889786487000038, -3.961057238999956 ], [ 140.91468558400004, -3.969684819999941 ], [ 140.974390094000114, -3.966874254999937 ], [ 140.973613897000064, -3.982392128999948 ], [ 140.987726807000058, -3.994542919999958 ], [ 140.98349187000008, -4.008050444999981 ], [ 140.992947154000035, -4.005986328999938 ], [ 141.001238791000105, -4.019552308999948 ], [ 141.000747244000081, -5.168995590999941 ], [ 140.989942756000119, -5.193274515999974 ], [ 140.983205265000038, -5.195052079999925 ], [ 140.978049835000093, -5.185880330999964 ], [ 140.957697905000032, -5.189577036999935 ], [ 140.957476359000111, -5.195339342999944 ], [ 140.900891358000081, -5.191764226999965 ], [ 140.853657462000115, -5.228510708999977 ], [ 140.813010392000024, -5.236915618999944 ], [ 140.799591551000049, -5.224588175999941 ], [ 140.788253, -5.230491898999958 ], [ 140.79086506200008, -5.236032562999981 ], [ 140.766093964000106, -5.229371169999979 ], [ 140.741565841000011, -5.245772811999927 ], [ 140.726337560000047, -5.241391632999978 ], [ 140.724281229000098, -5.232415813999978 ], [ 140.636338259000013, -5.264729720999981 ], [ 140.593357758000025, -5.250434257999927 ], [ 140.554157470000064, -5.256063767999933 ], [ 140.544916928000021, -5.238210573999936 ], [ 140.521996581000053, -5.242040316999976 ], [ 140.515846464000106, -5.225959734999947 ], [ 140.469052046000115, -5.219637859999978 ], [ 140.434760126000015, -5.22794246199993 ], [ 140.412846225000067, -5.211949348999951 ], [ 140.387897728000098, -5.21273810699995 ], [ 140.387478357000077, -5.19621955599996 ], [ 140.352958332000071, -5.18651247899993 ], [ 140.352081070000054, -5.174658144999967 ], [ 140.315995643000065, -5.169714337999949 ], [ 140.310106355000016, -5.157572123999955 ], [ 140.296364864000111, -5.153990519999979 ], [ 140.303551286000015, -5.142308757999956 ], [ 140.295033228000079, -5.131096472999957 ], [ 140.268557079000061, -5.134499411999968 ], [ 140.275173251000069, -5.119016059999979 ], [ 140.284274937000077, -5.121449373999951 ], [ 140.255971282000019, -5.073766367999951 ], [ 140.257235292000018, -5.060892941999953 ], [ 140.237970916000108, -5.047494014999927 ], [ 140.215868779000061, -5.056017193999935 ], [ 140.185586735000015, -5.038292996999928 ], [ 140.140169649000086, -5.05487846099993 ], [ 140.108426209000072, -5.049724716999947 ], [ 140.1099011230001, -5.029330025999968 ], [ 140.143636985000057, -4.990376410999943 ], [ 140.140493645000106, -4.951460562999955 ], [ 140.149654981000026, -4.92323427599996 ], [ 140.143307743000037, -4.901967360999947 ], [ 140.133412455000098, -4.891053496999973 ], [ 140.110139017000051, -4.886552131999963 ], [ 140.091111415000114, -4.856116626999949 ], [ 140.117252980000103, -4.820499353999935 ], [ 140.111421453000048, -4.807167534999962 ], [ 140.119807979000029, -4.778808455999979 ], [ 140.1105004100001, -4.760624266999969 ], [ 140.117678681000029, -4.751536002999956 ], [ 140.129996156000061, -4.618443810999963 ], [ 140.112080165000066, -4.450984129999938 ], [ 140.119270998000047, -4.05664832399998 ], [ 140.101276563000056, -4.04063554499993 ], [ 140.112260301000106, -4.027676344999975 ], [ 140.107211155000073, -4.016638818999979 ], [ 140.125111614000048, -4.00131323599993 ], [ 140.119771781000054, -3.995586467999942 ], [ 140.133195827, -3.989398695999967 ], [ 140.141400252000039, -3.978720432999978 ], [ 140.139195603000076, -3.966993204999937 ], [ 140.152439695000112, -3.956533576999959 ], [ 140.122599323000031, -3.912783429999934 ], [ 140.127496799000028, -3.893963876999976 ], [ 140.148194512000032, -3.88675989099994 ], [ 140.143770808000113, -3.873811493999938 ], [ 140.150186641000118, -3.870008138999935 ], [ 140.132501079, -3.848686590999932 ], [ 140.153822047000062, -3.842199167999979 ], [ 140.16269843900011, -3.807572739999955 ], [ 140.149900185000092, -3.809705594999969 ], [ 140.148295041000097, -3.787934580999945 ], [ 140.134835695000106, -3.771924640999941 ], [ 140.136133631000121, -3.765829057999952 ], [ 140.154080846000056, -3.77195923499994 ], [ 140.16111219700008, -3.76525722599996 ], [ 140.127267716000119, -3.75074279599994 ], [ 140.141466851000018, -3.736547325999936 ], [ 140.122440141000084, -3.715690665999944 ], [ 140.13240203600003, -3.715082979999977 ], [ 140.135550342000101, -3.696530157999973 ], [ 140.176317865000101, -3.708220109999957 ], [ 140.19812060300012, -3.697245274999943 ], [ 140.205455252000093, -3.677656834999937 ], [ 140.27143698000009, -3.66999888099997 ], [ 140.284326468000017, -3.692645339999956 ], [ 140.285261952000042, -3.717910536999966 ], [ 140.321206165000035, -3.743575281999938 ], [ 140.319593455000017, -3.753760904999979 ], [ 140.351298495000037, -3.738978792999944 ], [ 140.373527993000039, -3.744696058999978 ], [ 140.384221552000099, -3.736524907999978 ] ] ] } },
{ "type": "Feature", "properties": { "kemendagri_kab_code": 9503, "kemendagri_kab_name": "Kabupaten Yahukimo", "kemendagri_prov_code": 95, "kemendagri_prov_name": "Papua Pegunungan" }, "geometry": { "type": "Polygon", "coordinates": [ [ [ 140.125544409000099, -3.695509172999948 ], [ 140.136800748000041, -3.702512017999936 ], [ 140.130630015000065, -3.702231737999966 ], [ 140.132260003000056, -3.715272350999953 ], [ 140.122537252000029, -3.715994314999932 ], [ 140.141480136000041, -3.737201819999939 ], [ 140.126250092000078, -3.748256951999963 ], [ 140.16111219700008, -3.76525722599996 ], [ 140.154080846000056, -3.77195923499994 ], [ 140.136133631000121, -3.765829057999952 ], [ 140.134835695000106, -3.771924640999941 ], [ 140.148295041000097, -3.787934580999945 ], [ 140.149900185000092, -3.809705594999969 ], [ 140.16269843900011, -3.807572739999955 ], [ 140.153822047000062, -3.842199167999979 ], [ 140.132501079, -3.848686590999932 ], [ 140.150186641000118, -3.870008138999935 ], [ 140.143770808000113, -3.873811493999938 ], [ 140.148194512000032, -3.88675989099994 ], [ 140.127496799000028, -3.893963876999976 ], [ 140.122599323000031, -3.912783429999934 ], [ 140.152439695000112, -3.956533576999959 ], [ 140.139195603000076, -3.966993204999937 ], [ 140.141400252000039, -3.978720432999978 ], [ 140.133195827, -3.989398695999967 ], [ 140.119771781000054, -3.995586467999942 ], [ 140.125111614000048, -4.00131323599993 ], [ 140.107211155000073, -4.016638818999979 ], [ 140.112260301000106, -4.027676344999975 ], [ 140.101276563000056, -4.04063554499993 ], [ 140.119270998000047, -4.05664832399998 ], [ 140.112080165000066, -4.450984129999938 ], [ 140.129996156000061, -4.618443810999963 ], [ 140.117678681000029, -4.751536002999956 ], [ 140.1105004100001, -4.760624266999969 ], [ 140.119807979000029, -4.778808455999979 ], [ 140.111421453000048, -4.807167534999962 ], [ 140.117252980000103, -4.820499353999935 ], [ 140.091111415000114, -4.856116626999949 ], [ 140.110139017000051, -4.886552131999963 ], [ 140.138620082000102, -4.896613980999973 ], [ 140.149652536000076, -4.922891894999964 ], [ 140.140493645000106, -4.951460562999955 ], [ 140.143636985000057, -4.990376410999943 ], [ 140.11581823500012, -5.026462848999927 ], [ 140.091297425000107, -5.041991166999935 ], [ 140.040915914000038, -5.053616425999962 ], [ 140.032378609000034, -5.045064020999973 ], [ 139.998311880000074, -5.038768175999962 ], [ 139.908562558000085, -5.047803140999974 ], [ 139.887935047000042, -5.063327382999944 ], [ 139.666537941000115, -5.062932457999977 ], [ 139.579221092000012, -5.05269670499996 ], [ 139.498206094000011, -5.002265940999962 ], [ 139.156641586000092, -4.993319112999927 ], [ 139.038403549, -4.983099423999931 ], [ 138.887851447000116, -4.956765109999935 ], [ 138.888563960000056, -4.921732979999945 ], [ 138.898194328000045, -4.927519385999972 ], [ 138.915717098000073, -4.914792058999979 ], [ 138.957390684000075, -4.923285692999968 ], [ 138.994483328000115, -4.901502889999961 ], [ 138.997631177000017, -4.891371362999962 ], [ 138.990721762000021, -4.885029055999951 ], [ 138.997086446000026, -4.873685043999956 ], [ 139.006547276000106, -4.875874267999961 ], [ 139.030166437000048, -4.859025475999943 ], [ 139.044425452000041, -4.871585311999979 ], [ 139.059127594000074, -4.867511824999951 ], [ 139.021816027000114, -4.837689399999931 ], [ 139.012124243000017, -4.842989711999962 ], [ 138.994035632000077, -4.833643668999969 ], [ 138.93254571500006, -4.831607063999968 ], [ 138.948987185000078, -4.81369482599996 ], [ 138.945127246000084, -4.802859890999969 ], [ 138.955258395000101, -4.786314149999953 ], [ 138.989726446000077, -4.771030405999966 ], [ 138.978835373000038, -4.766411658999971 ], [ 138.978923180000038, -4.757270202999962 ], [ 138.942694173000064, -4.763774162999937 ], [ 138.899141702000065, -4.727970341999935 ], [ 138.866713428000025, -4.716542874999959 ], [ 138.85460325300005, -4.701626722999947 ], [ 138.8475665630001, -4.70397309599997 ], [ 138.840755594000029, -4.727138304999926 ], [ 138.824511080000093, -4.737594600999955 ], [ 138.813915375000079, -4.763627668999959 ], [ 138.807592535000026, -4.767000897999935 ], [ 138.802197366000087, -4.763634188999958 ], [ 138.808645319000107, -4.764339682999946 ], [ 138.814513812000087, -4.747973525999953 ], [ 138.818737563000013, -4.70833977999996 ], [ 138.826288353000109, -4.704687301999968 ], [ 138.828983938000079, -4.688125594999974 ], [ 138.840405350000083, -4.683557029999974 ], [ 138.832410361000029, -4.662465487999953 ], [ 138.841775920000032, -4.650054218999969 ], [ 138.836826641000016, -4.637414521999972 ], [ 138.842765776000078, -4.627744392999944 ], [ 138.828907795000077, -4.612591984999938 ], [ 138.80606496900009, -4.612135127999977 ], [ 138.807169904000034, -4.598931399999969 ], [ 138.818407627000056, -4.586862799999949 ], [ 138.820040191000089, -4.55660291199996 ], [ 138.839795612000103, -4.554931240999963 ], [ 138.857798228000092, -4.517516866999927 ], [ 138.840982164000025, -4.496600843999943 ], [ 138.831840517000046, -4.49993801599993 ], [ 138.827046735000067, -4.468272344999946 ], [ 138.817023991000042, -4.458668752999927 ], [ 138.81108650200008, -4.429513802999963 ], [ 138.82411706500011, -4.417929951999952 ], [ 138.821892069000114, -4.400995241999965 ], [ 138.816524652000112, -4.392737255999975 ], [ 138.77254356200001, -4.38412303399997 ], [ 138.761066015000097, -4.366665017999935 ], [ 138.766104237000036, -4.340917956999931 ], [ 138.740488243000073, -4.318049182999971 ], [ 138.744649817000095, -4.285433316999956 ], [ 138.75682332100007, -4.262934798999936 ], [ 138.777422664000028, -4.246042414999977 ], [ 138.77975269600006, -4.221305904999952 ], [ 138.793378953000115, -4.221380245999967 ], [ 138.802712790000101, -4.209945153999968 ], [ 138.822854262000078, -4.24170167799997 ], [ 138.834261016000028, -4.240381816999957 ], [ 138.863191642000061, -4.262093192999941 ], [ 138.872826620000069, -4.254865529999961 ], [ 138.919275973000026, -4.257418260999941 ], [ 138.92570924100005, -4.227767184999948 ], [ 138.986178305000067, -4.223040134999962 ], [ 139.015266249000092, -4.191397190999965 ], [ 139.061736112000062, -4.192884409999976 ], [ 139.07812155900001, -4.179619567999964 ], [ 139.107678794000094, -4.175001518999977 ], [ 139.212012580000078, -4.182769770999926 ], [ 139.208848798000076, -4.161549760999947 ], [ 139.220734744000083, -4.149320171999932 ], [ 139.212558948000037, -4.138950327999964 ], [ 139.221426032000068, -4.127086977999966 ], [ 139.205902599000069, -4.090651569999977 ], [ 139.209160863000079, -4.079226622999954 ], [ 139.189056773000061, -4.061257509999962 ], [ 139.199859337000021, -4.045153232999951 ], [ 139.175515802000064, -4.005386033999969 ], [ 139.18752591000009, -3.991617668999936 ], [ 139.262426102000063, -4.013113811999972 ], [ 139.285323720000065, -4.005010255999935 ], [ 139.299207239000111, -3.990400976999979 ], [ 139.329923707000034, -4.012460604999944 ], [ 139.341242670000042, -4.00057187799996 ], [ 139.38610557100003, -4.020669981999959 ], [ 139.408103278000112, -4.012060854999959 ], [ 139.429175784000108, -4.034846573999971 ], [ 139.441518557000109, -4.019556266999928 ], [ 139.452391125000076, -4.021797033999974 ], [ 139.475003660000084, -4.009797916999958 ], [ 139.489900847000058, -4.018464208999944 ], [ 139.521578341, -3.996729664999975 ], [ 139.526255154000069, -4.01117645599993 ], [ 139.540267374000109, -4.00749364099994 ], [ 139.552195593000079, -4.016122436999979 ], [ 139.572660688000042, -4.000937456999964 ], [ 139.599851438000087, -3.996403366999971 ], [ 139.633442575000117, -4.017884379999941 ], [ 139.642241822000074, -3.99970434599993 ], [ 139.63978621800004, -3.984685187999958 ], [ 139.657776247000015, -3.981745720999925 ], [ 139.670536286000015, -3.920378092999954 ], [ 139.692041016000076, -3.905651423999927 ], [ 139.695427138000014, -3.88637741499997 ], [ 139.71150848700006, -3.882813933999955 ], [ 139.728838578000023, -3.832316060999972 ], [ 139.749606506000077, -3.826507507999963 ], [ 139.756634522000013, -3.809273443999928 ], [ 139.747234247000051, -3.798317656999927 ], [ 139.764659012000038, -3.785897876999968 ], [ 139.764540987000032, -3.771505888999968 ], [ 139.786135754000043, -3.773568705999935 ], [ 139.79038222600002, -3.757388419999927 ], [ 139.806277026000089, -3.751154231999976 ], [ 139.81635110000002, -3.736628722999967 ], [ 139.836591359000067, -3.736591930999964 ], [ 139.845680900000048, -3.720649541999933 ], [ 139.840112961000045, -3.710465448999969 ], [ 139.860355829000014, -3.688743349999925 ], [ 139.874074812000117, -3.685136074999946 ], [ 139.878129372000103, -3.694258690999959 ], [ 139.899190325000063, -3.687019813999939 ], [ 139.917668628000115, -3.696954606999952 ], [ 139.937619048000101, -3.692490885999973 ], [ 139.985221797, -3.741844851999929 ], [ 140.009908928000073, -3.734944545999952 ], [ 140.028557673000023, -3.710515409999971 ], [ 140.049707889000047, -3.728021010999953 ], [ 140.05658913100001, -3.71929529099998 ], [ 140.094232373000068, -3.725160822999953 ], [ 140.100787191000109, -3.707853863999958 ], [ 140.125544409000099, -3.695509172999948 ] ] ] } },
{ "type": "Feature", "properties": { "kemendagri_kab_code": 9504, "kemendagri_kab_name": "Kabupaten Tolikara", "kemendagri_prov_code": 95, "kemendagri_prov_name": "Papua Pegunungan" }, "geometry": { "type": "Polygon", "coordinates": [ [ [ 138.176784723000083, -3.110052413999938 ], [ 138.235678063000023, -3.15296638999996 ], [ 138.231842768000092, -3.168253353999944 ], [ 138.216012348000049, -3.17332141299994 ], [ 138.184770534000108, -3.206691405999948 ], [ 138.159330863000037, -3.198493268999925 ], [ 138.130648585000017, -3.268005283999969 ], [ 138.147308201000101, -3.293472491999978 ], [ 138.15833688500004, -3.285069310999972 ], [ 138.159627559000114, -3.267664848999971 ], [ 138.150865136000107, -3.261077290999935 ], [ 138.174295277000056, -3.26014168699993 ], [ 138.177425718000109, -3.242272220999951 ], [ 138.190589339000098, -3.242919963999952 ], [ 138.201298174000044, -3.220651119999957 ], [ 138.212625872000103, -3.221303449999937 ], [ 138.239645063000012, -3.188839109999947 ], [ 138.26135368100006, -3.189377252999975 ], [ 138.291873939000084, -3.174483730999953 ], [ 138.352085288000012, -3.23924055699996 ], [ 138.361841107000032, -3.241173333999939 ], [ 138.364996309000048, -3.233906909999973 ], [ 138.385765359000061, -3.245602645999952 ], [ 138.39688843700003, -3.237283741999931 ], [ 138.406854308000106, -3.246301511999945 ], [ 138.40794629100003, -3.239618834999931 ], [ 138.434943623000095, -3.229761019999955 ], [ 138.443907063000097, -3.24093131099994 ], [ 138.435046601000067, -3.259525065999981 ], [ 138.462126961000081, -3.272097610999936 ], [ 138.476000029000033, -3.295615362999968 ], [ 138.47365056700005, -3.303234201999942 ], [ 138.464724476000015, -3.298139503999948 ], [ 138.470699274000026, -3.312043216999939 ], [ 138.499321072000043, -3.299284277999959 ], [ 138.51857747300005, -3.321478437999929 ], [ 138.543069396000078, -3.32365456499997 ], [ 138.529415398000083, -3.35452563299998 ], [ 138.538457372000039, -3.368326740999976 ], [ 138.552352693000103, -3.367869206999956 ], [ 138.557912234000014, -3.377107616999979 ], [ 138.582392087000017, -3.382102981999935 ], [ 138.615535555000065, -3.402035724999962 ], [ 138.641421981, -3.447977144999925 ], [ 138.660486944000013, -3.451586044999942 ], [ 138.69032869900002, -3.483470900999976 ], [ 138.702315610000028, -3.485431134999942 ], [ 138.714717497000038, -3.50517844899997 ], [ 138.706714984000087, -3.543799071999956 ], [ 138.72160190000011, -3.557647909999957 ], [ 138.727354169000023, -3.597517574999927 ], [ 138.75425438700006, -3.600544308999929 ], [ 138.763713141000039, -3.616189876999954 ], [ 138.74488121100012, -3.61953060299993 ], [ 138.742427544000066, -3.655165279999949 ], [ 138.72273984900005, -3.672475279999958 ], [ 138.720792156000016, -3.689450098999941 ], [ 138.699056326000118, -3.723283497999944 ], [ 138.652953155000091, -3.71127103699996 ], [ 138.625119520000112, -3.719734572999926 ], [ 138.609424673000035, -3.750000006999926 ], [ 138.620809874000088, -3.768845046999957 ], [ 138.597222283000065, -3.779442931999938 ], [ 138.582887077, -3.774007141999959 ], [ 138.532317265000074, -3.778668638999932 ], [ 138.478728273000115, -3.757868213999927 ], [ 138.467370570000071, -3.778014680999945 ], [ 138.437502555000037, -3.77544516699993 ], [ 138.40815831000009, -3.792007759999933 ], [ 138.393411315000094, -3.790656898999941 ], [ 138.362205338000081, -3.761666100999946 ], [ 138.343877153000108, -3.76169486799995 ], [ 138.336638568000012, -3.746969521999972 ], [ 138.343396237000093, -3.726125443999933 ], [ 138.325212635000071, -3.718703994999942 ], [ 138.321067293000056, -3.707397903999947 ], [ 138.282657780000022, -3.704193159999932 ], [ 138.277651729000013, -3.696014601999934 ], [ 138.288612685000089, -3.685959619999949 ], [ 138.280328541000017, -3.67313495999997 ], [ 138.280616877000057, -3.650617159999967 ], [ 138.254800772000067, -3.619644471999948 ], [ 138.261453035000045, -3.595776162999925 ], [ 138.255372197000042, -3.557710200999963 ], [ 138.271956981000017, -3.526914130999955 ], [ 138.266500935000067, -3.517999761999931 ], [ 138.271007087000044, -3.490304555999955 ], [ 138.255565310000065, -3.473466597999959 ], [ 138.230797581000047, -3.471033214999977 ], [ 138.230438609000089, -3.441051994999953 ], [ 138.212615275000076, -3.441189092999934 ], [ 138.205511818000105, -3.433007733999943 ], [ 138.179259217000094, -3.445635652999954 ], [ 138.166178107000064, -3.434523996999928 ], [ 138.150785535000068, -3.436923185999945 ], [ 138.149947010000119, -3.426092041999937 ], [ 138.115086115000054, -3.401847787999941 ], [ 138.113705647000074, -3.334529044999954 ], [ 138.132649127000036, -3.328936695999971 ], [ 138.125613696000073, -3.318886229999976 ], [ 138.135358084000018, -3.297707043999935 ], [ 138.125842679000016, -3.294573511999943 ], [ 138.103434638000067, -3.306485055999929 ], [ 138.110110125000119, -3.286930438999946 ], [ 138.105860481000036, -3.272097905999942 ], [ 138.078665121000085, -3.243097428999931 ], [ 138.086613637000028, -3.225059635999969 ], [ 138.075227504000054, -3.225730443999964 ], [ 138.061878309, -3.209686301999966 ], [ 138.071906438000042, -3.198042383999962 ], [ 138.074658690000092, -3.131349082999975 ], [ 138.116965111000013, -3.117140780999932 ], [ 138.176784723000083, -3.110052413999938 ] ] ] } },
{ "type": "Feature", "properties": { "kemendagri_kab_code": 9505, "kemendagri_kab_name": "Kabupaten Mamberamo Tengah", "kemendagri_prov_code": 95, "kemendagri_prov_name": "Papua Pegunungan" }, "geometry": { "type": "Polygon", "coordinates": [ [ [ 139.065465983000081, -3.276383123999949 ], [ 139.09388922200003, -3.289972984999963 ], [ 139.097785454000018, -3.304590592999944 ], [ 139.090522966000094, -3.307273860999942 ], [ 139.072403884000096, -3.289517656999976 ], [ 139.071115221000014, -3.315342850999969 ], [ 139.083718213000111, -3.335162685999933 ], [ 139.105651152000064, -3.336242065999954 ], [ 139.1030678300001, -3.36441113199993 ], [ 139.109531249000042, -3.379860850999933 ], [ 139.124640604000092, -3.377078538999967 ], [ 139.126695766000012, -3.35548386499994 ], [ 139.142691146000061, -3.364000295999972 ], [ 139.147440424000024, -3.375916217999929 ], [ 139.137959371000079, -3.418657818999975 ], [ 139.143171841000026, -3.427881086999946 ], [ 139.168702151000048, -3.433279493999976 ], [ 139.182981490000088, -3.426938630999928 ], [ 139.195595815000047, -3.446453472999963 ], [ 139.206695977000095, -3.448979946999941 ], [ 139.252150569000037, -3.41878511799996 ], [ 139.269591373000026, -3.418692539999938 ], [ 139.270236975000103, -3.427128210999967 ], [ 139.250110255000095, -3.432912597999973 ], [ 139.249267900000063, -3.452559201999975 ], [ 139.269484383000076, -3.441518089999931 ], [ 139.275738022000041, -3.463632705999942 ], [ 139.306374213000026, -3.47367253799996 ], [ 139.321626883000022, -3.448048593999943 ], [ 139.330463985000051, -3.446057672999927 ], [ 139.336058365000099, -3.453242855999974 ], [ 139.331061003000059, -3.475006543999939 ], [ 139.339583414000117, -3.484179759999961 ], [ 139.356588937000083, -3.482875459999946 ], [ 139.379021950000038, -3.467705715999955 ], [ 139.368153322000012, -3.451729618999934 ], [ 139.37346041100011, -3.435935194999956 ], [ 139.417423788000065, -3.443154005999929 ], [ 139.439687328000105, -3.463396799999941 ], [ 139.463643442000034, -3.46016465699995 ], [ 139.45840131600005, -3.486831190999965 ], [ 139.436391301000072, -3.50973350299995 ], [ 139.431632379000121, -3.525497431999952 ], [ 139.433983192000028, -3.574228602999938 ], [ 139.406422783000039, -3.607970787999932 ], [ 139.368351407000091, -3.610255069999937 ], [ 139.360632363000036, -3.633305513999971 ], [ 139.33559695100007, -3.653122966999945 ], [ 139.335184845000072, -3.693063964999965 ], [ 139.319499705000112, -3.697937536999973 ], [ 139.32555848700008, -3.708296426999937 ], [ 139.31504597300011, -3.727701559999957 ], [ 139.303735456000027, -3.732577496999966 ], [ 139.28505455200002, -3.724346870999966 ], [ 139.279057967000085, -3.747254363999957 ], [ 139.292001274000086, -3.75632870499993 ], [ 139.288963313000068, -3.770423737999977 ], [ 139.263818854000078, -3.771561227999939 ], [ 139.208556790000102, -3.74057911999995 ], [ 139.153427916000055, -3.762760170999968 ], [ 139.129249990000062, -3.751739570999973 ], [ 139.122737835000066, -3.735131602999957 ], [ 139.105115978000072, -3.748142845999951 ], [ 139.117637397000067, -3.762042930999939 ], [ 139.127641692000111, -3.806311871999981 ], [ 139.043267339000067, -3.857401990999961 ], [ 139.028540133000092, -3.859320131999937 ], [ 139.012105971000096, -3.834985266999979 ], [ 138.983002664000082, -3.828321339999945 ], [ 138.983114932000035, -3.815976216999957 ], [ 138.971461133000048, -3.804023063999978 ], [ 138.953748053000027, -3.805543618999934 ], [ 138.967601707000085, -3.810783009999966 ], [ 138.959335058000079, -3.817497729999957 ], [ 138.966975049000098, -3.824767975999976 ], [ 138.952655446000108, -3.832487550999929 ], [ 138.957251383000084, -3.838257669999962 ], [ 138.974554158000046, -3.850361089999979 ], [ 138.993770159000064, -3.843974277999962 ], [ 139.017177708000077, -3.863830424999946 ], [ 138.999761076000027, -3.868094716999963 ], [ 138.99866045400006, -3.887168505999966 ], [ 138.966739741000083, -3.893685618999939 ], [ 138.928519588000086, -3.867751650999935 ], [ 138.904479766, -3.868020594999962 ], [ 138.897735824000051, -3.840011290999939 ], [ 138.905846619000044, -3.811605578999945 ], [ 138.893374949000076, -3.810532747999957 ], [ 138.895782925000049, -3.800752620999958 ], [ 138.881911639, -3.792518597999958 ], [ 138.790327804000071, -3.809215110999958 ], [ 138.77815592200011, -3.797256940999944 ], [ 138.749682688000121, -3.788709049999966 ], [ 138.737398531000053, -3.793574959999944 ], [ 138.735346720000052, -3.782203580999976 ], [ 138.723652877000063, -3.776283994999972 ], [ 138.675386140000114, -3.779646513999978 ], [ 138.663742771000102, -3.751525790999949 ], [ 138.620808237000119, -3.768846695999969 ], [ 138.609424673000035, -3.750000006999926 ], [ 138.625119520000112, -3.719734572999926 ], [ 138.652953155000091, -3.71127103699996 ], [ 138.699056326000118, -3.723283497999944 ], [ 138.720792156000016, -3.689450098999941 ], [ 138.72273984900005, -3.672475279999958 ], [ 138.742427544000066, -3.655165279999949 ], [ 138.74488121100012, -3.61953060299993 ], [ 138.763713141000039, -3.616189876999954 ], [ 138.75425438700006, -3.600544308999929 ], [ 138.727354169000023, -3.597517574999927 ], [ 138.72160190000011, -3.557647909999957 ], [ 138.706714984000087, -3.543799071999956 ], [ 138.714717497000038, -3.50517844899997 ], [ 138.702315610000028, -3.485431134999942 ], [ 138.69032869900002, -3.483470900999976 ], [ 138.660486944000013, -3.451586044999942 ], [ 138.641421981, -3.447977144999925 ], [ 138.615535555000065, -3.402035724999962 ], [ 138.536061859000029, -3.365519775999928 ], [ 138.529415398000083, -3.35452563299998 ], [ 138.543069396000078, -3.32365456499997 ], [ 138.568428545000074, -3.316813694999951 ], [ 138.599981830000047, -3.33237497999994 ], [ 138.626769143000047, -3.308817679999947 ], [ 138.640412552000043, -3.280447472999981 ], [ 138.637041990000057, -3.272004238999955 ], [ 138.649097473000097, -3.269807783999966 ], [ 138.674550869000086, -3.236848111999961 ], [ 138.70263564600009, -3.247773957999925 ], [ 138.679292218000114, -3.194673832999968 ], [ 138.70306533400003, -3.200771176999979 ], [ 138.716433220000113, -3.215088312999967 ], [ 138.749370577000036, -3.175214859999926 ], [ 138.764244858000097, -3.177642330999959 ], [ 138.779267090000076, -3.201975705999928 ], [ 138.78478919500003, -3.195463219999965 ], [ 138.775203674000068, -3.180081043999962 ], [ 138.823741845000086, -3.168998590999934 ], [ 138.828377560000035, -3.176926625999954 ], [ 138.80691158400009, -3.181175721999978 ], [ 138.801622612000074, -3.189787814999931 ], [ 138.806167992000042, -3.22380041699995 ], [ 138.827458977000106, -3.225002564999954 ], [ 138.835810702000117, -3.213542522999944 ], [ 138.85116494500005, -3.234495140999968 ], [ 138.877608208000083, -3.225456893999933 ], [ 138.895833396000057, -3.254531647999954 ], [ 138.913009027000044, -3.25258452099996 ], [ 138.910557982000114, -3.273090417999981 ], [ 138.918657412000016, -3.27875248099997 ], [ 138.898035607000111, -3.291611122999939 ], [ 138.877640598000085, -3.329367616999946 ], [ 138.875610437000091, -3.34015652599993 ], [ 138.888493, -3.360319924999942 ], [ 138.872615177000057, -3.425688198999978 ], [ 138.893096960000094, -3.402892472999952 ], [ 138.897596509000095, -3.413333546999979 ], [ 138.905226324000068, -3.398982281999963 ], [ 138.924578771000029, -3.389427134999949 ], [ 138.930962574000091, -3.36403275899994 ], [ 138.964502764000031, -3.346112600999959 ], [ 138.965828970000075, -3.32932206299995 ], [ 138.9917214190001, -3.319998512999973 ], [ 138.999438406000081, -3.301067518999957 ], [ 139.016756868000016, -3.301649471999951 ], [ 139.030093258000079, -3.285331304999943 ], [ 139.049186881000082, -3.293970844999933 ], [ 139.052710470000079, -3.28018429499997 ], [ 139.065465983000081, -3.276383123999949 ] ] ] } },
{ "type": "Feature", "properties": { "kemendagri_kab_code": 9506, "kemendagri_kab_name": "Kabupaten Yalimo", "kemendagri_prov_code": 95, "kemendagri_prov_name": "Papua Pegunungan" }, "geometry": { "type": "Polygon", "coordinates": [ [ [ 139.474440261000041, -3.52284012299998 ], [ 139.484825413000067, -3.518504447999931 ], [ 139.48739961900003, -3.490692617999969 ], [ 139.499895686000059, -3.488914726999951 ], [ 139.505123282000113, -3.497731895999948 ], [ 139.498749195000073, -3.516343651999932 ], [ 139.519837458000097, -3.524982432999934 ], [ 139.506215305000069, -3.542481638999959 ], [ 139.517630086000054, -3.555520324999975 ], [ 139.504900685000052, -3.562653567999973 ], [ 139.52112571400005, -3.589585898999928 ], [ 139.518827901, -3.611664650999955 ], [ 139.527903160000051, -3.633514024999954 ], [ 139.515021595000121, -3.649429464999969 ], [ 139.5178629830001, -3.657288652999966 ], [ 139.592611278000049, -3.705136788999937 ], [ 139.595134323000025, -3.727187059999949 ], [ 139.609333839000101, -3.711000180999974 ], [ 139.621936446000063, -3.709746588999963 ], [ 139.626019093000082, -3.664193207999972 ], [ 139.662822971000082, -3.66431605899993 ], [ 139.703614203000029, -3.637303784999972 ], [ 139.689534347000063, -3.599949441999968 ], [ 139.697025584000016, -3.57953105799993 ], [ 139.702538907000076, -3.580519962999972 ], [ 139.695877198000062, -3.575071779999973 ], [ 139.70282523700007, -3.559175238999956 ], [ 139.693182066000077, -3.556509525999957 ], [ 139.693126110000094, -3.548632662999978 ], [ 139.68413260300008, -3.550418625999953 ], [ 139.675171065000086, -3.531792472999939 ], [ 139.685738183000012, -3.529030298999942 ], [ 139.702546341000016, -3.542796855999939 ], [ 139.71873500300012, -3.521623815999931 ], [ 139.725747740000088, -3.544076642999926 ], [ 139.737130103000027, -3.54835172099996 ], [ 139.744991845000072, -3.54434600299993 ], [ 139.744475885000043, -3.529260804999979 ], [ 139.757813533000103, -3.510104755999976 ], [ 139.782736025000077, -3.521552823999968 ], [ 139.773103989000106, -3.531173987999978 ], [ 139.780161234000047, -3.545182559999944 ], [ 139.770217941000055, -3.561845870999946 ], [ 139.780915543000106, -3.570064657999978 ], [ 139.806455193000033, -3.566963969999961 ], [ 139.799527971000089, -3.591891332999978 ], [ 139.821202460000109, -3.577402699999936 ], [ 139.83878530000004, -3.58808354699994 ], [ 139.86363510000001, -3.585745955999926 ], [ 139.875818146000029, -3.601225801999931 ], [ 139.856535492000035, -3.607978918999947 ], [ 139.858821632000058, -3.613187018999952 ], [ 139.881669696000017, -3.608244665999962 ], [ 139.888972082, -3.621614560999944 ], [ 139.900701569000034, -3.624992885999973 ], [ 139.889402329000063, -3.643915534999962 ], [ 139.906535973000018, -3.633575120999978 ], [ 139.912202076000085, -3.645162135999954 ], [ 139.920704597000054, -3.624862677999943 ], [ 139.967505882000069, -3.612664861999974 ], [ 139.957513881000068, -3.639415735999933 ], [ 139.989427051000121, -3.657474628999978 ], [ 140.003784189000044, -3.689334974999952 ], [ 140.00135991500008, -3.701052116999961 ], [ 140.019681765000087, -3.701528008999958 ], [ 140.025685216000056, -3.687316583999973 ], [ 140.021167201000026, -3.680039407999971 ], [ 140.038946836000036, -3.67041003099996 ], [ 140.050203732000114, -3.673394797999947 ], [ 140.064730852000025, -3.649107880999964 ], [ 140.087111816000061, -3.682641948999958 ], [ 140.097907264000014, -3.678247820999957 ], [ 140.109987154, -3.691975549999938 ], [ 140.125580136000053, -3.695509166999955 ], [ 140.100787191000109, -3.707853863999958 ], [ 140.094232373000068, -3.725160822999953 ], [ 140.05658913100001, -3.71929529099998 ], [ 140.049707889000047, -3.728021010999953 ], [ 140.028557673000023, -3.710515409999971 ], [ 140.009908928000073, -3.734944545999952 ], [ 139.985221797, -3.741844851999929 ], [ 139.937619048000101, -3.692490885999973 ], [ 139.917668628000115, -3.696954606999952 ], [ 139.899190325000063, -3.687019813999939 ], [ 139.878129372000103, -3.694258690999959 ], [ 139.874074812000117, -3.685136074999946 ], [ 139.860355829000014, -3.688743349999925 ], [ 139.840112961000045, -3.710465448999969 ], [ 139.845680900000048, -3.720649541999933 ], [ 139.836591359000067, -3.736591930999964 ], [ 139.81635110000002, -3.736628722999967 ], [ 139.806277026000089, -3.751154231999976 ], [ 139.79038222600002, -3.757388419999927 ], [ 139.786135754000043, -3.773568705999935 ], [ 139.764540987000032, -3.771505888999968 ], [ 139.764659012000038, -3.785897876999968 ], [ 139.747234247000051, -3.798317656999927 ], [ 139.756634522000013, -3.809273443999928 ], [ 139.749606506000077, -3.826507507999963 ], [ 139.728838578000023, -3.832316060999972 ], [ 139.71150848700006, -3.882813933999955 ], [ 139.695427138000014, -3.88637741499997 ], [ 139.692041016000076, -3.905651423999927 ], [ 139.670536286000015, -3.920378092999954 ], [ 139.657776247000015, -3.981745720999925 ], [ 139.63978621800004, -3.984685187999958 ], [ 139.642241822000074, -3.99970434599993 ], [ 139.633442575000117, -4.017884379999941 ], [ 139.599851438000087, -3.996403366999971 ], [ 139.572660688000042, -4.000937456999964 ], [ 139.552195593000079, -4.016122436999979 ], [ 139.540267374000109, -4.00749364099994 ], [ 139.526255154000069, -4.01117645599993 ], [ 139.521578341, -3.996729664999975 ], [ 139.489900847000058, -4.018464208999944 ], [ 139.475003660000084, -4.009797916999958 ], [ 139.452391125000076, -4.021797033999974 ], [ 139.441518557000109, -4.019556266999928 ], [ 139.429175784000108, -4.034846573999971 ], [ 139.408103278000112, -4.012060854999959 ], [ 139.38610557100003, -4.020669981999959 ], [ 139.341242670000042, -4.00057187799996 ], [ 139.329923707000034, -4.012460604999944 ], [ 139.299207239000111, -3.990400976999979 ], [ 139.279070734000015, -4.00835111899994 ], [ 139.252534728000114, -4.012436265999952 ], [ 139.176147972000081, -3.987341207999975 ], [ 139.141123728000025, -3.953221022999969 ], [ 139.11622589600006, -3.946468206999953 ], [ 139.106411906000062, -3.934531898999978 ], [ 139.085539554000093, -3.938428534999957 ], [ 139.08080846900009, -3.931055760999925 ], [ 139.039558965000083, -3.963100923999946 ], [ 139.01047463000009, -3.965479750999975 ], [ 139.004815109000106, -3.955795817999956 ], [ 139.026815863000024, -3.926094721999959 ], [ 139.014186784000117, -3.888644187999944 ], [ 139.020477010000036, -3.878407657999958 ], [ 139.017177708000077, -3.863830424999946 ], [ 138.993770159000064, -3.843974277999962 ], [ 138.974554158000046, -3.850361089999979 ], [ 138.957251383000084, -3.838257669999962 ], [ 138.952655446000108, -3.832487550999929 ], [ 138.966975049000098, -3.824767975999976 ], [ 138.959335058000079, -3.817497729999957 ], [ 138.967601707000085, -3.810783009999966 ], [ 138.953748053000027, -3.805543618999934 ], [ 138.971461133000048, -3.804023063999978 ], [ 138.983114932000035, -3.815976216999957 ], [ 138.983002664000082, -3.828321339999945 ], [ 139.012105971000096, -3.834985266999979 ], [ 139.019316503000027, -3.853227960999959 ], [ 139.033506877000036, -3.859162601999969 ], [ 139.127478606000068, -3.806541900999946 ], [ 139.117637397000067, -3.762042930999939 ], [ 139.105115978000072, -3.748142845999951 ], [ 139.122737835000066, -3.735131602999957 ], [ 139.129249990000062, -3.751739570999973 ], [ 139.153427916000055, -3.762760170999968 ], [ 139.208556790000102, -3.74057911999995 ], [ 139.263134471000058, -3.771287881999967 ], [ 139.28533359100004, -3.773852554999962 ], [ 139.292125101000011, -3.756888727999979 ], [ 139.279057967000085, -3.747254363999957 ], [ 139.28505455200002, -3.724346870999966 ], [ 139.303735456000027, -3.732577496999966 ], [ 139.31504597300011, -3.727701559999957 ], [ 139.32555848700008, -3.708296426999937 ], [ 139.319499705000112, -3.697937536999973 ], [ 139.335184845000072, -3.693063964999965 ], [ 139.33559695100007, -3.653122966999945 ], [ 139.360632363000036, -3.633305513999971 ], [ 139.368351407000091, -3.610255069999937 ], [ 139.406422783000039, -3.607970787999932 ], [ 139.433983192000028, -3.574228602999938 ], [ 139.431632379000121, -3.525497431999952 ], [ 139.436391301000072, -3.50973350299995 ], [ 139.45840131600005, -3.486831190999965 ], [ 139.467594833000021, -3.459464325999932 ], [ 139.486294015000112, -3.472727073999977 ], [ 139.466403048000075, -3.493307244999926 ], [ 139.474440261000041, -3.52284012299998 ] ] ] } },
{ "type": "Feature", "properties": { "kemendagri_kab_code": 9507, "kemendagri_kab_name": "Kabupaten Lanny Jaya", "kemendagri_prov_code": 95, "kemendagri_prov_name": "Papua Pegunungan" }, "geometry": { "type": "Polygon", "coordinates": [ [ [ 138.597222283000065, -3.779442931999938 ], [ 138.634487863000118, -3.766766037999957 ], [ 138.6466574640001, -3.803594493999981 ], [ 138.642022602000111, -3.815426210999931 ], [ 138.659374612000079, -3.842896550999967 ], [ 138.68418650600006, -3.858767148999959 ], [ 138.692936356000018, -3.875514977999956 ], [ 138.710685836000039, -3.871435928999972 ], [ 138.720395306000114, -3.881782459999954 ], [ 138.70853000000011, -3.90715 ], [ 138.710862564000081, -3.919860820999929 ], [ 138.715486794000071, -3.936317239999937 ], [ 138.726332099000047, -3.938828306999937 ], [ 138.733602705000067, -3.95253629299998 ], [ 138.736853678000102, -3.969689753999944 ], [ 138.727411977000088, -3.982177165999929 ], [ 138.746295380000106, -3.99603514699993 ], [ 138.73929024600011, -4.018877971999927 ], [ 138.693604595000011, -4.031669954999927 ], [ 138.694975165000074, -4.043395937999946 ], [ 138.674641158000099, -4.082250476999945 ], [ 138.672015108000096, -4.136450404999948 ], [ 138.642789580000112, -4.235713804999932 ], [ 138.630641040000114, -4.220386858999973 ], [ 138.655045084000108, -4.170619998999939 ], [ 138.649646550000057, -4.153060941999968 ], [ 138.552382592000072, -4.124317638999969 ], [ 138.543061307000016, -4.107292829999949 ], [ 138.520651867000083, -4.109781482999949 ], [ 138.51038255200001, -4.098350333999974 ], [ 138.495963398000072, -4.105026074999955 ], [ 138.494150359000059, -4.09675630299995 ], [ 138.454166369000063, -4.079776197999934 ], [ 138.353748256000017, -4.063907235999977 ], [ 138.346157381000012, -4.055770238999969 ], [ 138.297924697000099, -4.096804775999942 ], [ 138.277307939000025, -4.066504269999939 ], [ 138.270024511000088, -4.038358421999931 ], [ 138.255111685000088, -4.043882667999981 ], [ 138.227516341000069, -4.022308247999945 ], [ 138.169460891000085, -4.036824912999975 ], [ 138.178915505000077, -4.060599818999947 ], [ 138.172464392000052, -4.069769669999971 ], [ 138.129417839000098, -4.080712063999954 ], [ 138.109496259000025, -4.095424569999977 ], [ 138.088093759000117, -4.098715137999932 ], [ 138.084743397000011, -4.077286782999977 ], [ 138.076325279000116, -4.079537498999969 ], [ 138.066081849000057, -4.106082847999971 ], [ 138.044791606000103, -4.090633336999929 ], [ 138.037977622000085, -4.09882149799995 ], [ 138.02641772000004, -4.091031216999966 ], [ 138.005527201000064, -4.120490976999974 ], [ 137.983856958000047, -4.109091688999968 ], [ 137.98779162400001, -4.090190125999925 ], [ 137.968351263000045, -4.072780248999948 ], [ 137.977018344000044, -4.058069903999979 ], [ 137.960152977000121, -4.02935079599996 ], [ 137.946098266000035, -4.025084695999965 ], [ 137.961474119000059, -4.015920538999978 ], [ 137.961617751000063, -4.002740465999977 ], [ 137.94912264300001, -4.00006316799994 ], [ 137.962045853000063, -3.991458548999958 ], [ 137.96961052100005, -3.972064367999963 ], [ 137.962860713000055, -3.932255901999952 ], [ 138.014285483000094, -3.889773256999945 ], [ 138.034611884000014, -3.880787847999954 ], [ 138.056473241000049, -3.887764832999949 ], [ 138.061128941000106, -3.87661337399993 ], [ 138.079526891000114, -3.873266417999957 ], [ 138.080346753000072, -3.889837408999938 ], [ 138.091819988000111, -3.903726608999932 ], [ 138.08573379500001, -3.907983917999957 ], [ 138.153210844000114, -3.911117457999978 ], [ 138.182302843000116, -3.900873543999978 ], [ 138.236192250000045, -3.869071767999969 ], [ 138.238615821000053, -3.849087580999935 ], [ 138.265563715000098, -3.82733424099996 ], [ 138.284324100000049, -3.821369781999977 ], [ 138.318021173000034, -3.837758619999931 ], [ 138.353940074000093, -3.825646321999955 ], [ 138.346269630000052, -3.758449518999953 ], [ 138.363597136000067, -3.762497552999946 ], [ 138.393411315000094, -3.790656898999941 ], [ 138.40815831000009, -3.792007759999933 ], [ 138.437502555000037, -3.77544516699993 ], [ 138.467370570000071, -3.778014680999945 ], [ 138.478728273000115, -3.757868213999927 ], [ 138.532317265000074, -3.778668638999932 ], [ 138.582887077, -3.774007141999959 ], [ 138.597222283000065, -3.779442931999938 ] ] ] } },
{ "type": "Feature", "properties": { "kemendagri_kab_code": 9508, "kemendagri_kab_name": "Kabupaten Nduga", "kemendagri_prov_code": 95, "kemendagri_prov_name": "Papua Pegunungan" }, "geometry": { "type": "Polygon", "coordinates": [ [ [ 138.642789580000112, -4.235713804999932 ], [ 138.638762650000103, -4.257139251999945 ], [ 138.628398675000085, -4.266931892999935 ], [ 138.624171978000049, -4.318415957999946 ], [ 138.605143431000101, -4.354590393999956 ], [ 138.61652183700005, -4.362322381999945 ], [ 138.618515289000015, -4.380187645999968 ], [ 138.583273728000108, -4.402177256999948 ], [ 138.59508134500004, -4.430235173999961 ], [ 138.592881936000026, -4.443198550999966 ], [ 138.61086402400008, -4.446790700999941 ], [ 138.624313281000013, -4.47237709999996 ], [ 138.75869603700005, -4.478243308999936 ], [ 138.770090359000051, -4.473617522999973 ], [ 138.764329736000036, -4.46615245299995 ], [ 138.777035536000085, -4.440849073999971 ], [ 138.767339175000075, -4.413994758999934 ], [ 138.77385266400006, -4.385012481999979 ], [ 138.816524652000112, -4.392737255999975 ], [ 138.822359593000101, -4.402130034999971 ], [ 138.82411706500011, -4.417929951999952 ], [ 138.81108650200008, -4.429513802999963 ], [ 138.817023991000042, -4.458668752999927 ], [ 138.827046735000067, -4.468272344999946 ], [ 138.831840517000046, -4.49993801599993 ], [ 138.840982164000025, -4.496600843999943 ], [ 138.857798228000092, -4.517516866999927 ], [ 138.839795612000103, -4.554931240999963 ], [ 138.820040191000089, -4.55660291199996 ], [ 138.818407627000056, -4.586862799999949 ], [ 138.807169904000034, -4.598931399999969 ], [ 138.80606496900009, -4.612135127999977 ], [ 138.828907795000077, -4.612591984999938 ], [ 138.842765776000078, -4.627744392999944 ], [ 138.836826641000016, -4.637414521999972 ], [ 138.841775920000032, -4.650054218999969 ], [ 138.832410361000029, -4.662465487999953 ], [ 138.840405350000083, -4.683557029999974 ], [ 138.828983938000079, -4.688125594999974 ], [ 138.826288353000109, -4.704687301999968 ], [ 138.818737563000013, -4.70833977999996 ], [ 138.807995432000098, -4.764869856999951 ], [ 138.799621506000108, -4.760691544999929 ], [ 138.807297006000113, -4.726909679999949 ], [ 138.766642839000042, -4.722919925999975 ], [ 138.752779408000038, -4.708829824999953 ], [ 138.736478709000039, -4.718854214999965 ], [ 138.628792792000013, -4.716194498999926 ], [ 138.624859791000063, -4.723066044999939 ], [ 138.611997885000051, -4.718273043999943 ], [ 138.602953229000036, -4.723862013999963 ], [ 138.586908399000095, -4.698615090999965 ], [ 138.572305357000118, -4.707180654999945 ], [ 138.556409336000115, -4.703618 ], [ 138.535493520000045, -4.720748897999954 ], [ 138.523780663000025, -4.712941504999947 ], [ 138.504994458000056, -4.722037487999955 ], [ 138.459207835000029, -4.68845756099995 ], [ 138.419212929000082, -4.713874014999931 ], [ 138.410970080000084, -4.702862732999961 ], [ 138.375468513000101, -4.688609166999925 ], [ 138.368595492000054, -4.692717677999951 ], [ 138.377977476000069, -4.714555493999967 ], [ 138.380148640000016, -4.770832625999958 ], [ 138.368790667000098, -4.783001859999956 ], [ 138.373908411000116, -4.797904546999973 ], [ 138.366204721000031, -4.797159822999959 ], [ 138.370096905000082, -4.786970704999931 ], [ 138.363945554000111, -4.783524543999931 ], [ 138.373428198000056, -4.768114950999973 ], [ 138.355982235000056, -4.75641604499998 ], [ 138.357554961000119, -4.745365083999957 ], [ 138.346656875, -4.744708877999926 ], [ 138.356441350000068, -4.727232543999946 ], [ 138.339191178000078, -4.706267409999953 ], [ 138.325739436000049, -4.667533952999975 ], [ 138.301473495000096, -4.665094971999963 ], [ 138.281233794000059, -4.680646352999929 ], [ 138.243490253000118, -4.670033731999979 ], [ 138.211198202000105, -4.709455296999977 ], [ 138.202190123000037, -4.702885565999964 ], [ 138.192663645000039, -4.713479837999955 ], [ 138.170025198000076, -4.684390529999973 ], [ 138.153817909000054, -4.676006427999937 ], [ 138.142234283000107, -4.629622474999962 ], [ 138.124572734000026, -4.605537334999951 ], [ 138.132907655000054, -4.58892917299994 ], [ 138.108775799000114, -4.574722816999952 ], [ 138.070068083000024, -4.565338486999963 ], [ 138.059634685000105, -4.587321193999969 ], [ 138.050980225000103, -4.595315128999971 ], [ 138.038874342000099, -4.593675842999971 ], [ 138.029611713, -4.612211123999941 ], [ 137.994487124000102, -4.586033499999928 ], [ 137.974307091000014, -4.590936230999944 ], [ 137.974663601000088, -4.600074186999962 ], [ 137.940526881000096, -4.603116138999951 ], [ 137.8277176470001, -4.538897437999935 ], [ 137.833753892000118, -4.499999983999942 ], [ 137.841592381000055, -4.493232740999929 ], [ 137.834573295000041, -4.485688386999925 ], [ 137.844589131000021, -4.45981884899993 ], [ 137.855934457000103, -4.451225371999953 ], [ 137.866651980000029, -4.409563220999928 ], [ 137.894389378000028, -4.408881237999935 ], [ 137.87561787300001, -4.396777247999978 ], [ 137.864744540000061, -4.40294076899994 ], [ 137.864533048000112, -4.371972288999928 ], [ 137.85752212400007, -4.364996514999973 ], [ 137.860714668000014, -4.35228935799995 ], [ 137.884919511000021, -4.342111083999953 ], [ 137.874395839000044, -4.318873692999944 ], [ 137.881428029000062, -4.304392800999949 ], [ 137.86384832900012, -4.294370828999945 ], [ 137.859391444000039, -4.281127842999979 ], [ 137.869494467000095, -4.27299187899996 ], [ 137.880574061000061, -4.275841594999974 ], [ 137.898486251, -4.259962167999959 ], [ 137.877300437000031, -4.239670718999946 ], [ 137.879853193000031, -4.206329118999975 ], [ 137.958873068000116, -4.203817565999941 ], [ 137.964598820000106, -4.168427211999926 ], [ 137.958105363000072, -4.15336412399995 ], [ 137.947889887000088, -4.150345602999948 ], [ 137.971048239000083, -4.128119276999939 ], [ 138.006107393000093, -4.120188580999979 ], [ 138.02641772000004, -4.091031216999966 ], [ 138.037977622000085, -4.09882149799995 ], [ 138.044791606000103, -4.090633336999929 ], [ 138.066081849000057, -4.106082847999971 ], [ 138.076325279000116, -4.079537498999969 ], [ 138.086348475000023, -4.07853494799997 ], [ 138.088981466000064, -4.098783413999968 ], [ 138.167263457000104, -4.072552454999936 ], [ 138.178873537000072, -4.061096647999932 ], [ 138.17161563600007, -4.035733731999926 ], [ 138.227516341000069, -4.022308247999945 ], [ 138.255111685000088, -4.043882667999981 ], [ 138.268177643000058, -4.036675226999932 ], [ 138.283104197000057, -4.078226431999951 ], [ 138.297924697000099, -4.096804775999942 ], [ 138.346157381000012, -4.055770238999969 ], [ 138.353748256000017, -4.063907235999977 ], [ 138.454166369000063, -4.079776197999934 ], [ 138.494150359000059, -4.09675630299995 ], [ 138.495963398000072, -4.105026074999955 ], [ 138.51038255200001, -4.098350333999974 ], [ 138.520651867000083, -4.109781482999949 ], [ 138.543061307000016, -4.107292829999949 ], [ 138.552382592000072, -4.124317638999969 ], [ 138.650255653000045, -4.153716324999948 ], [ 138.655045084000108, -4.170619998999939 ], [ 138.630641040000114, -4.220386858999973 ], [ 138.642789580000112, -4.235713804999932 ] ] ] } }
]
}
